{"type":"FeatureCollection","features":[{"type":"Feature","properties":{"ref":"472000","objID":"0-203-1-472000","name":"Baliny","stream":"Balinka","operator":"Povodí Moravy Brno","category":"A","ele":437.48,"spa1_cm":120,"spa2_cm":160,"spa3_cm":200,"website":"https://hydro.chmi.cz/hpps/pov/objekt/307152","osm_monitoring_station_within_150m":false},"geometry":{"type":"Point","coordinates":[15.9604167,49.3387229]}},{"type":"Feature","properties":{"ref":"463000","objID":"0-203-1-463000","name":"Batelov","stream":"Jihlava","operator":"ČHMÚ Brno","category":"B","ele":540.86,"spa1_cm":120,"spa2_cm":150,"spa3_cm":170,"website":"https://hydro.chmi.cz/hpps/pov/objekt/306992","osm_monitoring_station_within_150m":false},"geometry":{"type":"Point","coordinates":[15.4063213,49.3137753]}},{"type":"Feature","properties":{"ref":"457000","objID":"0-203-1-457000","name":"Bílovice nad Svitavou","stream":"Svitava","operator":"ČHMÚ Brno","category":"A","ele":217.88,"spa1_cm":200,"spa2_cm":270,"spa3_cm":350,"website":"https://hydro.chmi.cz/hpps/pov/objekt/306989","osm_monitoring_station_within_150m":true},"geometry":{"type":"Point","coordinates":[16.6749281,49.2454285]}},{"type":"Feature","properties":{"ref":"414100","objID":"0-203-1-414100","name":"Bojkovice nad nádrží","stream":"Kolelač","operator":"","category":"C","ele":322.23,"spa1_cm":null,"spa2_cm":null,"spa3_cm":null,"website":"https://hydro.chmi.cz/hpps/pov/objekt/514726","osm_monitoring_station_within_150m":false},"geometry":{"type":"Point","coordinates":[17.8564503,49.0545318]}},{"type":"Feature","properties":{"ref":"441000","objID":"0-203-1-441000","name":"Borovnice","stream":"Svratka","operator":"ČHMÚ Brno","category":"A","ele":514.63,"spa1_cm":170,"spa2_cm":200,"spa3_cm":225,"website":"https://hydro.chmi.cz/hpps/pov/objekt/307204","osm_monitoring_station_within_150m":false},"geometry":{"type":"Point","coordinates":[16.1910749,49.6779914]}},{"type":"Feature","properties":{"ref":"463800","objID":"0-203-1-463800","name":"Boršov","stream":"Jedlovský potok","operator":"","category":"C","ele":590.09,"spa1_cm":null,"spa2_cm":null,"spa3_cm":null,"website":"https://hydro.chmi.cz/hpps/pov/objekt/514773","osm_monitoring_station_within_150m":false},"geometry":{"type":"Point","coordinates":[15.4437214,49.4046154]}},{"type":"Feature","properties":{"ref":"455000","objID":"0-203-1-455000","name":"Boskovice pod přehradou","stream":"Bělá","operator":"Povodí Moravy Brno","category":"A","ele":273.37,"spa1_cm":55,"spa2_cm":70,"spa3_cm":85,"website":"https://hydro.chmi.cz/hpps/pov/objekt/306988","osm_monitoring_station_within_150m":false},"geometry":{"type":"Point","coordinates":[16.6984972,49.4938761]}},{"type":"Feature","properties":{"ref":"440000","objID":"0-203-1-440000","name":"Božice","stream":"Jevišovka","operator":"ČHMÚ Brno","category":"B","ele":183.61,"spa1_cm":210,"spa2_cm":250,"spa3_cm":290,"website":"https://hydro.chmi.cz/hpps/pov/objekt/306978","osm_monitoring_station_within_150m":false},"geometry":{"type":"Point","coordinates":[16.2847052,48.8399359]}},{"type":"Feature","properties":{"ref":"459000","objID":"0-203-1-459000","name":"Brankovice","stream":"Litava","operator":"ČHMÚ Brno","category":"B","ele":243.13,"spa1_cm":130,"spa2_cm":160,"spa3_cm":200,"website":"https://hydro.chmi.cz/hpps/pov/objekt/306990","osm_monitoring_station_within_150m":false},"geometry":{"type":"Point","coordinates":[17.1350805,49.1535271]}},{"type":"Feature","properties":{"ref":"468500","objID":"0-203-1-468500","name":"Bransouze","stream":"Jihlava","operator":"ČHMÚ Brno","category":"A","ele":354.07,"spa1_cm":130,"spa2_cm":160,"spa3_cm":200,"website":"https://hydro.chmi.cz/hpps/pov/objekt/306995","osm_monitoring_station_within_150m":false},"geometry":{"type":"Point","coordinates":[15.7530828,49.3033623]}},{"type":"Feature","properties":{"ref":"449000","objID":"0-203-1-449000","name":"Brno - Poříčí (dočasně přesunuto)","stream":"Svratka","operator":"Povodí Moravy Brno","category":"A","ele":197.09,"spa1_cm":null,"spa2_cm":null,"spa3_cm":null,"website":"https://hydro.chmi.cz/hpps/pov/objekt/307205","osm_monitoring_station_within_150m":false},"geometry":{"type":"Point","coordinates":[16.5914796,49.1859963]}},{"type":"Feature","properties":{"ref":"468000","objID":"0-203-1-468000","name":"Brtnice","stream":"Brtnice","operator":"ČHMÚ Brno","category":"B","ele":513.73,"spa1_cm":100,"spa2_cm":120,"spa3_cm":150,"website":"https://hydro.chmi.cz/hpps/pov/objekt/2505290","osm_monitoring_station_within_150m":false},"geometry":{"type":"Point","coordinates":[15.6782696,49.3003845]}},{"type":"Feature","properties":{"ref":"487500","objID":"0-203-1-487500","name":"Brumov","stream":"Brumovka","operator":"ČHMÚ Brno","category":"A","ele":324.82,"spa1_cm":110,"spa2_cm":130,"spa3_cm":150,"website":"https://hydro.chmi.cz/hpps/pov/objekt/385438","osm_monitoring_station_within_150m":false},"geometry":{"type":"Point","coordinates":[18.0218328,49.0928591]}},{"type":"Feature","properties":{"ref":"480500","objID":"0-203-1-480500","name":"Břeclav-Ladná","stream":"Dyje","operator":"ČHMÚ Brno","category":"A","ele":157.38,"spa1_cm":150,"spa2_cm":261,"spa3_cm":382,"website":"https://hydro.chmi.cz/hpps/pov/objekt/307007","osm_monitoring_station_within_150m":false},"geometry":{"type":"Point","coordinates":[16.8537248,48.8037157]}},{"type":"Feature","properties":{"ref":"442000","objID":"0-203-1-442000","name":"Dalečín","stream":"Svratka","operator":"ČHMÚ Brno","category":"A","ele":470.07,"spa1_cm":120,"spa2_cm":150,"spa3_cm":180,"website":"https://hydro.chmi.cz/hpps/pov/objekt/2505253","osm_monitoring_station_within_150m":false},"geometry":{"type":"Point","coordinates":[16.2450246,49.5951142]}},{"type":"Feature","properties":{"ref":"470000","objID":"0-203-1-470000","name":"Dolní Bory - Olší","stream":"Oslava","operator":"Povodí Moravy Brno","category":"B","ele":477.96,"spa1_cm":80,"spa2_cm":110,"spa3_cm":130,"website":"https://hydro.chmi.cz/hpps/pov/objekt/20409119","osm_monitoring_station_within_150m":false},"geometry":{"type":"Point","coordinates":[15.9855345,49.4225289]}},{"type":"Feature","properties":{"ref":"447000","objID":"0-203-1-447000","name":"Dolní Loučky","stream":"Bobrůvka","operator":"ČHMÚ Brno","category":"A","ele":274.33,"spa1_cm":180,"spa2_cm":230,"spa3_cm":280,"website":"https://hydro.chmi.cz/hpps/pov/objekt/306984","osm_monitoring_station_within_150m":false},"geometry":{"type":"Point","coordinates":[16.3594556,49.3569584]}},{"type":"Feature","properties":{"ref":"444000","objID":"0-203-1-444000","name":"Domanín","stream":"Bystřice","operator":"","category":"C","ele":556.46,"spa1_cm":null,"spa2_cm":null,"spa3_cm":null,"website":"https://hydro.chmi.cz/hpps/pov/objekt/797135","osm_monitoring_station_within_150m":false},"geometry":{"type":"Point","coordinates":[16.2051542,49.5428555]}},{"type":"Feature","properties":{"ref":"465000","objID":"0-203-1-465000","name":"Dvorce","stream":"Jihlava","operator":"Povodí Moravy Brno","category":"A","ele":501.17,"spa1_cm":120,"spa2_cm":160,"spa3_cm":210,"website":"https://hydro.chmi.cz/hpps/pov/objekt/2505289","osm_monitoring_station_within_150m":false},"geometry":{"type":"Point","coordinates":[15.5042712,49.3806057]}},{"type":"Feature","properties":{"ref":"455200","objID":"0-203-1-455200","name":"Holštejn","stream":"Bílá voda","operator":"","category":"C","ele":451.31,"spa1_cm":null,"spa2_cm":null,"spa3_cm":null,"website":"https://hydro.chmi.cz/hpps/pov/objekt/523518","osm_monitoring_station_within_150m":false},"geometry":{"type":"Point","coordinates":[16.7794088,49.4032862]}},{"type":"Feature","properties":{"ref":"450500","objID":"0-203-1-450500","name":"Hradec nad Svitavou","stream":"Svitava","operator":"","category":"C","ele":421.23,"spa1_cm":null,"spa2_cm":null,"spa3_cm":null,"website":"https://hydro.chmi.cz/hpps/pov/objekt/514753","osm_monitoring_station_within_150m":false},"geometry":{"type":"Point","coordinates":[16.4824793,49.7244061]}},{"type":"Feature","properties":{"ref":"465100","objID":"0-203-1-465100","name":"Hubenov nad nádrží","stream":"Maršovský potok","operator":"","category":"C","ele":525.71,"spa1_cm":null,"spa2_cm":null,"spa3_cm":null,"website":"https://hydro.chmi.cz/hpps/pov/objekt/514777","osm_monitoring_station_within_150m":false},"geometry":{"type":"Point","coordinates":[15.472413,49.4046176]}},{"type":"Feature","properties":{"ref":"466000","objID":"0-203-1-466000","name":"Hubenov pod přehradou","stream":"Maršovský potok","operator":"ČHMÚ Brno","category":"A","ele":501.11,"spa1_cm":45.9,"spa2_cm":66.9,"spa3_cm":93.9,"website":"https://hydro.chmi.cz/hpps/pov/objekt/307207","osm_monitoring_station_within_150m":false},"geometry":{"type":"Point","coordinates":[15.4895316,49.3919117]}},{"type":"Feature","properties":{"ref":"404000","objID":"0-203-1-404000","name":"Chomýž","stream":"Rusava","operator":"ČHMÚ Brno","category":"B","ele":300.9,"spa1_cm":85,"spa2_cm":110,"spa3_cm":130,"website":"https://hydro.chmi.cz/hpps/pov/objekt/307362","osm_monitoring_station_within_150m":false},"geometry":{"type":"Point","coordinates":[17.6513343,49.3623991]}},{"type":"Feature","properties":{"ref":"478000","objID":"0-203-1-478000","name":"Ivančice","stream":"Jihlava","operator":"ČHMÚ Brno","category":"A","ele":194.01,"spa1_cm":270,"spa2_cm":320,"spa3_cm":380,"website":"https://hydro.chmi.cz/hpps/pov/objekt/307003","osm_monitoring_station_within_150m":false},"geometry":{"type":"Point","coordinates":[16.4116414,49.0839594]}},{"type":"Feature","properties":{"ref":"429000","objID":"0-203-1-429000","name":"Janov","stream":"Moravská Dyje","operator":"ČHMÚ Brno","category":"A","ele":439.86,"spa1_cm":150,"spa2_cm":180,"spa3_cm":220,"website":"https://hydro.chmi.cz/hpps/pov/objekt/2505254","osm_monitoring_station_within_150m":false},"geometry":{"type":"Point","coordinates":[15.4348051,48.9930423]}},{"type":"Feature","properties":{"ref":"431000","objID":"0-203-1-431000","name":"Jemnice","stream":"Želetavka","operator":"ČHMÚ Brno","category":"A","ele":437.46,"spa1_cm":100,"spa2_cm":150,"spa3_cm":190,"website":"https://hydro.chmi.cz/hpps/pov/objekt/306971","osm_monitoring_station_within_150m":false},"geometry":{"type":"Point","coordinates":[15.5672246,49.0211304]}},{"type":"Feature","properties":{"ref":"437600","objID":"0-203-1-437600","name":"Jevišovice nad nádrží","stream":"Jevišovka","operator":"Povodí Moravy Brno","category":"B","ele":334.86,"spa1_cm":135,"spa2_cm":150,"spa3_cm":180,"website":"https://hydro.chmi.cz/hpps/pov/objekt/20910742","osm_monitoring_station_within_150m":false},"geometry":{"type":"Point","coordinates":[15.9540015,48.9883053]}},{"type":"Feature","properties":{"ref":"441500","objID":"0-203-1-441500","name":"Jimramov","stream":"Fryšávka","operator":"ČHMÚ Brno","category":"B","ele":498.83,"spa1_cm":90,"spa2_cm":120,"spa3_cm":150,"website":"https://hydro.chmi.cz/hpps/pov/objekt/306980","osm_monitoring_station_within_150m":false},"geometry":{"type":"Point","coordinates":[16.2170502,49.6392206]}},{"type":"Feature","properties":{"ref":"456600","objID":"0-203-1-456600","name":"Josefov","stream":"Křtinský potok","operator":"","category":"C","ele":286.42,"spa1_cm":null,"spa2_cm":null,"spa3_cm":null,"website":"https://hydro.chmi.cz/hpps/pov/objekt/487178","osm_monitoring_station_within_150m":false},"geometry":{"type":"Point","coordinates":[16.6795687,49.3063363]}},{"type":"Feature","properties":{"ref":"441400","objID":"0-203-1-441400","name":"Kadov","stream":"Fryšávka","operator":"","category":"C","ele":664,"spa1_cm":null,"spa2_cm":null,"spa3_cm":null,"website":"https://hydro.chmi.cz/hpps/pov/objekt/551766","osm_monitoring_station_within_150m":false},"geometry":{"type":"Point","coordinates":[16.0784965,49.6343495]}},{"type":"Feature","properties":{"ref":"405500","objID":"0-203-1-405500","name":"Kašava nad nádrží","stream":"Dřevnice","operator":"ČHMÚ Brno","category":"C","ele":318.51,"spa1_cm":80,"spa2_cm":130,"spa3_cm":170,"website":"https://hydro.chmi.cz/hpps/pov/objekt/20812158","osm_monitoring_station_within_150m":false},"geometry":{"type":"Point","coordinates":[17.7814427,49.2887359]}},{"type":"Feature","properties":{"ref":"393000","objID":"0-203-1-393000","name":"Klopotovice","stream":"Blata","operator":"ČHMÚ Brno","category":"B","ele":198.68,"spa1_cm":180,"spa2_cm":230,"spa3_cm":280,"website":"https://hydro.chmi.cz/hpps/pov/objekt/307356","osm_monitoring_station_within_150m":false},"geometry":{"type":"Point","coordinates":[17.2588621,49.4481125]}},{"type":"Feature","properties":{"ref":"483100","objID":"0-203-1-483100","name":"Koryčany nad nádrží","stream":"Kyjovka","operator":"ČHMÚ Brno","category":"C","ele":310.87,"spa1_cm":null,"spa2_cm":null,"spa3_cm":null,"website":"https://hydro.chmi.cz/hpps/pov/objekt/514789","osm_monitoring_station_within_150m":false},"geometry":{"type":"Point","coordinates":[17.2222021,49.1074136]}},{"type":"Feature","properties":{"ref":"484000","objID":"0-203-1-484000","name":"Koryčany pod přehradou","stream":"Kyjovka","operator":"Povodí Moravy Brno","category":"A","ele":285.08,"spa1_cm":80,"spa2_cm":100,"spa3_cm":120,"website":"https://hydro.chmi.cz/hpps/pov/objekt/307008","osm_monitoring_station_within_150m":false},"geometry":{"type":"Point","coordinates":[17.1890348,49.1167807]}},{"type":"Feature","properties":{"ref":"403000","objID":"0-203-1-403000","name":"Kroměříž","stream":"Morava","operator":"ČHMÚ Brno","category":"A","ele":183.17,"spa1_cm":400,"spa2_cm":500,"spa3_cm":600,"website":"https://hydro.chmi.cz/hpps/pov/objekt/307199","osm_monitoring_station_within_150m":false},"geometry":{"type":"Point","coordinates":[17.39874,49.3023368]}},{"type":"Feature","properties":{"ref":"486000","objID":"0-203-1-486000","name":"Kyjov","stream":"Kyjovka","operator":"ČHMÚ Brno","category":"B","ele":185.89,"spa1_cm":170,"spa2_cm":230,"spa3_cm":290,"website":"https://hydro.chmi.cz/hpps/pov/objekt/307009","osm_monitoring_station_within_150m":false},"geometry":{"type":"Point","coordinates":[17.1211247,49.0105805]}},{"type":"Feature","properties":{"ref":"429500","objID":"0-203-1-429500","name":"Landštejn nad nádrží","stream":"Pstruhovec","operator":"","category":"C","ele":576.4,"spa1_cm":null,"spa2_cm":null,"spa3_cm":null,"website":"https://hydro.chmi.cz/hpps/pov/objekt/470598","osm_monitoring_station_within_150m":false},"geometry":{"type":"Point","coordinates":[15.2506348,49.0339799]}},{"type":"Feature","properties":{"ref":"426000","objID":"0-203-1-426000","name":"Lanžhot","stream":"Morava","operator":"Povodí Moravy Brno","category":"A","ele":150.01,"spa1_cm":400,"spa2_cm":460,"spa3_cm":530,"website":"https://hydro.chmi.cz/hpps/pov/objekt/307372","osm_monitoring_station_within_150m":false},"geometry":{"type":"Point","coordinates":[16.9885928,48.6870094]}},{"type":"Feature","properties":{"ref":"454000","objID":"0-203-1-454000","name":"Letovice","stream":"Svitava","operator":"ČHMÚ Brno","category":"A","ele":320.29,"spa1_cm":100,"spa2_cm":130,"spa3_cm":170,"website":"https://hydro.chmi.cz/hpps/pov/objekt/306987","osm_monitoring_station_within_150m":false},"geometry":{"type":"Point","coordinates":[16.5805849,49.5320475]}},{"type":"Feature","properties":{"ref":"447300","objID":"0-203-1-447300","name":"Lomnička","stream":"Besének","operator":"","category":"C","ele":272.26,"spa1_cm":null,"spa2_cm":null,"spa3_cm":null,"website":"https://hydro.chmi.cz/hpps/pov/objekt/514745","osm_monitoring_station_within_150m":false},"geometry":{"type":"Point","coordinates":[16.4283888,49.3678957]}},{"type":"Feature","properties":{"ref":"414700","objID":"0-203-1-414700","name":"Luhačovice nad nádrží","stream":"Luhačovický potok","operator":"ČHMÚ Brno","category":"C","ele":282.86,"spa1_cm":null,"spa2_cm":null,"spa3_cm":null,"website":"https://hydro.chmi.cz/hpps/pov/objekt/514734","osm_monitoring_station_within_150m":false},"geometry":{"type":"Point","coordinates":[17.7948437,49.1268632]}},{"type":"Feature","properties":{"ref":"469500","objID":"0-203-1-469500","name":"Mohelno ","stream":"Jihlava","operator":"ČEZ","category":"A","ele":266.28,"spa1_cm":160,"spa2_cm":190,"spa3_cm":230,"website":"https://hydro.chmi.cz/hpps/pov/objekt/306997","osm_monitoring_station_within_150m":false},"geometry":{"type":"Point","coordinates":[16.1829193,49.1030689]}},{"type":"Feature","properties":{"ref":"477000","objID":"0-203-1-477000","name":"Moravský Krumlov","stream":"Rokytná","operator":"ČHMÚ Brno","category":"A","ele":225.76,"spa1_cm":220,"spa2_cm":240,"spa3_cm":280,"website":"https://hydro.chmi.cz/hpps/pov/objekt/2505295","osm_monitoring_station_within_150m":true},"geometry":{"type":"Point","coordinates":[16.3056827,49.0510375]}},{"type":"Feature","properties":{"ref":"471000","objID":"0-203-1-471000","name":"Mostiště pod přehradou","stream":"Oslava","operator":"Povodí Moravy Brno","category":"A","ele":444.99,"spa1_cm":85,"spa2_cm":110,"spa3_cm":140,"website":"https://hydro.chmi.cz/hpps/pov/objekt/2505292","osm_monitoring_station_within_150m":false},"geometry":{"type":"Point","coordinates":[16.0124703,49.3927303]}},{"type":"Feature","properties":{"ref":"473500","objID":"0-203-1-473500","name":"Náměšť nad Oslavou","stream":"Oslava","operator":"Povodí Moravy Brno","category":"B","ele":352.43,"spa1_cm":250,"spa2_cm":290,"spa3_cm":340,"website":"https://hydro.chmi.cz/hpps/pov/objekt/26767276","osm_monitoring_station_within_150m":false},"geometry":{"type":"Point","coordinates":[16.1573164,49.2111356]}},{"type":"Feature","properties":{"ref":"473000","objID":"0-203-1-473000","name":"Nesměř","stream":"Oslava","operator":"ČHMÚ Brno","category":"A","ele":405.32,"spa1_cm":220,"spa2_cm":260,"spa3_cm":300,"website":"https://hydro.chmi.cz/hpps/pov/objekt/20491235","osm_monitoring_station_within_150m":false},"geometry":{"type":"Point","coordinates":[16.0254481,49.3196033]}},{"type":"Feature","properties":{"ref":"427500","objID":"0-203-1-427500","name":"Nová Říše nad nádrží","stream":"Řečice (Olšanský potok)","operator":"ČHMÚ Brno","category":"C","ele":555.9,"spa1_cm":null,"spa2_cm":null,"spa3_cm":null,"website":"https://hydro.chmi.cz/hpps/pov/objekt/523458","osm_monitoring_station_within_150m":false},"geometry":{"type":"Point","coordinates":[15.5491523,49.1652997]}},{"type":"Feature","properties":{"ref":"461500","objID":"0-203-1-461500","name":"Ochoz","stream":"Říčka (Zlatý potok)","operator":"","category":"C","ele":301.82,"spa1_cm":null,"spa2_cm":null,"spa3_cm":null,"website":"https://hydro.chmi.cz/hpps/pov/objekt/517558","osm_monitoring_station_within_150m":false},"geometry":{"type":"Point","coordinates":[16.7330411,49.2421126]}},{"type":"Feature","properties":{"ref":"397500","objID":"0-203-1-397500","name":"Opatovice nad nádrží","stream":"Malá Haná","operator":"ČHMÚ Brno","category":"C","ele":337.09,"spa1_cm":55,"spa2_cm":65,"spa3_cm":75,"website":"https://hydro.chmi.cz/hpps/pov/objekt/38908612","osm_monitoring_station_within_150m":false},"geometry":{"type":"Point","coordinates":[16.9023326,49.3211255]}},{"type":"Feature","properties":{"ref":"474000","objID":"0-203-1-474000","name":"Oslavany","stream":"Oslava","operator":"ČHMÚ Brno","category":"A","ele":210.78,"spa1_cm":200,"spa2_cm":230,"spa3_cm":260,"website":"https://hydro.chmi.cz/hpps/pov/objekt/307000","osm_monitoring_station_within_150m":false},"geometry":{"type":"Point","coordinates":[16.3437214,49.115976]}},{"type":"Feature","properties":{"ref":"486500","objID":"0-203-1-486500","name":"Osvětimany","stream":"Hruškovice","operator":"","category":"C","ele":265.75,"spa1_cm":null,"spa2_cm":null,"spa3_cm":null,"website":"https://hydro.chmi.cz/hpps/pov/objekt/514796","osm_monitoring_station_within_150m":false},"geometry":{"type":"Point","coordinates":[17.2467979,49.0592231]}},{"type":"Feature","properties":{"ref":"401000","objID":"0-203-1-401000","name":"Otaslavice","stream":"Brodečka","operator":"ČHMÚ Brno","category":"B","ele":246.1,"spa1_cm":150,"spa2_cm":180,"spa3_cm":200,"website":"https://hydro.chmi.cz/hpps/pov/objekt/307360","osm_monitoring_station_within_150m":false},"geometry":{"type":"Point","coordinates":[17.0704498,49.3874685]}},{"type":"Feature","properties":{"ref":"423000","objID":"0-203-1-423000","name":"Petrov","stream":"Radějovka","operator":"","category":"C","ele":167.33,"spa1_cm":null,"spa2_cm":null,"spa3_cm":null,"website":"https://hydro.chmi.cz/hpps/pov/objekt/551724","osm_monitoring_station_within_150m":false},"geometry":{"type":"Point","coordinates":[17.2749239,48.8805078]}},{"type":"Feature","properties":{"ref":"438500","objID":"0-203-1-438500","name":"Plaveč","stream":"Jevišovka","operator":"Povodí Moravy Brno","category":"B","ele":232.98,"spa1_cm":null,"spa2_cm":null,"spa3_cm":null,"website":"https://hydro.chmi.cz/hpps/pov/objekt/43360541","osm_monitoring_station_within_150m":false},"geometry":{"type":"Point","coordinates":[16.075968,48.93083]}},{"type":"Feature","properties":{"ref":"430000","objID":"0-203-1-430000","name":"Podhradí nad Dyjí","stream":"Dyje","operator":"ČHMÚ Brno","category":"A","ele":348.36,"spa1_cm":180,"spa2_cm":230,"spa3_cm":280,"website":"https://hydro.chmi.cz/hpps/pov/objekt/2505251","osm_monitoring_station_within_150m":false},"geometry":{"type":"Point","coordinates":[15.6913717,48.9033407]}},{"type":"Feature","properties":{"ref":"416500","objID":"0-203-1-416500","name":"Polichno","stream":"Luhačovický potok","operator":"Povodí Moravy Brno","category":"B","ele":224.22,"spa1_cm":null,"spa2_cm":null,"spa3_cm":null,"website":"https://hydro.chmi.cz/hpps/pov/objekt/43360490","osm_monitoring_station_within_150m":false},"geometry":{"type":"Point","coordinates":[17.7117076,49.0680798]}},{"type":"Feature","properties":{"ref":"397000","objID":"0-203-1-397000","name":"Polkovice","stream":"Romže","operator":"ČHMÚ Brno","category":"B","ele":193.63,"spa1_cm":190,"spa2_cm":220,"spa3_cm":260,"website":"https://hydro.chmi.cz/hpps/pov/objekt/307358","osm_monitoring_station_within_150m":false},"geometry":{"type":"Point","coordinates":[17.2536784,49.3998721]}},{"type":"Feature","properties":{"ref":"487000","objID":"0-203-1-487000","name":"Popov","stream":"Vlára","operator":"ČHMÚ Brno","category":"C","ele":310.28,"spa1_cm":320,"spa2_cm":360,"spa3_cm":390,"website":"https://hydro.chmi.cz/hpps/pov/objekt/307470","osm_monitoring_station_within_150m":false},"geometry":{"type":"Point","coordinates":[17.9706645,49.0772435]}},{"type":"Feature","properties":{"ref":"452500","objID":"0-203-1-452500","name":"Prostřední Poříčí","stream":"Křetínka","operator":"","category":"C","ele":362.85,"spa1_cm":null,"spa2_cm":null,"spa3_cm":null,"website":"https://hydro.chmi.cz/hpps/pov/objekt/514757","osm_monitoring_station_within_150m":false},"geometry":{"type":"Point","coordinates":[16.4980395,49.5703953]}},{"type":"Feature","properties":{"ref":"402000","objID":"0-203-1-402000","name":"Prusy","stream":"Moštěnka","operator":"ČHMÚ Brno","category":"B","ele":214.17,"spa1_cm":290,"spa2_cm":310,"spa3_cm":330,"website":"https://hydro.chmi.cz/hpps/pov/objekt/307361","osm_monitoring_station_within_150m":false},"geometry":{"type":"Point","coordinates":[17.514958,49.4281123]}},{"type":"Feature","properties":{"ref":"478600","objID":"0-203-1-478600","name":"Přibice","stream":"Jihlava","operator":"Povodí Moravy Brno","category":"A","ele":null,"spa1_cm":null,"spa2_cm":null,"spa3_cm":null,"website":"https://hydro.chmi.cz/hpps/pov/objekt/307004","osm_monitoring_station_within_150m":false},"geometry":{"type":"Point","coordinates":[16.571764,48.9590566]}},{"type":"Feature","properties":{"ref":"476000","objID":"0-203-1-476000","name":"Příštpo","stream":"Rokytná","operator":"ČHMÚ Brno","category":"B","ele":403.76,"spa1_cm":140,"spa2_cm":180,"spa3_cm":230,"website":"https://hydro.chmi.cz/hpps/pov/objekt/307001","osm_monitoring_station_within_150m":true},"geometry":{"type":"Point","coordinates":[15.938994,49.0704303]}},{"type":"Feature","properties":{"ref":"469000","objID":"0-203-1-469000","name":"Ptáčov","stream":"Jihlava","operator":"ČHMÚ Brno","category":"A","ele":384.75,"spa1_cm":220,"spa2_cm":280,"spa3_cm":330,"website":"https://hydro.chmi.cz/hpps/pov/objekt/2505291","osm_monitoring_station_within_150m":true},"geometry":{"type":"Point","coordinates":[15.9348353,49.2150769]}},{"type":"Feature","properties":{"ref":"429800","objID":"0-203-1-429800","name":"Raabs an der Thaya","stream":"Dyje","operator":"Úřad dolnorakouské zemské vlády v St.Poltenu","category":"A","ele":null,"spa1_cm":260,"spa2_cm":351,"spa3_cm":410,"website":"https://hydro.chmi.cz/hpps/pov/objekt/307113","osm_monitoring_station_within_150m":false},"geometry":{"type":"Point","coordinates":[15.4877451,48.8484906]}},{"type":"Feature","properties":{"ref":"452000","objID":"0-203-1-452000","name":"Rozhraní","stream":"Svitava","operator":"ČHMÚ Brno","category":"B","ele":354.15,"spa1_cm":90,"spa2_cm":120,"spa3_cm":150,"website":"https://hydro.chmi.cz/hpps/pov/objekt/306985","osm_monitoring_station_within_150m":false},"geometry":{"type":"Point","coordinates":[16.5314771,49.6003775]}},{"type":"Feature","properties":{"ref":"445100","objID":"0-203-1-445100","name":"Rožná","stream":"Nedvědička","operator":"","category":"C","ele":455.16,"spa1_cm":null,"spa2_cm":null,"spa3_cm":null,"website":"https://hydro.chmi.cz/hpps/pov/objekt/390298","osm_monitoring_station_within_150m":false},"geometry":{"type":"Point","coordinates":[16.2437005,49.4756675]}},{"type":"Feature","properties":{"ref":"461000","objID":"0-203-1-461000","name":"Rychmanov","stream":"Litava","operator":"ČHMÚ Brno","category":"B","ele":187.24,"spa1_cm":250,"spa2_cm":300,"spa3_cm":350,"website":"https://hydro.chmi.cz/hpps/pov/objekt/306991","osm_monitoring_station_within_150m":false},"geometry":{"type":"Point","coordinates":[16.7631477,49.1038599]}},{"type":"Feature","properties":{"ref":"416000","objID":"0-203-1-416000","name":"Řetechov-Pradlisko","stream":"Ludkovický potok","operator":"","category":"C","ele":332.76,"spa1_cm":null,"spa2_cm":null,"spa3_cm":null,"website":"https://hydro.chmi.cz/hpps/pov/objekt/390306","osm_monitoring_station_within_150m":false},"geometry":{"type":"Point","coordinates":[17.7338378,49.1444626]}},{"type":"Feature","properties":{"ref":"456000","objID":"0-203-1-456000","name":"Skalní Mlýn","stream":"Punkva","operator":"","category":"C","ele":342.51,"spa1_cm":null,"spa2_cm":null,"spa3_cm":null,"website":"https://hydro.chmi.cz/hpps/pov/objekt/523538","osm_monitoring_station_within_150m":false},"geometry":{"type":"Point","coordinates":[16.7197932,49.3695416]}},{"type":"Feature","properties":{"ref":"446000","objID":"0-203-1-446000","name":"Skryje","stream":"Bobrůvka","operator":"ČHMÚ Brno","category":"B","ele":310.06,"spa1_cm":90,"spa2_cm":120,"spa3_cm":150,"website":"https://hydro.chmi.cz/hpps/pov/objekt/20491241","osm_monitoring_station_within_150m":false},"geometry":{"type":"Point","coordinates":[16.3177005,49.3796061]}},{"type":"Feature","properties":{"ref":"406000","objID":"0-203-1-406000","name":"Slušovice","stream":"Dřevnice","operator":"ČHMÚ Brno","category":"A","ele":270.88,"spa1_cm":100,"spa2_cm":140,"spa3_cm":180,"website":"https://hydro.chmi.cz/hpps/pov/objekt/307364","osm_monitoring_station_within_150m":false},"geometry":{"type":"Point","coordinates":[17.8008651,49.2529552]}},{"type":"Feature","properties":{"ref":"407000","objID":"0-203-1-407000","name":"Slušovice","stream":"Všeminka","operator":"ČHMÚ Brno","category":"C","ele":269.68,"spa1_cm":null,"spa2_cm":null,"spa3_cm":null,"website":"https://hydro.chmi.cz/hpps/pov/objekt/514711","osm_monitoring_station_within_150m":false},"geometry":{"type":"Point","coordinates":[17.8035932,49.2472776]}},{"type":"Feature","properties":{"ref":"394500","objID":"0-203-1-394500","name":"Soběsuky","stream":"Hloučela","operator":"ČHMÚ Brno","category":"C","ele":289.17,"spa1_cm":80,"spa2_cm":100,"spa3_cm":130,"website":"https://hydro.chmi.cz/hpps/pov/objekt/385518","osm_monitoring_station_within_150m":false},"geometry":{"type":"Point","coordinates":[16.994222,49.4645895]}},{"type":"Feature","properties":{"ref":"413000","objID":"0-203-1-413000","name":"Spytihněv","stream":"Morava","operator":"ČHMÚ Brno","category":"A","ele":174.51,"spa1_cm":400,"spa2_cm":500,"spa3_cm":600,"website":"https://hydro.chmi.cz/hpps/pov/objekt/307147","osm_monitoring_station_within_150m":false},"geometry":{"type":"Point","coordinates":[17.5013105,49.1331903]}},{"type":"Feature","properties":{"ref":"429700","objID":"0-203-1-429700","name":"Staré Město pod Landštejnem","stream":"Pstruhovec","operator":"ČHMÚ Brno","category":"A","ele":253,"spa1_cm":null,"spa2_cm":null,"spa3_cm":null,"website":"https://hydro.chmi.cz/hpps/pov/objekt/26597509","osm_monitoring_station_within_150m":false},"geometry":{"type":"Point","coordinates":[15.2487453,48.987094]}},{"type":"Feature","properties":{"ref":"394000","objID":"0-203-1-394000","name":"Stražisko","stream":"Romže","operator":"ČHMÚ Brno","category":"B","ele":309.3,"spa1_cm":50,"spa2_cm":70,"spa3_cm":90,"website":"https://hydro.chmi.cz/hpps/pov/objekt/307357","osm_monitoring_station_within_150m":false},"geometry":{"type":"Point","coordinates":[16.9546075,49.53451]}},{"type":"Feature","properties":{"ref":"421500","objID":"0-203-1-421500","name":"Strážnice","stream":"Morava","operator":"ČHMÚ Brno","category":"A","ele":163.28,"spa1_cm":530,"spa2_cm":600,"spa3_cm":660,"website":"https://hydro.chmi.cz/hpps/pov/objekt/307233","osm_monitoring_station_within_150m":false},"geometry":{"type":"Point","coordinates":[17.2976139,48.9328778]}},{"type":"Feature","properties":{"ref":"422000","objID":"0-203-1-422000","name":"Strážnice","stream":"Velička","operator":"ČHMÚ Brno","category":"B","ele":168.48,"spa1_cm":230,"spa2_cm":270,"spa3_cm":310,"website":"https://hydro.chmi.cz/hpps/pov/objekt/20491238","osm_monitoring_station_within_150m":false},"geometry":{"type":"Point","coordinates":[17.3434975,48.9044252]}},{"type":"Feature","properties":{"ref":"445050","objID":"0-203-1-445050","name":"Štěpánov nad Svratkou","stream":"Vrtěžířský potok","operator":"Povodí Moravy Brno","category":"B","ele":353.23,"spa1_cm":80,"spa2_cm":115,"spa3_cm":140,"website":"https://hydro.chmi.cz/hpps/pov/objekt/43360513","osm_monitoring_station_within_150m":false},"geometry":{"type":"Point","coordinates":[16.3428076,49.5000393]}},{"type":"Feature","properties":{"ref":"437000","objID":"0-203-1-437000","name":"Trávní Dvůr","stream":"Dyje","operator":"ČHMÚ Brno","category":"A","ele":172.68,"spa1_cm":300,"spa2_cm":400,"spa3_cm":500,"website":"https://hydro.chmi.cz/hpps/pov/objekt/306976","osm_monitoring_station_within_150m":false},"geometry":{"type":"Point","coordinates":[16.4376431,48.7908632]}},{"type":"Feature","properties":{"ref":"405000","objID":"0-203-1-405000","name":"Třebětice","stream":"Rusava","operator":"ČHMÚ Brno","category":"C","ele":198.21,"spa1_cm":null,"spa2_cm":null,"spa3_cm":null,"website":"https://hydro.chmi.cz/hpps/pov/objekt/514704","osm_monitoring_station_within_150m":false},"geometry":{"type":"Point","coordinates":[17.51164,49.3251687]}},{"type":"Feature","properties":{"ref":"418000","objID":"0-203-1-418000","name":"Uherský Brod","stream":"Olšava","operator":"ČHMÚ Brno","category":"A","ele":200.94,"spa1_cm":270,"spa2_cm":400,"spa3_cm":500,"website":"https://hydro.chmi.cz/hpps/pov/objekt/307201","osm_monitoring_station_within_150m":false},"geometry":{"type":"Point","coordinates":[17.6437479,49.0161967]}},{"type":"Feature","properties":{"ref":"414500","objID":"0-203-1-414500","name":"VD Bojkovice","stream":"Kolelač","operator":"ČHMÚ Brno","category":"A","ele":304.22,"spa1_cm":60,"spa2_cm":90,"spa3_cm":120,"website":"https://hydro.chmi.cz/hpps/pov/objekt/307367","osm_monitoring_station_within_150m":false},"geometry":{"type":"Point","coordinates":[17.8437719,49.0493954]}},{"type":"Feature","properties":{"ref":"410000","objID":"0-203-1-410000","name":"VD Fryšták","stream":"Fryštácký potok","operator":"ČHMÚ Brno","category":"A","ele":233.24,"spa1_cm":60,"spa2_cm":90,"spa3_cm":120,"website":"https://hydro.chmi.cz/hpps/pov/objekt/307200","osm_monitoring_station_within_150m":false},"geometry":{"type":"Point","coordinates":[17.6929684,49.2623282]}},{"type":"Feature","properties":{"ref":"438000","objID":"0-203-1-438000","name":"VD Jevišovice","stream":"Jevišovka","operator":"ČHMÚ Brno","category":"A","ele":313.79,"spa1_cm":55,"spa2_cm":65,"spa3_cm":85,"website":"https://hydro.chmi.cz/hpps/pov/objekt/307149","osm_monitoring_station_within_150m":false},"geometry":{"type":"Point","coordinates":[15.9844398,48.9917035]}},{"type":"Feature","properties":{"ref":"453000","objID":"0-203-1-453000","name":"VD Letovice","stream":"Křetínka","operator":"Povodí Moravy Brno","category":"A","ele":332.78,"spa1_cm":80,"spa2_cm":95,"spa3_cm":140,"website":"https://hydro.chmi.cz/hpps/pov/objekt/2505250","osm_monitoring_station_within_150m":false},"geometry":{"type":"Point","coordinates":[16.5585716,49.553409]}},{"type":"Feature","properties":{"ref":"416200","objID":"0-203-1-416200","name":"VD Ludkovice","stream":"Ludkovický potok","operator":"Povodí Moravy Brno","category":"A","ele":null,"spa1_cm":null,"spa2_cm":null,"spa3_cm":null,"website":"https://hydro.chmi.cz/hpps/pov/objekt/307369","osm_monitoring_station_within_150m":false},"geometry":{"type":"Point","coordinates":[17.7267091,49.1212838]}},{"type":"Feature","properties":{"ref":"415000","objID":"0-203-1-415000","name":"VD Luhačovice","stream":"Luhačovický potok","operator":"ČHMÚ Brno","category":"A","ele":265.2,"spa1_cm":70,"spa2_cm":100,"spa3_cm":140,"website":"https://hydro.chmi.cz/hpps/pov/objekt/307368","osm_monitoring_station_within_150m":false},"geometry":{"type":"Point","coordinates":[17.772584,49.1206231]}},{"type":"Feature","properties":{"ref":"427600","objID":"0-203-1-427600","name":"VD Nová Říše","stream":"Řečice (Olšanský potok)","operator":"ČHMÚ Brno","category":"A","ele":528.11,"spa1_cm":75,"spa2_cm":120,"spa3_cm":195,"website":"https://hydro.chmi.cz/hpps/pov/objekt/306969","osm_monitoring_station_within_150m":false},"geometry":{"type":"Point","coordinates":[15.5444568,49.1461894]}},{"type":"Feature","properties":{"ref":"479500","objID":"0-203-1-479500","name":"VD Nové Mlýny","stream":"Dyje","operator":"Povodí Moravy Brno","category":"A","ele":160,"spa1_cm":null,"spa2_cm":null,"spa3_cm":null,"website":"https://hydro.chmi.cz/hpps/pov/objekt/307005","osm_monitoring_station_within_150m":false},"geometry":{"type":"Point","coordinates":[16.7241286,48.8578055]}},{"type":"Feature","properties":{"ref":"398000","objID":"0-203-1-398000","name":"VD Opatovice","stream":"Malá Haná","operator":"ČHMÚ Brno","category":"A","ele":271.31,"spa1_cm":100,"spa2_cm":120,"spa3_cm":140,"website":"https://hydro.chmi.cz/hpps/pov/objekt/307359","osm_monitoring_station_within_150m":false},"geometry":{"type":"Point","coordinates":[16.9580571,49.300202]}},{"type":"Feature","properties":{"ref":"396000","objID":"0-203-1-396000","name":"VD Plumlov","stream":"Hloučela","operator":"ČHMÚ Brno","category":"A","ele":259.59,"spa1_cm":50,"spa2_cm":70,"spa3_cm":90,"website":"https://hydro.chmi.cz/hpps/pov/objekt/2505294","osm_monitoring_station_within_150m":false},"geometry":{"type":"Point","coordinates":[17.0401148,49.469464]}},{"type":"Feature","properties":{"ref":"414000","objID":"0-203-1-414000","name":"Velehrad","stream":"Salaška","operator":"ČHMÚ Brno","category":"C","ele":203.86,"spa1_cm":null,"spa2_cm":null,"spa3_cm":null,"website":"https://hydro.chmi.cz/hpps/pov/objekt/390302","osm_monitoring_station_within_150m":false},"geometry":{"type":"Point","coordinates":[17.3934646,49.1027657]}},{"type":"Feature","properties":{"ref":"421800","objID":"0-203-1-421800","name":"Velká nad Veličkou","stream":"Velička","operator":"ČHMÚ Brno","category":"B","ele":287.72,"spa1_cm":70,"spa2_cm":100,"spa3_cm":140,"website":"https://hydro.chmi.cz/hpps/pov/objekt/307371","osm_monitoring_station_within_150m":false},"geometry":{"type":"Point","coordinates":[17.5189649,48.8776216]}},{"type":"Feature","properties":{"ref":"472200","objID":"0-203-1-472200","name":"Velké Meziříčí","stream":"Oslava","operator":"Povodí Moravy Brno","category":"A","ele":null,"spa1_cm":null,"spa2_cm":null,"spa3_cm":null,"website":"https://hydro.chmi.cz/hpps/pov/objekt/2505293","osm_monitoring_station_within_150m":false},"geometry":{"type":"Point","coordinates":[16.0166487,49.3515756]}},{"type":"Feature","properties":{"ref":"480300","objID":"0-203-1-480300","name":"Velké Pavlovice","stream":"Trkmanka","operator":"ČHMÚ Brno","category":"B","ele":164.89,"spa1_cm":200,"spa2_cm":230,"spa3_cm":300,"website":"https://hydro.chmi.cz/hpps/pov/objekt/2505256","osm_monitoring_station_within_150m":false},"geometry":{"type":"Point","coordinates":[16.8201961,48.9070914]}},{"type":"Feature","properties":{"ref":"448000","objID":"0-203-1-448000","name":"Veverská Bítýška","stream":"Svratka","operator":"ČHMÚ Brno","category":"A","ele":228.08,"spa1_cm":190,"spa2_cm":240,"spa3_cm":300,"website":"https://hydro.chmi.cz/hpps/pov/objekt/307150","osm_monitoring_station_within_150m":false},"geometry":{"type":"Point","coordinates":[16.4396821,49.2774573]}},{"type":"Feature","properties":{"ref":"445000","objID":"0-203-1-445000","name":"Vír pod vyrovnávací nádrží","stream":"Svratka","operator":"ČHMÚ Brno","category":"A","ele":366.41,"spa1_cm":100,"spa2_cm":140,"spa3_cm":180,"website":"https://hydro.chmi.cz/hpps/pov/objekt/306983","osm_monitoring_station_within_150m":false},"geometry":{"type":"Point","coordinates":[16.337754,49.5428842]}},{"type":"Feature","properties":{"ref":"409300","objID":"0-203-1-409300","name":"Vizovice","stream":"Lutoninka","operator":"ČHMÚ Brno","category":"B","ele":275.25,"spa1_cm":80,"spa2_cm":110,"spa3_cm":140,"website":"https://hydro.chmi.cz/hpps/pov/objekt/307365","osm_monitoring_station_within_150m":false},"geometry":{"type":"Point","coordinates":[17.8382557,49.2140479]}},{"type":"Feature","properties":{"ref":"434000","objID":"0-203-1-434000","name":"Vranov - Hamry","stream":"Dyje","operator":"ČHMÚ Brno","category":"A","ele":303.55,"spa1_cm":150,"spa2_cm":180,"spa3_cm":230,"website":"https://hydro.chmi.cz/hpps/pov/objekt/306974","osm_monitoring_station_within_150m":false},"geometry":{"type":"Point","coordinates":[15.8190989,48.8946231]}},{"type":"Feature","properties":{"ref":"401500","objID":"0-203-1-401500","name":"Vrchoslavice","stream":"Velká Haná","operator":"Povodí Moravy Brno","category":"B","ele":197.71,"spa1_cm":null,"spa2_cm":null,"spa3_cm":null,"website":"https://hydro.chmi.cz/hpps/pov/objekt/43360441","osm_monitoring_station_within_150m":false},"geometry":{"type":"Point","coordinates":[17.2187255,49.334774]}},{"type":"Feature","properties":{"ref":"439000","objID":"0-203-1-439000","name":"Výrovice","stream":"Jevišovka","operator":"Povodí Moravy Brno","category":"A","ele":217.81,"spa1_cm":100,"spa2_cm":130,"spa3_cm":160,"website":"https://hydro.chmi.cz/hpps/pov/objekt/306977","osm_monitoring_station_within_150m":false},"geometry":{"type":"Point","coordinates":[16.1112249,48.928858]}},{"type":"Feature","properties":{"ref":"432000","objID":"0-203-1-432000","name":"Vysočany","stream":"Želetavka","operator":"ČHMÚ Brno","category":"B","ele":361.61,"spa1_cm":100,"spa2_cm":150,"spa3_cm":180,"website":"https://hydro.chmi.cz/hpps/pov/objekt/2505252","osm_monitoring_station_within_150m":false},"geometry":{"type":"Point","coordinates":[15.6831875,48.9597687]}},{"type":"Feature","properties":{"ref":"400000","objID":"0-203-1-400000","name":"Vyškov","stream":"Haná","operator":"ČHMÚ Brno","category":"B","ele":241.59,"spa1_cm":90,"spa2_cm":120,"spa3_cm":160,"website":"https://hydro.chmi.cz/hpps/pov/objekt/307146","osm_monitoring_station_within_150m":false},"geometry":{"type":"Point","coordinates":[16.9952908,49.2818068]}},{"type":"Feature","properties":{"ref":"412000","objID":"0-203-1-412000","name":"Zlín","stream":"Dřevnice","operator":"ČHMÚ Brno","category":"A","ele":211.12,"spa1_cm":170,"spa2_cm":200,"spa3_cm":260,"website":"https://hydro.chmi.cz/hpps/pov/objekt/307366","osm_monitoring_station_within_150m":false},"geometry":{"type":"Point","coordinates":[17.672386,49.2308418]}},{"type":"Feature","properties":{"ref":"435000","objID":"0-203-1-435000","name":"Znojmo","stream":"Dyje","operator":"ČHMÚ Brno","category":"A","ele":210.24,"spa1_cm":195,"spa2_cm":230,"spa3_cm":290,"website":"https://hydro.chmi.cz/hpps/pov/objekt/307203","osm_monitoring_station_within_150m":true},"geometry":{"type":"Point","coordinates":[16.0428039,48.8539112]}},{"type":"Feature","properties":{"ref":"458000","objID":"0-203-1-458000","name":"Želešice","stream":"Bobrava","operator":"","category":"C","ele":198.26,"spa1_cm":null,"spa2_cm":null,"spa3_cm":null,"website":"https://hydro.chmi.cz/hpps/pov/objekt/514769","osm_monitoring_station_within_150m":false},"geometry":{"type":"Point","coordinates":[16.5823811,49.1142499]}},{"type":"Feature","properties":{"ref":"462000","objID":"0-203-1-462000","name":"Židlochovice","stream":"Svratka","operator":"ČHMÚ Brno","category":"A","ele":177.89,"spa1_cm":250,"spa2_cm":300,"spa3_cm":350,"website":"https://hydro.chmi.cz/hpps/pov/objekt/307151","osm_monitoring_station_within_150m":false},"geometry":{"type":"Point","coordinates":[16.6162645,49.0363107]}}]}