{"type":"FeatureCollection","features":[{"type":"Feature","properties":{"ref:wigos":"0-20000-0-11659","gh_id":"P3PRIB01","name":"Přibyslav, Hřiště","ele":532.5,"begin_date":"1892-07-01","wmo_synop":true,"osm_monitoring_station_within_150m":true},"geometry":{"type":"Point","coordinates":[15.7625,49.582785]}},{"type":"Feature","properties":{"ref:wigos":"0-20000-0-11692","gh_id":"B2SEDC01","name":"Sedlec","ele":474.0,"begin_date":"1960-04-01","wmo_synop":true,"osm_monitoring_station_within_150m":true},"geometry":{"type":"Point","coordinates":[16.120556,49.170833]}},{"type":"Feature","properties":{"ref:wigos":"0-20000-0-11693","gh_id":"B2DUKO01","name":"Dukovany","ele":400.15,"begin_date":"1926-11-04","wmo_synop":true,"osm_monitoring_station_within_150m":true},"geometry":{"type":"Point","coordinates":[16.134444,49.095556]}},{"type":"Feature","properties":{"ref:wigos":"0-20000-0-11698","gh_id":"B2KUCH01","name":"Kuchařovice","ele":334.0,"begin_date":"1952-05-01","wmo_synop":true,"osm_monitoring_station_within_150m":true},"geometry":{"type":"Point","coordinates":[16.085278,48.881111]}},{"type":"Feature","properties":{"ref:wigos":"0-20000-0-11723","gh_id":"B2BTUR01","name":"Brno, Tuřany","ele":241.0,"begin_date":"1948-05-01","wmo_synop":true,"osm_monitoring_station_within_150m":true},"geometry":{"type":"Point","coordinates":[16.688889,49.153056]}},{"type":"Feature","properties":{"ref:wigos":"0-20000-0-11747","gh_id":"B1PROS01","name":"Prostějov","ele":214.75,"begin_date":"1925-11-01","wmo_synop":true,"osm_monitoring_station_within_150m":true},"geometry":{"type":"Point","coordinates":[17.134722,49.4525]}},{"type":"Feature","properties":{"ref:wigos":"0-20000-0-11774","gh_id":"B1HOLE01","name":"Holešov","ele":222.25,"begin_date":"1950-10-26","wmo_synop":true,"osm_monitoring_station_within_150m":true},"geometry":{"type":"Point","coordinates":[17.57,49.320556]}},{"type":"Feature","properties":{"ref:wigos":"0-203-0-10901004001","gh_id":"P3ZDAR01","name":"Žďár nad Sázavou, Stržanov","ele":605.0,"begin_date":"1899-01-01","wmo_synop":false,"osm_monitoring_station_within_150m":false},"geometry":{"type":"Point","coordinates":[15.936455,49.597833]}},{"type":"Feature","properties":{"ref:wigos":"0-203-0-10901012001","gh_id":"P3NIZK01","name":"Nížkov","ele":535.0,"begin_date":"1931-01-01","wmo_synop":false,"osm_monitoring_station_within_150m":false},"geometry":{"type":"Point","coordinates":[15.80975,49.533694]}},{"type":"Feature","properties":{"ref:wigos":"0-203-0-10901046001","gh_id":"P3POLN01","name":"Polná - Záborná","ele":535.0,"begin_date":"1951-01-01","wmo_synop":false,"osm_monitoring_station_within_150m":false},"geometry":{"type":"Point","coordinates":[15.757547,49.486644]}},{"type":"Feature","properties":{"ref:wigos":"0-203-0-10901060001","gh_id":"P3STOK01","name":"Štoky","ele":530.0,"begin_date":"1951-01-01","wmo_synop":false,"osm_monitoring_station_within_150m":false},"geometry":{"type":"Point","coordinates":[15.590799,49.501462]}},{"type":"Feature","properties":{"ref:wigos":"0-203-0-11656","gh_id":"P3HAVL01","name":"Havlíčkův Brod","ele":452.0,"begin_date":"1856-05-01","wmo_synop":false,"osm_monitoring_station_within_150m":true},"geometry":{"type":"Point","coordinates":[15.579696,49.61188]}},{"type":"Feature","properties":{"ref:wigos":"0-203-0-11660","gh_id":"B2VATI01","name":"Vatín","ele":558.0,"begin_date":"1989-02-01","wmo_synop":false,"osm_monitoring_station_within_150m":true},"geometry":{"type":"Point","coordinates":[15.96806,49.52306]}},{"type":"Feature","properties":{"ref:wigos":"0-203-0-11667","gh_id":"B2MBUD01","name":"Moravské Budějovice","ele":460.0,"begin_date":"1946-03-01","wmo_synop":false,"osm_monitoring_station_within_150m":true},"geometry":{"type":"Point","coordinates":[15.80646,49.061086]}},{"type":"Feature","properties":{"ref:wigos":"0-203-0-11685","gh_id":"B2NEDV01","name":"Nedvězí","ele":722.0,"begin_date":"1951-06-01","wmo_synop":false,"osm_monitoring_station_within_150m":true},"geometry":{"type":"Point","coordinates":[16.3097,49.6344]}},{"type":"Feature","properties":{"ref:wigos":"0-203-0-11686","gh_id":"B2BYSP01","name":"Bystřice nad Pernštejnem","ele":553.0,"begin_date":"1923-06-06","wmo_synop":false,"osm_monitoring_station_within_150m":true},"geometry":{"type":"Point","coordinates":[16.25401,49.52416]}},{"type":"Feature","properties":{"ref:wigos":"0-203-0-11687","gh_id":"B2VMEZ01","name":"Velké Meziříčí","ele":452.0,"begin_date":"1896-01-01","wmo_synop":false,"osm_monitoring_station_within_150m":true},"geometry":{"type":"Point","coordinates":[16.0086,49.3528]}},{"type":"Feature","properties":{"ref:wigos":"0-203-0-11691","gh_id":"B2NAMO01","name":"Náměšť nad Oslavou","ele":390.0,"begin_date":"1940-01-01","wmo_synop":false,"osm_monitoring_station_within_150m":false},"geometry":{"type":"Point","coordinates":[16.144155,49.210158]}},{"type":"Feature","properties":{"ref:wigos":"0-203-0-11695","gh_id":"B2TROU01","name":"Troubsko","ele":278.0,"begin_date":"1971-07-01","wmo_synop":false,"osm_monitoring_station_within_150m":true},"geometry":{"type":"Point","coordinates":[16.5074,49.1745]}},{"type":"Feature","properties":{"ref:wigos":"0-203-0-11696","gh_id":"B2DYJA01","name":"Dyjákovice","ele":187.0,"begin_date":"1975-07-01","wmo_synop":false,"osm_monitoring_station_within_150m":false},"geometry":{"type":"Point","coordinates":[16.2925,48.769]}},{"type":"Feature","properties":{"ref:wigos":"0-203-0-11713","gh_id":"O2JEVI01","name":"Jevíčko","ele":362.0,"begin_date":"1915-10-01","wmo_synop":false,"osm_monitoring_station_within_150m":true},"geometry":{"type":"Point","coordinates":[16.7055,49.6309]}},{"type":"Feature","properties":{"ref:wigos":"0-203-0-11716","gh_id":"B1PROT01","name":"Protivanov","ele":675.0,"begin_date":"1881-08-01","wmo_synop":false,"osm_monitoring_station_within_150m":true},"geometry":{"type":"Point","coordinates":[16.83105,49.47782]}},{"type":"Feature","properties":{"ref:wigos":"0-203-0-11721","gh_id":"B2BZAB01","name":"Brno, Žabovřesky","ele":236.0,"begin_date":"1973-01-01","wmo_synop":false,"osm_monitoring_station_within_150m":true},"geometry":{"type":"Point","coordinates":[16.5677,49.2165]}},{"type":"Feature","properties":{"ref:wigos":"0-203-0-11724","gh_id":"B2POHO01","name":"Pohořelice","ele":180.0,"begin_date":"1926-06-01","wmo_synop":false,"osm_monitoring_station_within_150m":true},"geometry":{"type":"Point","coordinates":[16.5283,48.9844]}},{"type":"Feature","properties":{"ref:wigos":"0-203-0-11725","gh_id":"B2KOBY01","name":"Kobylí","ele":175.0,"begin_date":"2008-11-26","wmo_synop":false,"osm_monitoring_station_within_150m":true},"geometry":{"type":"Point","coordinates":[16.8814,48.9394]}},{"type":"Feature","properties":{"ref:wigos":"0-203-0-11726","gh_id":"B2MIKU01","name":"Mikulov","ele":224.0,"begin_date":"1884-01-01","wmo_synop":false,"osm_monitoring_station_within_150m":false},"geometry":{"type":"Point","coordinates":[16.6401,48.801911]}},{"type":"Feature","properties":{"ref:wigos":"0-203-0-11727","gh_id":"B2LEDN01","name":"Lednice","ele":177.0,"begin_date":"1898-01-01","wmo_synop":false,"osm_monitoring_station_within_150m":true},"geometry":{"type":"Point","coordinates":[16.798895,48.792616]}},{"type":"Feature","properties":{"ref:wigos":"0-203-0-11729","gh_id":"B2BROD01","name":"Brod nad Dyjí","ele":177.0,"begin_date":"1981-10-01","wmo_synop":false,"osm_monitoring_station_within_150m":true},"geometry":{"type":"Point","coordinates":[16.5358,48.8733]}},{"type":"Feature","properties":{"ref:wigos":"0-203-0-11742","gh_id":"O2OLOM01","name":"Olomouc, Holice","ele":210.0,"begin_date":"1850-01-01","wmo_synop":false,"osm_monitoring_station_within_150m":true},"geometry":{"type":"Point","coordinates":[17.283968,49.575764]}},{"type":"Feature","properties":{"ref:wigos":"0-203-0-11743","gh_id":"B1PLUM01","name":"Plumlov","ele":297.0,"begin_date":"1925-03-05","wmo_synop":false,"osm_monitoring_station_within_150m":false},"geometry":{"type":"Point","coordinates":[17.012222,49.468056]}},{"type":"Feature","properties":{"ref:wigos":"0-203-0-11748","gh_id":"O3PRER01","name":"Přerov","ele":210.0,"begin_date":"1874-03-15","wmo_synop":false,"osm_monitoring_station_within_150m":true},"geometry":{"type":"Point","coordinates":[17.458889,49.464444]}},{"type":"Feature","properties":{"ref:wigos":"0-203-0-11749","gh_id":"B1IVAN01","name":"Ivanovice na Hané","ele":243.0,"begin_date":"1923-03-01","wmo_synop":false,"osm_monitoring_station_within_150m":true},"geometry":{"type":"Point","coordinates":[17.0894,49.3092]}},{"type":"Feature","properties":{"ref:wigos":"0-203-0-11751","gh_id":"B1KROM01","name":"Kroměříž","ele":233.0,"begin_date":"1924-04-01","wmo_synop":false,"osm_monitoring_station_within_150m":true},"geometry":{"type":"Point","coordinates":[17.3653,49.2847]}},{"type":"Feature","properties":{"ref:wigos":"0-203-0-11754","gh_id":"B1STME01","name":"Staré Město","ele":221.0,"begin_date":"1949-05-11","wmo_synop":false,"osm_monitoring_station_within_150m":true},"geometry":{"type":"Point","coordinates":[17.4322,49.0917]}},{"type":"Feature","properties":{"ref:wigos":"0-203-0-11755","gh_id":"B1STRZ01","name":"Strážnice","ele":176.0,"begin_date":"1908-01-01","wmo_synop":false,"osm_monitoring_station_within_150m":true},"geometry":{"type":"Point","coordinates":[17.3381,48.8992]}},{"type":"Feature","properties":{"ref:wigos":"0-203-0-11756","gh_id":"B1HODO01","name":"Hodonín","ele":172.0,"begin_date":"1873-07-01","wmo_synop":false,"osm_monitoring_station_within_150m":false},"geometry":{"type":"Point","coordinates":[17.104872,48.854292]}},{"type":"Feature","properties":{"ref:wigos":"0-203-0-11771","gh_id":"B1BYSH01","name":"Bystřice pod Hostýnem","ele":314.0,"begin_date":"1865-09-01","wmo_synop":false,"osm_monitoring_station_within_150m":true},"geometry":{"type":"Point","coordinates":[17.6706,49.3964]}},{"type":"Feature","properties":{"ref:wigos":"0-203-0-11775","gh_id":"B1ZLIN01","name":"Zlín","ele":283.0,"begin_date":"1878-09-01","wmo_synop":false,"osm_monitoring_station_within_150m":true},"geometry":{"type":"Point","coordinates":[17.643333,49.236667]}},{"type":"Feature","properties":{"ref:wigos":"0-203-0-41003091001","gh_id":"O2OLKL01","name":"Olomouc, Klášterní Hradisko","ele":215.0,"begin_date":"1876-01-01","wmo_synop":false,"osm_monitoring_station_within_150m":false},"geometry":{"type":"Point","coordinates":[17.264465,49.608795]}},{"type":"Feature","properties":{"ref:wigos":"0-203-0-41003127001","gh_id":"O2UJEZ01","name":"Velký Újezd","ele":381.0,"begin_date":"1955-01-01","wmo_synop":false,"osm_monitoring_station_within_150m":false},"geometry":{"type":"Point","coordinates":[17.485591,49.581276]}},{"type":"Feature","properties":{"ref:wigos":"0-203-0-41102037001","gh_id":"O3POTB01","name":"Potštát, Boškov","ele":545.0,"begin_date":"2017-10-18","wmo_synop":false,"osm_monitoring_station_within_150m":true},"geometry":{"type":"Point","coordinates":[17.6142,49.6238]}},{"type":"Feature","properties":{"ref:wigos":"0-203-0-41102038001","gh_id":"O3POTS01","name":"Potštát, Kyžlířov","ele":565.0,"begin_date":"1939-03-01","wmo_synop":false,"osm_monitoring_station_within_150m":false},"geometry":{"type":"Point","coordinates":[17.673823,49.639655]}},{"type":"Feature","properties":{"ref:wigos":"0-203-0-41102054001","gh_id":"O3LIPN01","name":"Lipník nad Bečvou","ele":227.0,"begin_date":"1881-02-01","wmo_synop":false,"osm_monitoring_station_within_150m":false},"geometry":{"type":"Point","coordinates":[17.590556,49.521944]}},{"type":"Feature","properties":{"ref:wigos":"0-203-0-41201009001","gh_id":"B1NAMH01","name":"Náměšť na Hané","ele":247.0,"begin_date":"1881-01-01","wmo_synop":false,"osm_monitoring_station_within_150m":false},"geometry":{"type":"Point","coordinates":[17.065,49.605]}},{"type":"Feature","properties":{"ref:wigos":"0-203-0-41201060001","gh_id":"B1KRAL01","name":"Kralice na Hané","ele":210.0,"begin_date":"1995-11-01","wmo_synop":false,"osm_monitoring_station_within_150m":false},"geometry":{"type":"Point","coordinates":[17.1827,49.4597]}},{"type":"Feature","properties":{"ref:wigos":"0-203-0-41202031001","gh_id":"B1MSLI01","name":"Morkovice-Slížany, Slížany","ele":289.0,"begin_date":"1895-07-01","wmo_synop":false,"osm_monitoring_station_within_150m":false},"geometry":{"type":"Point","coordinates":[17.2319,49.2417]}},{"type":"Feature","properties":{"ref:wigos":"0-203-0-41202048001","gh_id":"B1PODI01","name":"Podivice","ele":375.0,"begin_date":"1882-03-01","wmo_synop":false,"osm_monitoring_station_within_150m":false},"geometry":{"type":"Point","coordinates":[17.003611,49.369444]}},{"type":"Feature","properties":{"ref:wigos":"0-203-0-41202062001","gh_id":"B1KOJE01","name":"Kojetín","ele":203.0,"begin_date":"1937-07-01","wmo_synop":false,"osm_monitoring_station_within_150m":false},"geometry":{"type":"Point","coordinates":[17.2944,49.3527]}},{"type":"Feature","properties":{"ref:wigos":"0-203-0-41202086001","gh_id":"B1DREV01","name":"Dřevohostice","ele":238.0,"begin_date":"1922-01-01","wmo_synop":false,"osm_monitoring_station_within_150m":false},"geometry":{"type":"Point","coordinates":[17.586111,49.424444]}},{"type":"Feature","properties":{"ref:wigos":"0-203-0-41202144001","gh_id":"B1KVAS01","name":"Kvasice","ele":190.0,"begin_date":"1881-01-01","wmo_synop":false,"osm_monitoring_station_within_150m":false},"geometry":{"type":"Point","coordinates":[17.4703,49.2453]}},{"type":"Feature","properties":{"ref:wigos":"0-203-0-41301057001","gh_id":"B1HALE01","name":"Halenkovice","ele":352.0,"begin_date":"2023-05-01","wmo_synop":false,"osm_monitoring_station_within_150m":false},"geometry":{"type":"Point","coordinates":[17.454038,49.192993]}},{"type":"Feature","properties":{"ref:wigos":"0-203-0-41301123001","gh_id":"B1NIVN01","name":"Nivnice","ele":241.0,"begin_date":"1934-05-01","wmo_synop":false,"osm_monitoring_station_within_150m":false},"geometry":{"type":"Point","coordinates":[17.64502,48.98061]}},{"type":"Feature","properties":{"ref:wigos":"0-203-0-41302005002","gh_id":"B1HLUK01","name":"Hluk","ele":225.0,"begin_date":"1895-07-01","wmo_synop":false,"osm_monitoring_station_within_150m":false},"geometry":{"type":"Point","coordinates":[17.538,48.9863]}},{"type":"Feature","properties":{"ref:wigos":"0-203-0-41302015001","gh_id":"B1BLAT01","name":"Blatnice pod svatým Antonínkem","ele":210.0,"begin_date":"1949-03-12","wmo_synop":false,"osm_monitoring_station_within_150m":false},"geometry":{"type":"Point","coordinates":[17.462222,48.947778]}},{"type":"Feature","properties":{"ref:wigos":"0-203-0-41302020001","gh_id":"B1BUCH01","name":"Buchlovice","ele":257.0,"begin_date":"1881-01-01","wmo_synop":false,"osm_monitoring_station_within_150m":false},"geometry":{"type":"Point","coordinates":[17.335389,49.089008]}},{"type":"Feature","properties":{"ref:wigos":"0-203-0-41302026001","gh_id":"B1BZEN01","name":"Bzenec","ele":182.0,"begin_date":"1932-08-01","wmo_synop":false,"osm_monitoring_station_within_150m":false},"geometry":{"type":"Point","coordinates":[17.289167,48.974167]}},{"type":"Feature","properties":{"ref:wigos":"0-203-0-41302039002","gh_id":"B1VELV01","name":"Velká nad Veličkou","ele":289.0,"begin_date":"1886-01-01","wmo_synop":false,"osm_monitoring_station_within_150m":false},"geometry":{"type":"Point","coordinates":[17.5167,48.8789]}},{"type":"Feature","properties":{"ref:wigos":"0-203-0-41302058001","gh_id":"B1RADE01","name":"Radějov","ele":240.0,"begin_date":"1941-09-01","wmo_synop":false,"osm_monitoring_station_within_150m":false},"geometry":{"type":"Point","coordinates":[17.3348,48.8639]}},{"type":"Feature","properties":{"ref:wigos":"0-203-0-41302058001","gh_id":"B1RADE01","name":"Radějov","ele":240.0,"begin_date":"1941-09-01","wmo_synop":false,"osm_monitoring_station_within_150m":false},"geometry":{"type":"Point","coordinates":[17.3348,48.8639]}},{"type":"Feature","properties":{"ref:wigos":"0-203-0-41302058001","gh_id":"B7RADE01","name":"Radějov","ele":240.0,"begin_date":"2026-09-16","wmo_synop":false,"osm_monitoring_station_within_150m":false},"geometry":{"type":"Point","coordinates":[17.3348,48.8639]}},{"type":"Feature","properties":{"ref:wigos":"0-203-0-41402044002","gh_id":"B2JEMN01","name":"Jemnice","ele":502.0,"begin_date":"1914-01-01","wmo_synop":false,"osm_monitoring_station_within_150m":false},"geometry":{"type":"Point","coordinates":[15.59,49.025]}},{"type":"Feature","properties":{"ref:wigos":"0-203-0-41402050001","gh_id":"B2BITO01","name":"Bítov","ele":425.0,"begin_date":"1886-10-01","wmo_synop":false,"osm_monitoring_station_within_150m":false},"geometry":{"type":"Point","coordinates":[15.73,48.938333]}},{"type":"Feature","properties":{"ref:wigos":"0-203-0-41402053001","gh_id":"B2VRAN01","name":"Vranov nad Dyjí","ele":354.0,"begin_date":"1932-06-01","wmo_synop":false,"osm_monitoring_station_within_150m":false},"geometry":{"type":"Point","coordinates":[15.8186,48.9056]}},{"type":"Feature","properties":{"ref:wigos":"0-203-0-41402080001","gh_id":"B2SATO01","name":"Šatov","ele":238.0,"begin_date":"1981-04-09","wmo_synop":false,"osm_monitoring_station_within_150m":false},"geometry":{"type":"Point","coordinates":[16.020556,48.789167]}},{"type":"Feature","properties":{"ref:wigos":"0-203-0-41402084001","gh_id":"B2JARS01","name":"Jaroslavice","ele":190.0,"begin_date":"1882-01-01","wmo_synop":false,"osm_monitoring_station_within_150m":false},"geometry":{"type":"Point","coordinates":[16.2325,48.7553]}},{"type":"Feature","properties":{"ref:wigos":"0-203-0-41403002002","gh_id":"B2LAZT01","name":"Láz","ele":432.0,"begin_date":"2012-11-01","wmo_synop":false,"osm_monitoring_station_within_150m":false},"geometry":{"type":"Point","coordinates":[15.786675,49.013078]}},{"type":"Feature","properties":{"ref:wigos":"0-203-0-41403014001","gh_id":"B2STRE01","name":"Střelice","ele":325.0,"begin_date":"2010-05-01","wmo_synop":false,"osm_monitoring_station_within_150m":false},"geometry":{"type":"Point","coordinates":[15.9828,48.9934]}},{"type":"Feature","properties":{"ref:wigos":"0-203-0-41403039001","gh_id":"B2DZBA01","name":"Džbánice","ele":337.0,"begin_date":"1908-10-01","wmo_synop":false,"osm_monitoring_station_within_150m":false},"geometry":{"type":"Point","coordinates":[16.208466,49.00225]}},{"type":"Feature","properties":{"ref:wigos":"0-203-0-41403043002","gh_id":"B2BOZI01","name":"Božice","ele":216.0,"begin_date":"1950-06-10","wmo_synop":false,"osm_monitoring_station_within_150m":false},"geometry":{"type":"Point","coordinates":[16.2881,48.8344]}},{"type":"Feature","properties":{"ref:wigos":"0-203-0-41403067001","gh_id":"B2DRNH01","name":"Drnholec","ele":210.0,"begin_date":"1885-03-01","wmo_synop":false,"osm_monitoring_station_within_150m":false},"geometry":{"type":"Point","coordinates":[16.48,48.8589]}},{"type":"Feature","properties":{"ref:wigos":"0-203-0-41501024001","gh_id":"B2KADO01","name":"Kadov","ele":672.0,"begin_date":"1993-01-01","wmo_synop":false,"osm_monitoring_station_within_150m":false},"geometry":{"type":"Point","coordinates":[16.077778,49.635131]}},{"type":"Feature","properties":{"ref:wigos":"0-203-0-41501030001","gh_id":"B2VECO01","name":"Věcov, Jimramovské Pavlovice","ele":550.0,"begin_date":"1983-01-01","wmo_synop":false,"osm_monitoring_station_within_150m":false},"geometry":{"type":"Point","coordinates":[16.2019,49.6153]}},{"type":"Feature","properties":{"ref:wigos":"0-203-0-41501037001","gh_id":"B2VIRP01","name":"Vír","ele":473.0,"begin_date":"1948-09-01","wmo_synop":false,"osm_monitoring_station_within_150m":false},"geometry":{"type":"Point","coordinates":[16.3139,49.5642]}},{"type":"Feature","properties":{"ref:wigos":"0-203-0-41501038001","gh_id":"B2LISE01","name":"Lísek","ele":688.0,"begin_date":"1918-02-01","wmo_synop":false,"osm_monitoring_station_within_150m":false},"geometry":{"type":"Point","coordinates":[16.183611,49.583611]}},{"type":"Feature","properties":{"ref:wigos":"0-203-0-41501047001","gh_id":"B2STEP01","name":"Štěpánov nad Svratkou","ele":357.0,"begin_date":"1881-06-01","wmo_synop":false,"osm_monitoring_station_within_150m":false},"geometry":{"type":"Point","coordinates":[16.338495,49.508504]}},{"type":"Feature","properties":{"ref:wigos":"0-203-0-41501048001","gh_id":"B2OLES01","name":"Olešnice","ele":543.0,"begin_date":"1923-05-01","wmo_synop":false,"osm_monitoring_station_within_150m":false},"geometry":{"type":"Point","coordinates":[16.4166,49.5586]}},{"type":"Feature","properties":{"ref:wigos":"0-203-0-41501076001","gh_id":"B2NMES01","name":"Nové Město na Moravě","ele":601.0,"begin_date":"1898-01-01","wmo_synop":false,"osm_monitoring_station_within_150m":false},"geometry":{"type":"Point","coordinates":[16.0689,49.5581]}},{"type":"Feature","properties":{"ref:wigos":"0-203-0-41501115001","gh_id":"B2HAJE01","name":"Tišnov, Hájek","ele":409.0,"begin_date":"2010-05-01","wmo_synop":false,"osm_monitoring_station_within_150m":true},"geometry":{"type":"Point","coordinates":[16.4725,49.3731]}},{"type":"Feature","properties":{"ref:wigos":"0-203-0-41501135001","gh_id":"B2VBIT01","name":"Velká Bíteš","ele":485.0,"begin_date":"1913-05-01","wmo_synop":false,"osm_monitoring_station_within_150m":false},"geometry":{"type":"Point","coordinates":[16.221,49.2918]}},{"type":"Feature","properties":{"ref:wigos":"0-203-0-41501140001","gh_id":"B2VEBI01","name":"Veverská Bítýška","ele":246.0,"begin_date":"2010-05-01","wmo_synop":false,"osm_monitoring_station_within_150m":false},"geometry":{"type":"Point","coordinates":[16.4317,49.2767]}},{"type":"Feature","properties":{"ref:wigos":"0-203-0-41501142001","gh_id":"B2KURI01","name":"Kuřim","ele":291.0,"begin_date":"1882-07-01","wmo_synop":false,"osm_monitoring_station_within_150m":false},"geometry":{"type":"Point","coordinates":[16.5322,49.3006]}},{"type":"Feature","properties":{"ref:wigos":"0-203-0-41501153002","gh_id":"B2BJUN01","name":"Brno, Jundrov","ele":260.0,"begin_date":"1925-08-01","wmo_synop":false,"osm_monitoring_station_within_150m":false},"geometry":{"type":"Point","coordinates":[16.5608,49.2019]}},{"type":"Feature","properties":{"ref:wigos":"0-203-0-41502013001","gh_id":"B2SVLK01","name":"Stvolová, Skřib","ele":395.0,"begin_date":"1924-04-01","wmo_synop":false,"osm_monitoring_station_within_150m":false},"geometry":{"type":"Point","coordinates":[16.550556,49.589167]}},{"type":"Feature","properties":{"ref:wigos":"0-203-0-41502036001","gh_id":"B2KNIN01","name":"Knínice u Boskovic","ele":369.0,"begin_date":"1981-05-01","wmo_synop":false,"osm_monitoring_station_within_150m":false},"geometry":{"type":"Point","coordinates":[16.692288,49.537004]}},{"type":"Feature","properties":{"ref:wigos":"0-203-0-41502057001","gh_id":"B2OBOR01","name":"Obora","ele":425.0,"begin_date":"2015-06-15","wmo_synop":false,"osm_monitoring_station_within_150m":false},"geometry":{"type":"Point","coordinates":[16.603611,49.451667]}},{"type":"Feature","properties":{"ref:wigos":"0-203-0-41502073001","gh_id":"B2BLAN01","name":"Blansko","ele":299.0,"begin_date":"1989-06-01","wmo_synop":false,"osm_monitoring_station_within_150m":false},"geometry":{"type":"Point","coordinates":[16.6503,49.3597]}},{"type":"Feature","properties":{"ref:wigos":"0-203-0-41502076001","gh_id":"B2SOSU01","name":"Šošůvka","ele":533.0,"begin_date":"2013-11-01","wmo_synop":false,"osm_monitoring_station_within_150m":false},"geometry":{"type":"Point","coordinates":[16.746944,49.414444]}},{"type":"Feature","properties":{"ref:wigos":"0-203-0-41502105102","gh_id":"B2BABI01","name":"Babice nad Svitavou","ele":470.0,"begin_date":"1881-01-01","wmo_synop":false,"osm_monitoring_station_within_150m":false},"geometry":{"type":"Point","coordinates":[16.6958,49.2889]}},{"type":"Feature","properties":{"ref:wigos":"0-203-0-41502109601","gh_id":"B2BZID01","name":"Brno, Židenice","ele":200.0,"begin_date":"1998-04-01","wmo_synop":false,"osm_monitoring_station_within_150m":false},"geometry":{"type":"Point","coordinates":[16.631111,49.1983]}},{"type":"Feature","properties":{"ref:wigos":"0-203-0-41503007001","gh_id":"B2ZAST01","name":"Zastávka","ele":375.0,"begin_date":"1897-06-21","wmo_synop":false,"osm_monitoring_station_within_150m":false},"geometry":{"type":"Point","coordinates":[16.36313,49.19298]}},{"type":"Feature","properties":{"ref:wigos":"0-203-0-41503035001","gh_id":"B2NEMO01","name":"Nemochovice","ele":283.0,"begin_date":"2000-12-01","wmo_synop":false,"osm_monitoring_station_within_150m":true},"geometry":{"type":"Point","coordinates":[17.1361,49.1808]}},{"type":"Feature","properties":{"ref:wigos":"0-203-0-41503047001","gh_id":"B2BUCO01","name":"Bučovice, Kloboučky","ele":238.0,"begin_date":"1903-01-01","wmo_synop":false,"osm_monitoring_station_within_150m":false},"geometry":{"type":"Point","coordinates":[17.014033,49.129881]}},{"type":"Feature","properties":{"ref:wigos":"0-203-0-41503064001","gh_id":"B2SLAB01","name":"Slavkov u Brna","ele":211.0,"begin_date":"1882-01-01","wmo_synop":false,"osm_monitoring_station_within_150m":false},"geometry":{"type":"Point","coordinates":[16.879167,49.1575]}},{"type":"Feature","properties":{"ref:wigos":"0-203-0-41503067001","gh_id":"B2BUKA01","name":"Bukovinka","ele":511.0,"begin_date":"1882-02-01","wmo_synop":false,"osm_monitoring_station_within_150m":false},"geometry":{"type":"Point","coordinates":[16.798889,49.296944]}},{"type":"Feature","properties":{"ref:wigos":"0-203-0-41503084001","gh_id":"B2MILE01","name":"Milešovice","ele":242.0,"begin_date":"2010-07-01","wmo_synop":false,"osm_monitoring_station_within_150m":false},"geometry":{"type":"Point","coordinates":[16.853889,49.083889]}},{"type":"Feature","properties":{"ref:wigos":"0-203-0-41503106201","gh_id":"B2TESA01","name":"Těšany","ele":209.0,"begin_date":"1934-12-01","wmo_synop":false,"osm_monitoring_station_within_150m":false},"geometry":{"type":"Point","coordinates":[16.7658,49.0419]}},{"type":"Feature","properties":{"ref:wigos":"0-203-0-41503125001","gh_id":"B2ZIDL01","name":"Židlochovice","ele":183.0,"begin_date":"1923-09-11","wmo_synop":false,"osm_monitoring_station_within_150m":false},"geometry":{"type":"Point","coordinates":[16.6152,49.0319]}},{"type":"Feature","properties":{"ref:wigos":"0-203-0-41601049001","gh_id":"B2JIHL01","name":"Jihlava, Hruškové Dvory","ele":468.0,"begin_date":"1887-11-01","wmo_synop":false,"osm_monitoring_station_within_150m":true},"geometry":{"type":"Point","coordinates":[15.6164,49.4064]}},{"type":"Feature","properties":{"ref:wigos":"0-203-0-41601054001","gh_id":"B2VSTU01","name":"Vysoké Studnice","ele":580.0,"begin_date":"1953-01-01","wmo_synop":false,"osm_monitoring_station_within_150m":false},"geometry":{"type":"Point","coordinates":[15.732465,49.392866]}},{"type":"Feature","properties":{"ref:wigos":"0-203-0-41601054001","gh_id":"B2VSTU01","name":"Vysoké Studnice","ele":568.0,"begin_date":"1953-01-01","wmo_synop":false,"osm_monitoring_station_within_150m":false},"geometry":{"type":"Point","coordinates":[15.7303,49.3931]}},{"type":"Feature","properties":{"ref:wigos":"0-203-0-41601072001","gh_id":"B2BRTN01","name":"Brtnice","ele":517.0,"begin_date":"1884-05-01","wmo_synop":false,"osm_monitoring_station_within_150m":false},"geometry":{"type":"Point","coordinates":[15.6753,49.3069]}},{"type":"Feature","properties":{"ref:wigos":"0-203-0-41601082001","gh_id":"B2NOVE01","name":"Nová Ves","ele":422.0,"begin_date":"2010-07-01","wmo_synop":false,"osm_monitoring_station_within_150m":false},"geometry":{"type":"Point","coordinates":[15.7869,49.2547]}},{"type":"Feature","properties":{"ref:wigos":"0-203-0-41601087001","gh_id":"B2TREB01","name":"Třebíč, Podklášteří","ele":463.0,"begin_date":"1921-01-01","wmo_synop":false,"osm_monitoring_station_within_150m":false},"geometry":{"type":"Point","coordinates":[15.87,49.2236]}},{"type":"Feature","properties":{"ref:wigos":"0-203-0-41601100001","gh_id":"B2BUDI01","name":"Budišov","ele":485.0,"begin_date":"1881-05-01","wmo_synop":false,"osm_monitoring_station_within_150m":false},"geometry":{"type":"Point","coordinates":[16.0039,49.2717]}},{"type":"Feature","properties":{"ref:wigos":"0-203-0-41602008001","gh_id":"B2BOHD01","name":"Bohdalov","ele":583.0,"begin_date":"1896-01-01","wmo_synop":false,"osm_monitoring_station_within_150m":false},"geometry":{"type":"Point","coordinates":[15.871783,49.481656]}},{"type":"Feature","properties":{"ref:wigos":"0-203-0-41602014001","gh_id":"B2RADO01","name":"Radostín","ele":512.0,"begin_date":"1980-11-22","wmo_synop":false,"osm_monitoring_station_within_150m":false},"geometry":{"type":"Point","coordinates":[15.9675,49.460278]}},{"type":"Feature","properties":{"ref:wigos":"0-203-0-41602037001","gh_id":"B2PAVL01","name":"Pavlínov","ele":559.0,"begin_date":"1934-08-01","wmo_synop":false,"osm_monitoring_station_within_150m":false},"geometry":{"type":"Point","coordinates":[15.8772,49.3508]}},{"type":"Feature","properties":{"ref:wigos":"0-203-0-41603002001","gh_id":"B2STEM01","name":"Štěměchy","ele":617.0,"begin_date":"1971-10-01","wmo_synop":false,"osm_monitoring_station_within_150m":false},"geometry":{"type":"Point","coordinates":[15.7133,49.1936]}},{"type":"Feature","properties":{"ref:wigos":"0-203-0-41603036001","gh_id":"B2HROT01","name":"Hrotovice","ele":425.0,"begin_date":"1884-04-01","wmo_synop":false,"osm_monitoring_station_within_150m":false},"geometry":{"type":"Point","coordinates":[16.0588,49.1105]}},{"type":"Feature","properties":{"ref:wigos":"0-203-0-41603056001","gh_id":"B2MKRU01","name":"Moravský Krumlov","ele":255.0,"begin_date":"1881-03-01","wmo_synop":false,"osm_monitoring_station_within_150m":false},"geometry":{"type":"Point","coordinates":[16.305604,49.040547]}},{"type":"Feature","properties":{"ref:wigos":"0-203-0-41604005001","gh_id":"B2MBRA01","name":"Moravské Bránice","ele":210.0,"begin_date":"1963-01-01","wmo_synop":false,"osm_monitoring_station_within_150m":false},"geometry":{"type":"Point","coordinates":[16.4494,49.0825]}},{"type":"Feature","properties":{"ref:wigos":"0-203-0-41604016001","gh_id":"B2BRAS01","name":"Branišovice","ele":200.0,"begin_date":"1895-07-01","wmo_synop":false,"osm_monitoring_station_within_150m":false},"geometry":{"type":"Point","coordinates":[16.4353,48.9661]}},{"type":"Feature","properties":{"ref:wigos":"0-203-0-41701004001","gh_id":"B2HUST01","name":"Hustopeče","ele":201.0,"begin_date":"1895-10-10","wmo_synop":false,"osm_monitoring_station_within_150m":false},"geometry":{"type":"Point","coordinates":[16.7258,48.9456]}},{"type":"Feature","properties":{"ref:wigos":"0-203-0-41701013001","gh_id":"B2ZDAN01","name":"Ždánice","ele":238.0,"begin_date":"1881-04-01","wmo_synop":false,"osm_monitoring_station_within_150m":true},"geometry":{"type":"Point","coordinates":[17.025556,49.071944]}},{"type":"Feature","properties":{"ref:wigos":"0-203-0-41701032001","gh_id":"B2KLOB01","name":"Klobouky u Brna","ele":205.0,"begin_date":"1895-08-01","wmo_synop":false,"osm_monitoring_station_within_150m":false},"geometry":{"type":"Point","coordinates":[16.8767,48.9961]}},{"type":"Feature","properties":{"ref:wigos":"0-203-0-41701056001","gh_id":"B2VALT01","name":"Valtice","ele":195.0,"begin_date":"1895-07-01","wmo_synop":false,"osm_monitoring_station_within_150m":false},"geometry":{"type":"Point","coordinates":[16.759167,48.745833]}},{"type":"Feature","properties":{"ref:wigos":"0-203-0-41701068002","gh_id":"B2KORC01","name":"Koryčany","ele":305.0,"begin_date":"1873-07-01","wmo_synop":false,"osm_monitoring_station_within_150m":false},"geometry":{"type":"Point","coordinates":[17.17,49.1028]}},{"type":"Feature","properties":{"ref:wigos":"0-203-0-41701068003","gh_id":"B2STHU01","name":"Staré Hutě","ele":427.0,"begin_date":"1993-07-01","wmo_synop":false,"osm_monitoring_station_within_150m":false},"geometry":{"type":"Point","coordinates":[17.2883,49.1372]}},{"type":"Feature","properties":{"ref:wigos":"0-203-0-41701090001","gh_id":"B2HYSL01","name":"Hýsly","ele":217.0,"begin_date":"2007-08-01","wmo_synop":false,"osm_monitoring_station_within_150m":false},"geometry":{"type":"Point","coordinates":[17.18,49.021389]}},{"type":"Feature","properties":{"ref:wigos":"0-203-0-41701099001","gh_id":"B2DUBN01","name":"Dubňany","ele":200.0,"begin_date":"1885-02-01","wmo_synop":false,"osm_monitoring_station_within_150m":false},"geometry":{"type":"Point","coordinates":[17.1028,48.9208]}},{"type":"Feature","properties":{"ref:wigos":"0-203-0-41701113001","gh_id":"B2LANZ01","name":"Lanžhot","ele":158.0,"begin_date":"1941-11-01","wmo_synop":false,"osm_monitoring_station_within_150m":false},"geometry":{"type":"Point","coordinates":[16.9575,48.724722]}},{"type":"Feature","properties":{"ref:wigos":"0-203-0-41701115002","gh_id":"B2HRUS01","name":"Hrušky","ele":174.0,"begin_date":"1881-05-01","wmo_synop":false,"osm_monitoring_station_within_150m":false},"geometry":{"type":"Point","coordinates":[16.9739,48.7919]}}]}