{"type":"FeatureCollection","features":[{"type":"Feature","properties":{"name":"KOMAROV","ele":"475","services":"DVB-T","licences":1,"ant_ids":"2799237","communication:television":"yes","osm_mast_or_tower_within_200m":false},"geometry":{"type":"Point","coordinates":[13.8578,49.7961]}},{"type":"Feature","properties":{"name":"ZBIROH","ele":"502","services":"DVB-T","licences":2,"ant_ids":"2799258 3059572","communication:television":"yes","osm_mast_or_tower_within_200m":false},"geometry":{"type":"Point","coordinates":[13.7683,49.8572]}},{"type":"Feature","properties":{"name":"BEROUN","ele":"402","services":"DAB, DVB-T","licences":5,"ant_ids":"2799654 2807633 2809842 2944210 3179927","communication:television":"yes","communication:radio":"yes","osm_mast_or_tower_within_200m":true},"geometry":{"type":"Point","coordinates":[14.0564,49.9708]}},{"type":"Feature","properties":{"name":"PRAHA","ele":"399","services":"DVB-T","licences":4,"ant_ids":"2799669 2807632 2809841 3279946","communication:television":"yes","osm_mast_or_tower_within_200m":true},"geometry":{"type":"Point","coordinates":[14.3558,49.9367]}},{"type":"Feature","properties":{"name":"PRAHA - MESTO / PRAHA MESTO","ele":"258","services":"DAB, DVB-T, FM","licences":15,"ant_ids":"2799674 2806664 2807046 2944773 3128633 3164825 3190263 3232577 3236885 3253965 3254957 3255417 3258116 3258117 3268748","communication:television":"yes","communication:radio":"yes","osm_mast_or_tower_within_200m":true},"geometry":{"type":"Point","coordinates":[14.4511,50.0811]}},{"type":"Feature","properties":{"name":"ROKYCANY","ele":"365","services":"DVB-T","licences":1,"ant_ids":"2801234","communication:television":"yes","osm_mast_or_tower_within_200m":false},"geometry":{"type":"Point","coordinates":[13.5928,49.7442]}},{"type":"Feature","properties":{"name":"RAKOVNIK LOUSTIN","ele":"529","services":"DVB-T","licences":1,"ant_ids":"2803871","communication:television":"yes","osm_mast_or_tower_within_200m":true},"geometry":{"type":"Point","coordinates":[13.7933,50.1644]}},{"type":"Feature","properties":{"name":"BENESOV KOZMICE","ele":"528","services":"DAB, DVB-T","licences":2,"ant_ids":"2803918 3190984","communication:television":"yes","communication:radio":"yes","osm_mast_or_tower_within_200m":true},"geometry":{"type":"Point","coordinates":[14.7875,49.8272]}},{"type":"Feature","properties":{"name":"LITOMERICE I / LITOMERICE MICHALOVICE","ele":"320","services":"DVB-T, FM","licences":3,"ant_ids":"2803939 3149899 3203852","communication:television":"yes","communication:radio":"yes","osm_mast_or_tower_within_200m":true},"geometry":{"type":"Point","coordinates":[14.0939,50.5364]}},{"type":"Feature","properties":{"name":"PRAHA LADVI","ele":"359","services":"DAB, DVB-T","licences":3,"ant_ids":"2804041 3190989 3191526","communication:television":"yes","communication:radio":"yes","osm_mast_or_tower_within_200m":true},"geometry":{"type":"Point","coordinates":[14.4656,50.1364]}},{"type":"Feature","properties":{"name":"PRAHA NOVODVORSKA","ele":"305","services":"DVB-T","licences":1,"ant_ids":"2804046","communication:television":"yes","osm_mast_or_tower_within_200m":false},"geometry":{"type":"Point","coordinates":[14.4511,50.0164]}},{"type":"Feature","properties":{"name":"VOTICE","ele":"713","services":"DAB, DVB-T","licences":5,"ant_ids":"2806162 2810659 2811941 2946655 3200986","communication:television":"yes","communication:radio":"yes","osm_mast_or_tower_within_200m":true},"geometry":{"type":"Point","coordinates":[14.6711,49.6025]}},{"type":"Feature","properties":{"name":"SAZAVA","ele":"435","services":"DVB-T","licences":3,"ant_ids":"2806192 2811949 2816347","communication:television":"yes","osm_mast_or_tower_within_200m":true},"geometry":{"type":"Point","coordinates":[14.8917,49.8822]}},{"type":"Feature","properties":{"name":"CHOMUTOV","ele":"844","services":"DVB-T","licences":3,"ant_ids":"2809795 2822403 2851278","communication:television":"yes","osm_mast_or_tower_within_200m":true},"geometry":{"type":"Point","coordinates":[13.4619,50.5486]}},{"type":"Feature","properties":{"name":"RAKOVNIK / RAKOVNIK MESTO","ele":"366","services":"DAB, DVB-T","licences":4,"ant_ids":"2812452 2976164 3198467 3238764","communication:television":"yes","communication:radio":"yes","osm_mast_or_tower_within_200m":true},"geometry":{"type":"Point","coordinates":[13.7347,50.0956]}},{"type":"Feature","properties":{"name":"HAVLICKUV BROD","ele":"442","services":"DVB-T","licences":3,"ant_ids":"2825264 2855452 3246135","communication:television":"yes","osm_mast_or_tower_within_200m":false},"geometry":{"type":"Point","coordinates":[15.5789,49.5969]}},{"type":"Feature","properties":{"name":"KUTNA HORA ROZHLEDNA","ele":"325","services":"DVB-T","licences":1,"ant_ids":"2841617","communication:television":"yes","osm_mast_or_tower_within_200m":true},"geometry":{"type":"Point","coordinates":[15.285,49.9708]}},{"type":"Feature","properties":{"name":"MILICIN","ele":"650","services":"DVB-T","licences":1,"ant_ids":"2877627","communication:television":"yes","osm_mast_or_tower_within_200m":true},"geometry":{"type":"Point","coordinates":[14.6656,49.5611]}},{"type":"Feature","properties":{"name":"BUCHOV","ele":"674","services":"DVB-T","licences":1,"ant_ids":"2882849","communication:television":"yes","osm_mast_or_tower_within_200m":true},"geometry":{"type":"Point","coordinates":[14.6639,49.6072]}},{"type":"Feature","properties":{"name":"HUMPOLEC KOMIN","ele":"547","services":"DVB-T","licences":1,"ant_ids":"2935991","communication:television":"yes","osm_mast_or_tower_within_200m":false},"geometry":{"type":"Point","coordinates":[15.3458,49.5383]}},{"type":"Feature","properties":{"name":"KAMYK NAD VLTAVOU","ele":"329","services":"DVB-T","licences":4,"ant_ids":"2971937 3170949 3226983 3236934","communication:television":"yes","osm_mast_or_tower_within_200m":true},"geometry":{"type":"Point","coordinates":[14.2469,49.6369]}},{"type":"Feature","properties":{"name":"PRAHA CITY TOWER","ele":"268","services":"DVB-T","licences":2,"ant_ids":"2992025 3045720","communication:television":"yes","osm_mast_or_tower_within_200m":false},"geometry":{"type":"Point","coordinates":[14.4361,50.0503]}},{"type":"Feature","properties":{"name":"PRAHA MALESICKA","ele":"259","services":"DVB-T","licences":1,"ant_ids":"2992950","communication:television":"yes","osm_mast_or_tower_within_200m":false},"geometry":{"type":"Point","coordinates":[14.4664,50.0858]}},{"type":"Feature","properties":{"name":"PRAHA ZLICIN","ele":"386","services":"DVB-T","licences":1,"ant_ids":"2993139","communication:television":"yes","osm_mast_or_tower_within_200m":true},"geometry":{"type":"Point","coordinates":[14.2831,50.0511]}},{"type":"Feature","properties":{"name":"VELEMIN MILESOVKA","ele":"827","services":"DVB-T","licences":1,"ant_ids":"3007369","communication:television":"yes","osm_mast_or_tower_within_200m":true},"geometry":{"type":"Point","coordinates":[13.9314,50.5547]}},{"type":"Feature","properties":{"name":"HOLOUBKOV","ele":"445","services":"DVB-T","licences":2,"ant_ids":"3009127 3195563","communication:television":"yes","osm_mast_or_tower_within_200m":false},"geometry":{"type":"Point","coordinates":[13.6903,49.7756]}},{"type":"Feature","properties":{"name":"ZAJECOV","ele":"510","services":"DVB-T","licences":1,"ant_ids":"3009147","communication:television":"yes","osm_mast_or_tower_within_200m":false},"geometry":{"type":"Point","coordinates":[13.8328,49.7681]}},{"type":"Feature","properties":{"name":"PRIBRAM","ele":"862","services":"DVB-T","licences":1,"ant_ids":"3010118","communication:television":"yes","osm_mast_or_tower_within_200m":true},"geometry":{"type":"Point","coordinates":[13.8189,49.6594]}},{"type":"Feature","properties":{"name":"ROZMITAL POD TREMSINEM","ele":"578","services":"DVB-T","licences":1,"ant_ids":"3134439","communication:television":"yes","osm_mast_or_tower_within_200m":false},"geometry":{"type":"Point","coordinates":[13.86,49.6247]}},{"type":"Feature","properties":{"name":"PRIBRAM CECHOVSKA","ele":"515","services":"DVB-T","licences":1,"ant_ids":"3150768","communication:television":"yes","osm_mast_or_tower_within_200m":false},"geometry":{"type":"Point","coordinates":[13.9956,49.6747]}},{"type":"Feature","properties":{"name":"CHOCERADY","ele":"350","services":"DVB-T","licences":3,"ant_ids":"3170945 3185185 3187076","communication:television":"yes","osm_mast_or_tower_within_200m":false},"geometry":{"type":"Point","coordinates":[14.7981,49.8683]}},{"type":"Feature","properties":{"name":"JINCE","ele":"440","services":"DVB-T","licences":3,"ant_ids":"3170946 3185186 3187077","communication:television":"yes","osm_mast_or_tower_within_200m":true},"geometry":{"type":"Point","coordinates":[13.9714,49.7828]}},{"type":"Feature","properties":{"name":"OKROUHLICE","ele":"431","services":"DVB-T","licences":1,"ant_ids":"3170974","communication:television":"yes","osm_mast_or_tower_within_200m":false},"geometry":{"type":"Point","coordinates":[15.4875,49.6375]}},{"type":"Feature","properties":{"name":"PRIBRAM BREZOVE HORY","ele":"555","services":"DVB-T, FM","licences":5,"ant_ids":"3170984 3185187 3187078 3232579 3232581","communication:television":"yes","communication:radio":"yes","osm_mast_or_tower_within_200m":true},"geometry":{"type":"Point","coordinates":[13.9969,49.6856]}},{"type":"Feature","properties":{"name":"STRASICE","ele":"495","services":"DVB-T","licences":1,"ant_ids":"3170985","communication:television":"yes","osm_mast_or_tower_within_200m":false},"geometry":{"type":"Point","coordinates":[13.7572,49.7344]}},{"type":"Feature","properties":{"name":"LEDEC NAD SAZAVOU","ele":"422","services":"DVB-T","licences":3,"ant_ids":"3175899 3185188 3187080","communication:television":"yes","osm_mast_or_tower_within_200m":true},"geometry":{"type":"Point","coordinates":[15.2683,49.6953]}},{"type":"Feature","properties":{"name":"BEROUN LHOTKA","ele":"458","services":"DVB-T","licences":1,"ant_ids":"3178272","communication:television":"yes","osm_mast_or_tower_within_200m":true},"geometry":{"type":"Point","coordinates":[14.1075,49.9958]}},{"type":"Feature","properties":{"name":"MOST","ele":"359","services":"DAB, DVB-T","licences":2,"ant_ids":"3071823 3185766","communication:television":"yes","communication:radio":"yes","osm_mast_or_tower_within_200m":true},"geometry":{"type":"Point","coordinates":[13.625,50.5144]}},{"type":"Feature","properties":{"name":"PRAHA BUTOVICE","ele":"325","services":"DVB-T","licences":1,"ant_ids":"3213580","communication:television":"yes","osm_mast_or_tower_within_200m":false},"geometry":{"type":"Point","coordinates":[14.3436,50.0506]}},{"type":"Feature","properties":{"name":"PRIBRAM HVEZDARNA","ele":"560","services":"DAB, DVB-T","licences":3,"ant_ids":"2944774 3186677 3220908","communication:television":"yes","communication:radio":"yes","osm_mast_or_tower_within_200m":true},"geometry":{"type":"Point","coordinates":[14.0222,49.6944]}},{"type":"Feature","properties":{"name":"BEROUN VODOJEM","ele":"331","services":"DVB-T","licences":1,"ant_ids":"3220986","communication:television":"yes","osm_mast_or_tower_within_200m":false},"geometry":{"type":"Point","coordinates":[14.0553,49.9681]}},{"type":"Feature","properties":{"name":"PRAHA DEVIN","ele":"303","services":"DAB, DVB-T","licences":2,"ant_ids":"3163743 3221009","communication:television":"yes","communication:radio":"yes","osm_mast_or_tower_within_200m":false},"geometry":{"type":"Point","coordinates":[14.3994,50.0525]}},{"type":"Feature","properties":{"name":"SVETLA NAD SAZAVOU","ele":"405","services":"DVB-T","licences":1,"ant_ids":"3240615","communication:television":"yes","osm_mast_or_tower_within_200m":false},"geometry":{"type":"Point","coordinates":[15.4192,49.6658]}},{"type":"Feature","properties":{"name":"KLADNO / KLADNO VODOJEM","ele":"412","services":"DVB-T, FM","licences":2,"ant_ids":"3187002 3240961","communication:television":"yes","communication:radio":"yes","osm_mast_or_tower_within_200m":false},"geometry":{"type":"Point","coordinates":[14.0778,50.1369]}},{"type":"Feature","properties":{"name":"ROKYCANY ARBESOVA","ele":"354","services":"DVB-T","licences":1,"ant_ids":"3254724","communication:television":"yes","osm_mast_or_tower_within_200m":false},"geometry":{"type":"Point","coordinates":[13.5808,49.745]}},{"type":"Feature","properties":{"name":"MOST HNEVIN","ele":"390","services":"DVB-T","licences":1,"ant_ids":"3275488","communication:television":"yes","osm_mast_or_tower_within_200m":false},"geometry":{"type":"Point","coordinates":[13.6347,50.5206]}},{"type":"Feature","properties":{"name":"HAVLICKUV BROD KOMIN","ele":"438","services":"DVB-T","licences":1,"ant_ids":"3306429","communication:television":"yes","osm_mast_or_tower_within_200m":false},"geometry":{"type":"Point","coordinates":[15.5831,49.5969]}},{"type":"Feature","properties":{"name":"CTYRKOLY","ele":"396","services":"DAB","licences":2,"ant_ids":"2944214 3180546","communication:radio":"yes","osm_mast_or_tower_within_200m":true},"geometry":{"type":"Point","coordinates":[14.7381,49.8711]}},{"type":"Feature","properties":{"name":"KACOV","ele":"422","services":"DAB","licences":2,"ant_ids":"2944220 3180561","communication:radio":"yes","osm_mast_or_tower_within_200m":true},"geometry":{"type":"Point","coordinates":[15.0319,49.7667]}},{"type":"Feature","properties":{"name":"MECHNOV","ele":"528","services":"DAB","licences":2,"ant_ids":"2944766 3180580","communication:radio":"yes","osm_mast_or_tower_within_200m":true},"geometry":{"type":"Point","coordinates":[14.8919,49.7964]}},{"type":"Feature","properties":{"name":"PLZEN RADEC","ele":"718","services":"DAB","licences":2,"ant_ids":"2944771 3208867","communication:radio":"yes","osm_mast_or_tower_within_200m":true},"geometry":{"type":"Point","coordinates":[13.6703,49.8228]}},{"type":"Feature","properties":{"name":"MOCHOV","ele":"202","services":"DAB","licences":1,"ant_ids":"2987393","communication:radio":"yes","osm_mast_or_tower_within_200m":true},"geometry":{"type":"Point","coordinates":[14.7692,50.1444]}},{"type":"Feature","properties":{"name":"MLADA BOLESLAV-DOUBEK","ele":"362","services":"FM","licences":3,"ant_ids":"2995634 3134623 3134624","communication:radio":"yes","osm_mast_or_tower_within_200m":false},"geometry":{"type":"Point","coordinates":[14.9364,50.3875]}},{"type":"Feature","properties":{"name":"PRIBRAM / PRIBRAM DRAHLIN / PRIBRAM KOZICIN / PRIBRAM-I","ele":"610","services":"FM","licences":5,"ant_ids":"2995635 3203887 3257113 3317722 3323935","communication:radio":"yes","osm_mast_or_tower_within_200m":false},"geometry":{"type":"Point","coordinates":[13.9456,49.6753]}},{"type":"Feature","properties":{"name":"BENESOV-KOZMICE","ele":"472","services":"FM","licences":1,"ant_ids":"3014118","communication:radio":"yes","osm_mast_or_tower_within_200m":true},"geometry":{"type":"Point","coordinates":[14.7794,49.7989]}},{"type":"Feature","properties":{"name":"KUTNA HORA - VYSOKA","ele":"471","services":"FM","licences":2,"ant_ids":"3023745 3159764","communication:radio":"yes","osm_mast_or_tower_within_200m":true},"geometry":{"type":"Point","coordinates":[15.1886,49.9425]}},{"type":"Feature","properties":{"name":"RAKOVNIK - LOUSTIN / RAKOVNIK LOUSTIN","ele":"537","services":"FM","licences":2,"ant_ids":"3023746 3284280","communication:radio":"yes","osm_mast_or_tower_within_200m":true},"geometry":{"type":"Point","coordinates":[13.7936,50.1642]}},{"type":"Feature","properties":{"name":"BEROUN-ZAHRABSKA / BEROUN-ZAHRABSKA 1 / BEROUN-ZAHRABSKA I","ele":"425","services":"FM","licences":4,"ant_ids":"3032605 3167028 3244777 3253164","communication:radio":"yes","osm_mast_or_tower_within_200m":true},"geometry":{"type":"Point","coordinates":[14.1108,49.9706]}},{"type":"Feature","properties":{"name":"LITOMERICE","ele":"148","services":"FM","licences":2,"ant_ids":"3034636 3034651","communication:radio":"yes","osm_mast_or_tower_within_200m":false},"geometry":{"type":"Point","coordinates":[14.1364,50.5172]}},{"type":"Feature","properties":{"name":"PRAHA - CUKRAK","ele":"412","services":"FM","licences":1,"ant_ids":"3047808","communication:radio":"yes","osm_mast_or_tower_within_200m":true},"geometry":{"type":"Point","coordinates":[14.3553,49.9372]}},{"type":"Feature","properties":{"name":"LOUNY","ele":"270","services":"FM","licences":1,"ant_ids":"3048354","communication:radio":"yes","osm_mast_or_tower_within_200m":true},"geometry":{"type":"Point","coordinates":[13.7947,50.3844]}},{"type":"Feature","properties":{"name":"KLADNO-HOTEL","ele":"400","services":"FM","licences":1,"ant_ids":"3048860","communication:radio":"yes","osm_mast_or_tower_within_200m":false},"geometry":{"type":"Point","coordinates":[14.1011,50.1369]}},{"type":"Feature","properties":{"name":"PRIBRAM MESTO 3","ele":"533","services":"FM","licences":1,"ant_ids":"3060239","communication:radio":"yes","osm_mast_or_tower_within_200m":false},"geometry":{"type":"Point","coordinates":[13.9942,49.6733]}},{"type":"Feature","properties":{"name":"MOST 2","ele":"319","services":"FM","licences":2,"ant_ids":"3064570 3257096","communication:radio":"yes","osm_mast_or_tower_within_200m":false},"geometry":{"type":"Point","coordinates":[13.6522,50.4922]}},{"type":"Feature","properties":{"name":"PRAHA - MESTO / PRAHA-PETRIN","ele":"315","services":"FM","licences":2,"ant_ids":"3069580 3186692","communication:radio":"yes","osm_mast_or_tower_within_200m":true},"geometry":{"type":"Point","coordinates":[14.395,50.0833]}},{"type":"Feature","properties":{"name":"MELNIK MESTO","ele":"176","services":"FM","licences":1,"ant_ids":"3070275","communication:radio":"yes","osm_mast_or_tower_within_200m":false},"geometry":{"type":"Point","coordinates":[14.4858,50.3458]}},{"type":"Feature","properties":{"name":"PRAHA PETRIN / PRAHA PETRIN I / PRAHA STRAHOV","ele":"355","services":"DAB, FM","licences":3,"ant_ids":"3090918 3146712 3148781","communication:radio":"yes","osm_mast_or_tower_within_200m":true},"geometry":{"type":"Point","coordinates":[14.3758,50.08]}},{"type":"Feature","properties":{"name":"PRAHA LETNA","ele":"220","services":"FM","licences":1,"ant_ids":"3101585","communication:radio":"yes","osm_mast_or_tower_within_200m":false},"geometry":{"type":"Point","coordinates":[14.4244,50.0975]}},{"type":"Feature","properties":{"name":"LOVOSICE","ele":"146","services":"FM","licences":4,"ant_ids":"3102137 3107229 3122833 3167907","communication:radio":"yes","osm_mast_or_tower_within_200m":false},"geometry":{"type":"Point","coordinates":[14.0639,50.5133]}},{"type":"Feature","properties":{"name":"MELNIK MESTO 1","ele":"184","services":"FM","licences":3,"ant_ids":"3106893 3187082 3257117","communication:radio":"yes","osm_mast_or_tower_within_200m":false},"geometry":{"type":"Point","coordinates":[14.4947,50.3378]}},{"type":"Feature","properties":{"name":"PRAHA STRAHOV / PRAHA STRAHOV I / PRAHA STRAHOV II","ele":"345","services":"DAB, FM","licences":7,"ant_ids":"3118430 3118721 3147218 3148511 3150223 3156552 3182064","communication:radio":"yes","osm_mast_or_tower_within_200m":true},"geometry":{"type":"Point","coordinates":[14.3856,50.0803]}},{"type":"Feature","properties":{"name":"TURNOV / TURNOV 1 / TURNOV 2","ele":"269","services":"FM","licences":4,"ant_ids":"3127249 3129448 3239763 3257058","communication:radio":"yes","osm_mast_or_tower_within_200m":false},"geometry":{"type":"Point","coordinates":[15.14,50.5894]}},{"type":"Feature","properties":{"name":"RAKOVNIK 1 / RAKOVNIK I","ele":"480","services":"FM","licences":2,"ant_ids":"3130149 3257067","communication:radio":"yes","osm_mast_or_tower_within_200m":true},"geometry":{"type":"Point","coordinates":[13.4956,50.1322]}},{"type":"Feature","properties":{"name":"CHOMUTOV MESTO","ele":"359","services":"FM","licences":3,"ant_ids":"3139158 3257019 3257121","communication:radio":"yes","osm_mast_or_tower_within_200m":false},"geometry":{"type":"Point","coordinates":[13.4008,50.4664]}},{"type":"Feature","properties":{"name":"CERNICE","ele":"410","services":"FM","licences":1,"ant_ids":"3149545","communication:radio":"yes","osm_mast_or_tower_within_200m":true},"geometry":{"type":"Point","coordinates":[13.4161,49.6836]}},{"type":"Feature","properties":{"name":"PRAHA","ele":"705","services":"FM","licences":5,"ant_ids":"3152816 3232571 3254969 3255405 3291562","communication:radio":"yes","osm_mast_or_tower_within_200m":true},"geometry":{"type":"Point","coordinates":[14.6717,49.6028]}},{"type":"Feature","properties":{"name":"JICIN","ele":"678","services":"FM","licences":2,"ant_ids":"3168573 3209589","communication:radio":"yes","osm_mast_or_tower_within_200m":true},"geometry":{"type":"Point","coordinates":[15.3675,50.5092]}},{"type":"Feature","properties":{"name":"ROKYCANY / ROKYCANY I","ele":"375","services":"FM","licences":3,"ant_ids":"3172944 3254023 3257053","communication:radio":"yes","osm_mast_or_tower_within_200m":false},"geometry":{"type":"Point","coordinates":[13.6061,49.7417]}},{"type":"Feature","properties":{"name":"BENESOV MESTO","ele":"354","services":"FM","licences":1,"ant_ids":"3177601","communication:radio":"yes","osm_mast_or_tower_within_200m":false},"geometry":{"type":"Point","coordinates":[14.6925,49.7806]}},{"type":"Feature","properties":{"name":"VLASIM","ele":"373","services":"FM","licences":1,"ant_ids":"3177603","communication:radio":"yes","osm_mast_or_tower_within_200m":false},"geometry":{"type":"Point","coordinates":[14.8969,49.705]}},{"type":"Feature","properties":{"name":"KRIVSOUDOV","ele":"540","services":"FM","licences":3,"ant_ids":"3179554 3257126 3265352","communication:radio":"yes","osm_mast_or_tower_within_200m":true},"geometry":{"type":"Point","coordinates":[15.1111,49.6369]}},{"type":"Feature","properties":{"name":"BEROUN ZAHRABSKA / BEROUN ZAHRABSKA I","ele":"430","services":"DAB, FM","licences":2,"ant_ids":"3182043 3257068","communication:radio":"yes","osm_mast_or_tower_within_200m":true},"geometry":{"type":"Point","coordinates":[14.1117,49.9711]}},{"type":"Feature","properties":{"name":"ROUDNICE N L","ele":"190","services":"FM","licences":1,"ant_ids":"3189783","communication:radio":"yes","osm_mast_or_tower_within_200m":false},"geometry":{"type":"Point","coordinates":[14.2461,50.4242]}},{"type":"Feature","properties":{"name":"PLZEN CERNICE","ele":"421","services":"DAB","licences":1,"ant_ids":"3190679","communication:radio":"yes","osm_mast_or_tower_within_200m":false},"geometry":{"type":"Point","coordinates":[13.4239,49.6864]}},{"type":"Feature","properties":{"name":"PRAHA CITY TOWER","ele":"269","services":"DAB","licences":1,"ant_ids":"3190941","communication:radio":"yes","osm_mast_or_tower_within_200m":false},"geometry":{"type":"Point","coordinates":[14.4361,50.0506]}},{"type":"Feature","properties":{"name":"BENESOV KOCHANOV","ele":"498","services":"DAB","licences":1,"ant_ids":"3190946","communication:radio":"yes","osm_mast_or_tower_within_200m":true},"geometry":{"type":"Point","coordinates":[14.7769,49.7986]}},{"type":"Feature","properties":{"name":"HAVLICKUV BROD 2","ele":"486","services":"FM","licences":1,"ant_ids":"3203817","communication:radio":"yes","osm_mast_or_tower_within_200m":false},"geometry":{"type":"Point","coordinates":[15.5786,49.5778]}},{"type":"Feature","properties":{"name":"CHOMUTOV","ele":"848","services":"FM","licences":6,"ant_ids":"3203818 3223238 3223273 3223275 3223280 3254963","communication:radio":"yes","osm_mast_or_tower_within_200m":true},"geometry":{"type":"Point","coordinates":[13.4614,50.5492]}},{"type":"Feature","properties":{"name":"KUTNA HORA-KANK","ele":"209","services":"FM","licences":1,"ant_ids":"3203822","communication:radio":"yes","osm_mast_or_tower_within_200m":true},"geometry":{"type":"Point","coordinates":[15.4533,50.0272]}},{"type":"Feature","properties":{"name":"MLADA BOLESLAV-MESTO","ele":"224","services":"FM","licences":1,"ant_ids":"3203825","communication:radio":"yes","osm_mast_or_tower_within_200m":false},"geometry":{"type":"Point","coordinates":[14.9131,50.4239]}},{"type":"Feature","properties":{"name":"MOST-SPICAK","ele":"263","services":"FM","licences":2,"ant_ids":"3203827 3203856","communication:radio":"yes","osm_mast_or_tower_within_200m":false},"geometry":{"type":"Point","coordinates":[13.6431,50.5058]}},{"type":"Feature","properties":{"name":"PRAHA MICHLE","ele":"221","services":"FM","licences":1,"ant_ids":"3203829","communication:radio":"yes","osm_mast_or_tower_within_200m":false},"geometry":{"type":"Point","coordinates":[14.4686,50.0544]}},{"type":"Feature","properties":{"name":"PRAHA-LADVI","ele":"350","services":"FM","licences":1,"ant_ids":"3203830","communication:radio":"yes","osm_mast_or_tower_within_200m":true},"geometry":{"type":"Point","coordinates":[14.4625,50.1356]}},{"type":"Feature","properties":{"name":"RAKOVNIK","ele":"355","services":"FM","licences":1,"ant_ids":"3203832","communication:radio":"yes","osm_mast_or_tower_within_200m":true},"geometry":{"type":"Point","coordinates":[13.7297,50.1086]}},{"type":"Feature","properties":{"name":"MLADA BOLESLAV 2","ele":"228","services":"FM","licences":1,"ant_ids":"3203845","communication:radio":"yes","osm_mast_or_tower_within_200m":true},"geometry":{"type":"Point","coordinates":[14.8914,50.4086]}},{"type":"Feature","properties":{"name":"LOUNY","ele":"258","services":"FM","licences":2,"ant_ids":"3203853 3284261","communication:radio":"yes","osm_mast_or_tower_within_200m":true},"geometry":{"type":"Point","coordinates":[13.7939,50.3847]}},{"type":"Feature","properties":{"name":"MELNIK","ele":"193","services":"FM","licences":1,"ant_ids":"3203854","communication:radio":"yes","osm_mast_or_tower_within_200m":false},"geometry":{"type":"Point","coordinates":[14.4958,50.3414]}},{"type":"Feature","properties":{"name":"MOST-MESTO","ele":"387","services":"FM","licences":1,"ant_ids":"3203855","communication:radio":"yes","osm_mast_or_tower_within_200m":false},"geometry":{"type":"Point","coordinates":[13.6336,50.5208]}},{"type":"Feature","properties":{"name":"TEREZIN","ele":"149","services":"FM","licences":1,"ant_ids":"3203858","communication:radio":"yes","osm_mast_or_tower_within_200m":false},"geometry":{"type":"Point","coordinates":[14.1419,50.51]}},{"type":"Feature","properties":{"name":"PRAHA-MALESICE","ele":"255","services":"FM","licences":1,"ant_ids":"3203876","communication:radio":"yes","osm_mast_or_tower_within_200m":false},"geometry":{"type":"Point","coordinates":[14.5414,50.0789]}},{"type":"Feature","properties":{"name":"MOST","ele":"380","services":"FM","licences":2,"ant_ids":"3203883 3257062","communication:radio":"yes","osm_mast_or_tower_within_200m":true},"geometry":{"type":"Point","coordinates":[13.6236,50.5164]}},{"type":"Feature","properties":{"name":"ZATEC","ele":"262","services":"FM","licences":1,"ant_ids":"3203903","communication:radio":"yes","osm_mast_or_tower_within_200m":false},"geometry":{"type":"Point","coordinates":[13.5342,50.3186]}},{"type":"Feature","properties":{"name":"PLZEN CERNICE","ele":"393","services":"FM","licences":1,"ant_ids":"3204506","communication:radio":"yes","osm_mast_or_tower_within_200m":false},"geometry":{"type":"Point","coordinates":[13.4286,49.6967]}},{"type":"Feature","properties":{"name":"BEROUN MESTSKA HORA","ele":"290","services":"FM","licences":1,"ant_ids":"3206421","communication:radio":"yes","osm_mast_or_tower_within_200m":true},"geometry":{"type":"Point","coordinates":[14.065,49.9625]}},{"type":"Feature","properties":{"name":"PRIBRAM MESTO 2","ele":"490","services":"FM","licences":1,"ant_ids":"3206427","communication:radio":"yes","osm_mast_or_tower_within_200m":false},"geometry":{"type":"Point","coordinates":[14.0078,49.6858]}},{"type":"Feature","properties":{"name":"BENESOV MESTO 3","ele":"355","services":"FM","licences":1,"ant_ids":"3206768","communication:radio":"yes","osm_mast_or_tower_within_200m":false},"geometry":{"type":"Point","coordinates":[14.6869,49.7831]}},{"type":"Feature","properties":{"name":"JICIN 1","ele":"290","services":"FM","licences":1,"ant_ids":"3206770","communication:radio":"yes","osm_mast_or_tower_within_200m":false},"geometry":{"type":"Point","coordinates":[15.3628,50.4406]}},{"type":"Feature","properties":{"name":"KOLIN","ele":"258","services":"FM","licences":1,"ant_ids":"3206772","communication:radio":"yes","osm_mast_or_tower_within_200m":false},"geometry":{"type":"Point","coordinates":[15.1964,50.0247]}},{"type":"Feature","properties":{"name":"KUTNA HORA NEMOCNICE","ele":"300","services":"FM","licences":1,"ant_ids":"3206773","communication:radio":"yes","osm_mast_or_tower_within_200m":false},"geometry":{"type":"Point","coordinates":[15.2536,49.9458]}},{"type":"Feature","properties":{"name":"MLADA BOLESLAV BRADLEC","ele":"304","services":"FM","licences":2,"ant_ids":"3206775 3251642","communication:radio":"yes","osm_mast_or_tower_within_200m":true},"geometry":{"type":"Point","coordinates":[14.9178,50.4481]}},{"type":"Feature","properties":{"name":"PRAHA UTB","ele":"269","services":"FM","licences":1,"ant_ids":"3226691","communication:radio":"yes","osm_mast_or_tower_within_200m":false},"geometry":{"type":"Point","coordinates":[14.4289,50.0397]}},{"type":"Feature","properties":{"name":"PRAHA LADVI","ele":"358","services":"DAB","licences":1,"ant_ids":"3233346","communication:radio":"yes","osm_mast_or_tower_within_200m":true},"geometry":{"type":"Point","coordinates":[14.4653,50.1364]}},{"type":"Feature","properties":{"name":"KUTNA HORA VYSOKA","ele":"469","services":"DAB","licences":1,"ant_ids":"3237850","communication:radio":"yes","osm_mast_or_tower_within_200m":true},"geometry":{"type":"Point","coordinates":[15.1897,49.9425]}},{"type":"Feature","properties":{"name":"MLADA BOLESLAV 1","ele":"280","services":"FM","licences":2,"ant_ids":"3241399 3257083","communication:radio":"yes","osm_mast_or_tower_within_200m":false},"geometry":{"type":"Point","coordinates":[14.9286,50.4447]}},{"type":"Feature","properties":{"name":"JICIN SILO","ele":"275","services":"FM","licences":2,"ant_ids":"3241405 3257044","communication:radio":"yes","osm_mast_or_tower_within_200m":false},"geometry":{"type":"Point","coordinates":[15.365,50.4247]}},{"type":"Feature","properties":{"name":"PLZEN - MESTO","ele":"718","services":"FM","licences":6,"ant_ids":"3244573 3244574 3244579 3254966 3255423 3256999","communication:radio":"yes","osm_mast_or_tower_within_200m":true},"geometry":{"type":"Point","coordinates":[13.67,49.8225]}},{"type":"Feature","properties":{"name":"MNICHOVO HRADISTE K","ele":"343","services":"FM","licences":1,"ant_ids":"3250352","communication:radio":"yes","osm_mast_or_tower_within_200m":false},"geometry":{"type":"Point","coordinates":[14.9847,50.5503]}},{"type":"Feature","properties":{"name":"PRAHA-BOHNICE / PRAHA-RADLICE","ele":"275","services":"FM","licences":2,"ant_ids":"3251133 3257022","communication:radio":"yes","osm_mast_or_tower_within_200m":false},"geometry":{"type":"Point","coordinates":[14.4172,50.1264]}},{"type":"Feature","properties":{"name":"PSARE EXIT","ele":"379","services":"FM","licences":1,"ant_ids":"3251182","communication:radio":"yes","osm_mast_or_tower_within_200m":false},"geometry":{"type":"Point","coordinates":[15.0169,49.7528]}},{"type":"Feature","properties":{"name":"BENESOV MESTO 2","ele":"347","services":"FM","licences":1,"ant_ids":"3251187","communication:radio":"yes","osm_mast_or_tower_within_200m":false},"geometry":{"type":"Point","coordinates":[14.6956,49.7886]}},{"type":"Feature","properties":{"name":"BEROUN MESTO","ele":"305","services":"FM","licences":1,"ant_ids":"3251188","communication:radio":"yes","osm_mast_or_tower_within_200m":false},"geometry":{"type":"Point","coordinates":[14.0561,49.9672]}},{"type":"Feature","properties":{"name":"PSARE EXIT","ele":"398","services":"FM","licences":1,"ant_ids":"3251189","communication:radio":"yes","osm_mast_or_tower_within_200m":true},"geometry":{"type":"Point","coordinates":[14.9428,49.775]}},{"type":"Feature","properties":{"name":"PRIBRAM MESTO","ele":"531","services":"FM","licences":3,"ant_ids":"3251191 3251196 3257034","communication:radio":"yes","osm_mast_or_tower_within_200m":false},"geometry":{"type":"Point","coordinates":[13.9833,49.6756]}},{"type":"Feature","properties":{"name":"PRIBRAM MESTO","ele":"549","services":"FM","licences":1,"ant_ids":"3251194","communication:radio":"yes","osm_mast_or_tower_within_200m":false},"geometry":{"type":"Point","coordinates":[13.985,49.6739]}},{"type":"Feature","properties":{"name":"OSTREDEK","ele":"490","services":"FM","licences":1,"ant_ids":"3251195","communication:radio":"yes","osm_mast_or_tower_within_200m":true},"geometry":{"type":"Point","coordinates":[14.8256,49.8378]}},{"type":"Feature","properties":{"name":"LIBEZNICE","ele":"260","services":"AM","licences":2,"ant_ids":"3251564 3257767","communication:radio":"yes","osm_mast_or_tower_within_200m":false},"geometry":{"type":"Point","coordinates":[14.4817,50.1856]}},{"type":"Feature","properties":{"name":"BENESOV / BENESOV MARIANOVICE / BENESOV-MARIANOVICE","ele":"409","services":"FM","licences":5,"ant_ids":"3251593 3251639 3257061 3257642 3261684","communication:radio":"yes","osm_mast_or_tower_within_200m":false},"geometry":{"type":"Point","coordinates":[14.6842,49.7644]}},{"type":"Feature","properties":{"name":"PRAHA-ZELENY PRUH","ele":"270","services":"FM","licences":1,"ant_ids":"3251627","communication:radio":"yes","osm_mast_or_tower_within_200m":false},"geometry":{"type":"Point","coordinates":[14.4317,50.0403]}},{"type":"Feature","properties":{"name":"PRIBRAM - DRAHLIN","ele":"695","services":"FM","licences":1,"ant_ids":"3253989","communication:radio":"yes","osm_mast_or_tower_within_200m":false},"geometry":{"type":"Point","coordinates":[13.9567,49.7447]}},{"type":"Feature","properties":{"name":"SEDLEC-PRCICE","ele":"717","services":"FM","licences":1,"ant_ids":"3254225","communication:radio":"yes","osm_mast_or_tower_within_200m":true},"geometry":{"type":"Point","coordinates":[14.5022,49.5433]}},{"type":"Feature","properties":{"name":"PRAHA JINONICE","ele":"365","services":"FM","licences":1,"ant_ids":"3255354","communication:radio":"yes","osm_mast_or_tower_within_200m":true},"geometry":{"type":"Point","coordinates":[14.3575,50.0597]}},{"type":"Feature","properties":{"name":"BENESOV LBOSIN","ele":"529","services":"FM","licences":1,"ant_ids":"3255500","communication:radio":"yes","osm_mast_or_tower_within_200m":true},"geometry":{"type":"Point","coordinates":[14.8256,49.7933]}},{"type":"Feature","properties":{"name":"PRAHA-MESTO","ele":"268","services":"FM","licences":1,"ant_ids":"3257018","communication:radio":"yes","osm_mast_or_tower_within_200m":false},"geometry":{"type":"Point","coordinates":[14.4742,50.0783]}},{"type":"Feature","properties":{"name":"BEROUN SUCHA LOUKA","ele":"284","services":"FM","licences":2,"ant_ids":"3257024 3265342","communication:radio":"yes","osm_mast_or_tower_within_200m":false},"geometry":{"type":"Point","coordinates":[14.0881,49.9694]}},{"type":"Feature","properties":{"name":"KUTNA HORA KANK","ele":"342","services":"FM","licences":1,"ant_ids":"3257027","communication:radio":"yes","osm_mast_or_tower_within_200m":true},"geometry":{"type":"Point","coordinates":[15.2789,49.9725]}},{"type":"Feature","properties":{"name":"PRAHA MESTO / PRAHA PANKRAC","ele":"265","services":"FM","licences":2,"ant_ids":"3257030 3257636","communication:radio":"yes","osm_mast_or_tower_within_200m":true},"geometry":{"type":"Point","coordinates":[14.4394,50.0497]}},{"type":"Feature","properties":{"name":"JICIN SILO","ele":"290","services":"FM","licences":1,"ant_ids":"3257032","communication:radio":"yes","osm_mast_or_tower_within_200m":false},"geometry":{"type":"Point","coordinates":[15.3647,50.4411]}},{"type":"Feature","properties":{"name":"KUTNA HORA KANK / KUTNA HORA-KANK","ele":"353","services":"FM","licences":2,"ant_ids":"3257040 3257082","communication:radio":"yes","osm_mast_or_tower_within_200m":true},"geometry":{"type":"Point","coordinates":[15.2789,49.9714]}},{"type":"Feature","properties":{"name":"PRAHA PETRIN","ele":"268","services":"FM","licences":1,"ant_ids":"3257060","communication:radio":"yes","osm_mast_or_tower_within_200m":false},"geometry":{"type":"Point","coordinates":[14.4722,50.0781]}},{"type":"Feature","properties":{"name":"BEROUN CENTRUM","ele":"361","services":"FM","licences":1,"ant_ids":"3283447","communication:radio":"yes","osm_mast_or_tower_within_200m":false},"geometry":{"type":"Point","coordinates":[14.0594,49.9717]}},{"type":"Feature","properties":{"name":"KLADNO","ele":"452","services":"FM","licences":1,"ant_ids":"3284243","communication:radio":"yes","osm_mast_or_tower_within_200m":true},"geometry":{"type":"Point","coordinates":[14.1036,50.1136]}},{"type":"Feature","properties":{"name":"KRALUPY","ele":"268","services":"FM","licences":1,"ant_ids":"3285548","communication:radio":"yes","osm_mast_or_tower_within_200m":true},"geometry":{"type":"Point","coordinates":[14.3158,50.2269]}},{"type":"Feature","properties":{"name":"KOZLOV","ele":"708","services":"DAB","licences":1,"ant_ids":"3289298","communication:radio":"yes","osm_mast_or_tower_within_200m":true},"geometry":{"type":"Point","coordinates":[14.4189,49.5367]}},{"type":"Feature","properties":{"name":"MLADA BOLESLAV","ele":"362","services":"DAB","licences":1,"ant_ids":"3307522","communication:radio":"yes","osm_mast_or_tower_within_200m":true},"geometry":{"type":"Point","coordinates":[14.9336,50.3897]}},{"type":"Feature","properties":{"name":"JICIN MESTO","ele":"285","services":"FM","licences":1,"ant_ids":"3314267","communication:radio":"yes","osm_mast_or_tower_within_200m":false},"geometry":{"type":"Point","coordinates":[15.3625,50.4361]}}]}