{"type":"FeatureCollection","features":[{"type":"Feature","properties":{"ref:CZ:eru":"02143_T11","name":"MVE Pokojovice","city":"Pokojovice 1","type":"vodní","fuel":"Vodní","output_mw":0.006,"osm_proposal":"power=generator generator:source=hydro","river":"Stařečskýpotok","river_km":"13.125","cadastre":"Pokojovice (638382): par. č. 33","geocode_precision":"parcel","osm_power_within_300m":false},"geometry":{"type":"Point","coordinates":[15.744462,49.220257]}},{"type":"Feature","properties":{"ref:CZ:eru":"00561_T11","name":"MVE Kleinovka","city":"Náměšť nad Oslavou","type":"vodní","fuel":"Vodní","output_mw":0.028,"osm_proposal":"power=generator generator:source=hydro","river":"Oslava","river_km":"33.23","cadastre":"Náměšť nad Oslavou (701564): st. 173/2","geocode_precision":"parcel","osm_power_within_300m":false},"geometry":{"type":"Point","coordinates":[16.1566,49.197099]}},{"type":"Feature","properties":{"ref:CZ:eru":"01465_T11","name":"MVE CHŘENOVICE","city":"Ledeč nad Sázavou","type":"vodní","fuel":"Vodní","output_mw":0.075,"osm_proposal":"power=generator generator:source=hydro","river":"Sázava","river_km":"119.7","cadastre":"Chřenovice (658014): Par. č. 903, 65/2","geocode_precision":"parcel","osm_power_within_300m":false},"geometry":{"type":"Point","coordinates":[15.195027,49.708752]}},{"type":"Feature","properties":{"ref:CZ:eru":"00813_T11","name":"Dehtáře","city":"Dehtáře","type":"vodní","fuel":"Vodní","output_mw":0.025,"osm_proposal":"power=generator generator:source=hydro","river":"Jankovskýpotok","river_km":"2.12","cadastre":"Milotice (625388): St. 14/2","geocode_precision":"parcel","osm_power_within_300m":false},"geometry":{"type":"Point","coordinates":[15.281455,49.499527]}},{"type":"Feature","properties":{"ref:CZ:eru":"01285_T11","name":"MVE OKROUHLICE","city":"Okrouhlice","type":"vodní","fuel":"Vodní","output_mw":0.085,"osm_proposal":"power=generator generator:source=hydro","river":"Sázava","river_km":"153.448","cadastre":"Okrouhlice (709654): St. 20/4","geocode_precision":"parcel","osm_power_within_300m":false},"geometry":{"type":"Point","coordinates":[15.492412,49.629206]}},{"type":"Feature","properties":{"ref:CZ:eru":"01313_T11","name":"MVE - Hamry nad Sázavou","city":"Hamry nad Sázavou","type":"vodní","fuel":"Vodní","output_mw":0.022,"osm_proposal":"power=generator generator:source=hydro","river":"Sázava","river_km":"205.75","cadastre":"Hamry nad Sázavou (637106): p.č. 16/3","geocode_precision":"parcel","osm_power_within_300m":false},"geometry":{"type":"Point","coordinates":[15.902077,49.565155]}},{"type":"Feature","properties":{"ref:CZ:eru":"02489_T11","name":"Mlýn Včelnička","city":"Včelnička","type":"vodní","fuel":"Vodní","output_mw":0.015,"osm_proposal":"power=generator generator:source=hydro","river":"Včelnička","river_km":"4.0","cadastre":"Včelnička (777391): par. č. st. 31/1","geocode_precision":"parcel","osm_power_within_300m":false},"geometry":{"type":"Point","coordinates":[15.044004,49.302123]}},{"type":"Feature","properties":{"ref:CZ:eru":"01787_T11","name":"KARBANŮV MLÝN","city":"Mezilesí","type":"vodní","fuel":"Vodní","output_mw":0.004,"osm_proposal":"power=generator generator:source=hydro","river":"Huťskýpotok","river_km":"2.8","cadastre":"Mezilesí (693669): par. č. 42/6","geocode_precision":"parcel","osm_power_within_300m":false},"geometry":{"type":"Point","coordinates":[14.946395,49.542451]}},{"type":"Feature","properties":{"ref:CZ:eru":"02631_T11","name":"Malá vodní elektrárna Krásněves","city":"Krásněves","type":"vodní","fuel":"Vodní","output_mw":0.018,"osm_proposal":"power=generator generator:source=hydro","river":"Oslava","river_km":"75.515","cadastre":"Krásněves (673773): par. č. 415/6","geocode_precision":"parcel","osm_power_within_300m":false},"geometry":{"type":"Point","coordinates":[15.963095,49.446411]}},{"type":"Feature","properties":{"ref:CZ:eru":"01821_T11","name":"MVE - HORNÍ MLÝN","city":"Chotěboř","type":"vodní","fuel":"Vodní","output_mw":0.03,"osm_proposal":"power=generator generator:source=hydro","river":"Doubrava","river_km":"66.846","cadastre":"Chotěboř (652831): par. č. 2200/2","geocode_precision":"parcel","osm_power_within_300m":false},"geometry":{"type":"Point","coordinates":[15.699642,49.720248]}},{"type":"Feature","properties":{"ref:CZ:eru":"00510_T11","name":"MVE - PETROVICE","city":"Velký Beranov","type":"vodní","fuel":"Vodní","output_mw":0.09,"osm_proposal":"power=generator generator:source=hydro","river":"Jihlava","river_km":"133.81","cadastre":"Bradlo (779466): St. 38","geocode_precision":"parcel","osm_power_within_300m":true},"geometry":{"type":"Point","coordinates":[15.662166,49.378627]}},{"type":"Feature","properties":{"ref:CZ:eru":"01677_T11","name":"Černvír","city":"Černvír","type":"vodní","fuel":"Vodní","output_mw":0.03,"osm_proposal":"power=generator generator:source=hydro","river":"Svratka","river_km":"93.9","cadastre":"Černvír (620661): p.č. 292/4","geocode_precision":"parcel","osm_power_within_300m":false},"geometry":{"type":"Point","coordinates":[16.348343,49.446565]}},{"type":"Feature","properties":{"ref:CZ:eru":"04768_T11","name":"MVE Zvole n.p.","city":"Zvole","type":"vodní","fuel":"Vodní","output_mw":0.008,"osm_proposal":"power=generator generator:source=hydro","river":"Bobrůvka","river_km":"34.06","cadastre":"Zvole nad Pernštejnem (794082): St. 121","geocode_precision":"parcel","osm_power_within_300m":false},"geometry":{"type":"Point","coordinates":[16.176243,49.492731]}},{"type":"Feature","properties":{"ref:CZ:eru":"07760_T11","name":"FVE Bystřice nad Perštejnem","city":"Bystřice nad Pernštejnem","type":"solární","fuel":"Sluneční energie","output_mw":2.4,"osm_proposal":"power=plant plant:source=solar","cadastre":"Bystřice nad Pernštejnem (616958): p.č.2958/7,13","geocode_precision":"parcel","osm_power_within_300m":true},"geometry":{"type":"Point","coordinates":[16.240714,49.514064]}},{"type":"Feature","properties":{"ref:CZ:eru":"01549_T11","name":"MVE Pohled","city":"Pohled","type":"vodní","fuel":"Vodní","output_mw":0.03,"osm_proposal":"power=generator generator:source=hydro","river":"Sázava","river_km":"171.375","cadastre":"Pohled (724645): par. č. st. 377","geocode_precision":"parcel","osm_power_within_300m":false},"geometry":{"type":"Point","coordinates":[15.654476,49.604473]}},{"type":"Feature","properties":{"ref:CZ:eru":"00276_T11","name":"Dvořákův mlýn","city":"Přibyslavice","type":"vodní","fuel":"Vodní","output_mw":0.022,"osm_proposal":"power=generator generator:source=hydro","river":"Jihlava","river_km":"114.4","cadastre":"Přibyslavice nad Jihlavou (735809): st. 69/1","geocode_precision":"parcel","osm_power_within_300m":true},"geometry":{"type":"Point","coordinates":[15.781597,49.263965]}},{"type":"Feature","properties":{"ref:CZ:eru":"09791_T11","name":"Telč","city":"Telč","type":"plynovýaspalovací","fuel":"Bioplyn","output_mw":0.668,"osm_proposal":"power=generator generator:source=biogas","cadastre":"Telč (765546): St. 2438","geocode_precision":"parcel","osm_power_within_300m":false},"geometry":{"type":"Point","coordinates":[15.473977,49.184414]}},{"type":"Feature","properties":{"ref:CZ:eru":"01356_T11","name":"MVE - DOTEX Dobrá n. S. a.s.","city":"Nová Ves u Světlé","type":"vodní","fuel":"Vodní","output_mw":0.125,"osm_proposal":"power=generator generator:source=hydro","river":"Sázava","river_km":"149.62","cadastre":"Nová Ves u Světlé nad Sázavou (705985): St. 69/1, 1665","geocode_precision":"parcel","osm_power_within_300m":true},"geometry":{"type":"Point","coordinates":[15.459586,49.645858]}},{"type":"Feature","properties":{"ref:CZ:eru":"00260_T11","name":"MVE SÁZAVA č.4","city":"Velká Losenice","type":"vodní","fuel":"Vodní","output_mw":0.03,"osm_proposal":"power=generator generator:source=hydro","river":"Sázava","river_km":"200.715","cadastre":"Sázava u Žďáru nad Sázavou (746266): par. č. 56","geocode_precision":"parcel","osm_power_within_300m":false},"geometry":{"type":"Point","coordinates":[15.852311,49.557369]}},{"type":"Feature","properties":{"ref:CZ:eru":"12482_T11","name":"MVE Radňov","city":"Pelhřimov","type":"vodní","fuel":"Vodní","output_mw":0.008,"osm_proposal":"power=generator generator:source=hydro","river":"Nemojovskýpotok","river_km":"4.0","cadastre":"Radňov u Rynárce (738158): St. 25/3","geocode_precision":"parcel","osm_power_within_300m":false},"geometry":{"type":"Point","coordinates":[15.27805,49.387506]}},{"type":"Feature","properties":{"ref:CZ:eru":"14452_T11","name":"FVE 1035 kWp - Velké Meziříčí","city":"Velké Meziříčí","type":"solární","fuel":"Sluneční energie","output_mw":1.035,"osm_proposal":"power=plant plant:source=solar","cadastre":"Velké Meziříčí (779091): par. č. 5917/21, 5868/4; Velké Meziříčí (779091): par. č. 5913/26, 5915/1","geocode_precision":"parcel","osm_power_within_300m":true},"geometry":{"type":"Point","coordinates":[16.003434,49.346239]}},{"type":"Feature","properties":{"ref:CZ:eru":"14072_T11","name":"FVE 2070 kW - Velké Meziříčí","city":"Velké Meziříčí","type":"solární","fuel":"Sluneční energie","output_mw":2.07,"osm_proposal":"power=plant plant:source=solar","cadastre":"Velké Meziříčí (779091): p.č. 5913/1, 5917/23, 5868/1; Velké Meziříčí (779091): p.č. 5914,5915/2,","geocode_precision":"parcel","osm_power_within_300m":true},"geometry":{"type":"Point","coordinates":[16.000598,49.345221]}},{"type":"Feature","properties":{"ref:CZ:eru":"15209_T11","name":"BPS Kámen","city":"Věžná","type":"plynovýaspalovací","fuel":"Bioplyn","output_mw":0.74,"osm_proposal":"power=generator generator:source=biogas","cadastre":"Brná (609897): St. 75","geocode_precision":"parcel","osm_power_within_300m":false},"geometry":{"type":"Point","coordinates":[14.983893,49.410773]}},{"type":"Feature","properties":{"ref:CZ:eru":"15317_T11","name":"Bioplynová stanice Senožaty","city":"Senožaty","type":"plynovýaspalovací","fuel":"Bioplyn","output_mw":0.96,"osm_proposal":"power=generator generator:source=biogas","cadastre":"Senožaty (747564): p.č. 628","geocode_precision":"parcel","osm_power_within_300m":false},"geometry":{"type":"Point","coordinates":[15.189243,49.564756]}},{"type":"Feature","properties":{"ref:CZ:eru":"01109_T11","name":"Malá vodní elektrárna","city":"Krásněves","type":"vodní","fuel":"Vodní","output_mw":0.012,"osm_proposal":"power=generator generator:source=hydro","river":"Oslava","river_km":"73.55","cadastre":"Krásněves (673773): St. 137","geocode_precision":"parcel","osm_power_within_300m":false},"geometry":{"type":"Point","coordinates":[15.975996,49.437287]}},{"type":"Feature","properties":{"ref:CZ:eru":"00388_T11","name":"NOVÁ CEREKEV","city":"Nová Cerekev","type":"vodní","fuel":"Vodní","output_mw":0.03,"osm_proposal":"power=generator generator:source=hydro","river":"Cerekvickýpotok","river_km":"4.4","cadastre":"Nová Cerekev (705012): St. 47","geocode_precision":"parcel","osm_power_within_300m":false},"geometry":{"type":"Point","coordinates":[15.120237,49.418293]}},{"type":"Feature","properties":{"ref:CZ:eru":"00440_T11","name":"SMRČNÁ","city":"Trpišovice","type":"vodní","fuel":"Vodní","output_mw":0.12,"osm_proposal":"power=generator generator:source=hydro","river":"Sázava","river_km":"139.5","cadastre":"Koňkovice (768791): st. 129","geocode_precision":"parcel","osm_power_within_300m":false},"geometry":{"type":"Point","coordinates":[15.351406,49.659185]}},{"type":"Feature","properties":{"ref:CZ:eru":"00525_T11","name":"JILANA a.s.","city":"Malý Beranov","type":"vodní","fuel":"Vodní","output_mw":0.035,"osm_proposal":"power=generator generator:source=hydro","river":"Jihlava","river_km":"29.77","cadastre":"Malý Beranov (691381): st. 86/1","geocode_precision":"parcel","osm_power_within_300m":false},"geometry":{"type":"Point","coordinates":[15.630831,49.399995]}},{"type":"Feature","properties":{"ref:CZ:eru":"00560_T11","name":"Martin Chadim NA PAPÍRNĚ","city":"Krahulčí","type":"vodní","fuel":"Vodní","output_mw":0.015,"osm_proposal":"power=generator generator:source=hydro","river":"Myslůvka","river_km":"9.75","cadastre":"Krahulčí u Telče (672203): st. 43/1","geocode_precision":"parcel","osm_power_within_300m":false},"geometry":{"type":"Point","coordinates":[15.389068,49.178403]}},{"type":"Feature","properties":{"ref:CZ:eru":"00771_T11","name":"MVE HORNÍ CEREKEV","city":"Horní Cerekev","type":"vodní","fuel":"Vodní","output_mw":0.03,"osm_proposal":"power=generator generator:source=hydro","river":"Jihlávka","river_km":"0.0","cadastre":"Horní Cerekev (642681): p.č. 733","geocode_precision":"parcel","osm_power_within_300m":false},"geometry":{"type":"Point","coordinates":[15.336945,49.319709]}},{"type":"Feature","properties":{"ref:CZ:eru":"00842_T11","name":"MVE OLEŠNICE","city":"Okrouhlice","type":"vodní","fuel":"Vodní","output_mw":0.006,"osm_proposal":"power=generator generator:source=hydro","river":"Lučickýpotok","river_km":"1.9","cadastre":"Olešnice u Okrouhlice (709662): St. 4, p.č. 1104/1","geocode_precision":"parcel","osm_power_within_300m":false},"geometry":{"type":"Point","coordinates":[15.488128,49.64154]}},{"type":"Feature","properties":{"ref:CZ:eru":"00677_T11","name":"MVE - GISELA","city":"Dukovany","type":"vodní","fuel":"Vodní","output_mw":0.12,"osm_proposal":"power=generator generator:source=hydro","river":"Jihlava","river_km":"55.628","cadastre":"Dukovany (633810): parc. č. 757/1; 757/2; Dukovany (633810): st. 107/1","geocode_precision":"parcel","osm_power_within_300m":false},"geometry":{"type":"Point","coordinates":[16.2126,49.099976]}},{"type":"Feature","properties":{"ref:CZ:eru":"00686_T11","name":"Nový Mlýn","city":"Náměšť nad Oslavou","type":"vodní","fuel":"Vodní","output_mw":0.044,"osm_proposal":"power=generator generator:source=hydro","river":"Oslava","river_km":"37.1","cadastre":"Jedov (658146): St. 37/1","geocode_precision":"parcel","osm_power_within_300m":false},"geometry":{"type":"Point","coordinates":[16.155711,49.217047]}},{"type":"Feature","properties":{"ref:CZ:eru":"00757_T11","name":"KRASONICE - Malův Mlýn","city":"Krasonice","type":"vodní","fuel":"Vodní","output_mw":0.013,"osm_proposal":"power=generator generator:source=hydro","river":"Želetavka","river_km":"14.13","cadastre":"Krasonice (674010): parc. č. 763","geocode_precision":"parcel","osm_power_within_300m":false},"geometry":{"type":"Point","coordinates":[15.638699,49.102747]}},{"type":"Feature","properties":{"ref:CZ:eru":"01101_T11","name":"MVE SKRYJE II","city":"Dukovany","type":"vodní","fuel":"Vodní","output_mw":0.025,"osm_proposal":"power=generator generator:source=hydro","river":"Skryjskýpotok","river_km":"0.0","cadastre":"Skryje nad Jihlavou (748854): parc. č. 2/1","geocode_precision":"parcel","osm_power_within_300m":false},"geometry":{"type":"Point","coordinates":[16.146847,49.093184]}},{"type":"Feature","properties":{"ref:CZ:eru":"01615_T11","name":"MVE - VLČETÍN","city":"Žirovnice","type":"vodní","fuel":"Vodní","output_mw":0.02,"osm_proposal":"power=generator generator:source=hydro","river":"Žirovnice","river_km":"13.38","cadastre":"Vlčetín (783625): p.č. 1123/3","geocode_precision":"parcel","osm_power_within_300m":false},"geometry":{"type":"Point","coordinates":[15.147943,49.226492]}},{"type":"Feature","properties":{"ref:CZ:eru":"02065_T11","name":"MVE BISKUPICE","city":"Biskupice-Pulkov","type":"vodní","fuel":"Vodní","output_mw":0.008,"osm_proposal":"power=generator generator:source=hydro","river":"Rokytná","river_km":"53.9","cadastre":"Biskupice u Hrotovic (604810): St. 90","geocode_precision":"parcel","osm_power_within_300m":false},"geometry":{"type":"Point","coordinates":[16.008105,49.036469]}},{"type":"Feature","properties":{"ref:CZ:eru":"01938_T11","name":"Jonášův Mlýn","city":"Velký Rybník","type":"vodní","fuel":"Vodní","output_mw":0.011,"osm_proposal":"power=generator generator:source=hydro","river":"Jankovskýpotok","river_km":"6.0","cadastre":"Velký Rybník u Humpolce (779717): p.č. 47/2","geocode_precision":"parcel","osm_power_within_300m":false},"geometry":{"type":"Point","coordinates":[15.311615,49.496283]}},{"type":"Feature","properties":{"ref:CZ:eru":"01710_T11","name":"MVE KOCHÁNOV - MARIADOL","city":"Světlá nad Sázavou","type":"vodní","fuel":"Vodní","output_mw":0.015,"osm_proposal":"power=generator generator:source=hydro","river":"Pstružnýpotok","river_km":"0.0","cadastre":"Kochánov u Lipničky (684210): p.č. 478/1","geocode_precision":"parcel","osm_power_within_300m":false},"geometry":{"type":"Point","coordinates":[15.377814,49.656878]}},{"type":"Feature","properties":{"ref:CZ:eru":"01504_T11","name":"MALÁ VODNÍ ELEKTRÁRNA SÁZAVKA","city":"Světlá nad Sázavou","type":"vodní","fuel":"Vodní","output_mw":0.012,"osm_proposal":"power=generator generator:source=hydro","river":"Sázava","river_km":"0.6","cadastre":"Světlá nad Sázavou (760510): p.č. 715/2","geocode_precision":"parcel","osm_power_within_300m":false},"geometry":{"type":"Point","coordinates":[15.409039,49.674817]}},{"type":"Feature","properties":{"ref:CZ:eru":"00657_T11","name":"Jiří Ulrich","city":"Herálec","type":"vodní","fuel":"Vodní","output_mw":0.008,"osm_proposal":"power=generator generator:source=hydro","cadastre":"Koječín (638315): l.v. 118","geocode_precision":"parcel","osm_power_within_300m":false},"geometry":{"type":"Point","coordinates":[15.481576,49.553844]}},{"type":"Feature","properties":{"ref:CZ:eru":"01611_T11","name":"MVE - Kostelní Myslová","city":"Kostelní Myslová","type":"vodní","fuel":"Vodní","output_mw":0.007,"osm_proposal":"power=generator generator:source=hydro","river":"Myslůvka","river_km":"3.8","cadastre":"Kostelní Myslová (670537): parc.č. 896","geocode_precision":"parcel","osm_power_within_300m":false},"geometry":{"type":"Point","coordinates":[15.427669,49.149614]}},{"type":"Feature","properties":{"ref:CZ:eru":"01629_T11","name":"MVE Martinice","city":"Košetice","type":"vodní","fuel":"Vodní","output_mw":0.008,"osm_proposal":"power=generator generator:source=hydro","river":"Martinickýpotok","river_km":"0.0","cadastre":"Martinice u Onšova (692140): parc.č. 6/5","geocode_precision":"parcel","osm_power_within_300m":false},"geometry":{"type":"Point","coordinates":[15.115945,49.579123]}},{"type":"Feature","properties":{"ref:CZ:eru":"01519_T11","name":"MVE Břečovský mlýn","city":"Svépravice","type":"vodní","fuel":"Vodní","output_mw":0.022,"osm_proposal":"power=generator generator:source=hydro","river":"Želivka","river_km":"66.5","cadastre":"Svépravice (760293): st. 48","geocode_precision":"parcel","osm_power_within_300m":false},"geometry":{"type":"Point","coordinates":[15.252109,49.493631]}},{"type":"Feature","properties":{"ref:CZ:eru":"01542_T11","name":"Malá vodní elektrárna, Dalečín","city":"Dalečín","type":"vodní","fuel":"Vodní","output_mw":0.035,"osm_proposal":"power=generator generator:source=hydro","river":"Svratka","river_km":"125.175","cadastre":"Dalečín (624462): parc.č. 990/1","geocode_precision":"parcel","osm_power_within_300m":false},"geometry":{"type":"Point","coordinates":[16.243989,49.590579]}},{"type":"Feature","properties":{"ref:CZ:eru":"01703_T11","name":"FRANTIŠKODOL","city":"Kochánov","type":"vodní","fuel":"Vodní","output_mw":0.011,"osm_proposal":"power=generator generator:source=hydro","river":"Pstružnýpotok","river_km":"0.3","cadastre":"Kochánov u Lipničky (684210): st. 58","geocode_precision":"parcel","osm_power_within_300m":false},"geometry":{"type":"Point","coordinates":[15.384174,49.654742]}},{"type":"Feature","properties":{"ref:CZ:eru":"01750_T11","name":"MALÁ VODNÍ ELEKTRÁRNA","city":"Hamry nad Sázavou","type":"vodní","fuel":"Vodní","output_mw":0.04,"osm_proposal":"power=generator generator:source=hydro","river":"Sázava","river_km":"16.8","cadastre":"Najdek na Moravě (637114): p.č. 382/2","geocode_precision":"parcel","osm_power_within_300m":false},"geometry":{"type":"Point","coordinates":[15.874369,49.567879]}},{"type":"Feature","properties":{"ref:CZ:eru":"01856_T11","name":"Malá vodní elektrárna Stupnik","city":"Světlá nad Sázavou","type":"vodní","fuel":"Vodní","output_mw":0.02,"osm_proposal":"power=generator generator:source=hydro","river":"Sázava","river_km":"0.0","cadastre":"Horní Bohušice (760480): l.v. 1359","geocode_precision":"parcel","osm_power_within_300m":false},"geometry":{"type":"Point","coordinates":[15.428459,49.691468]}},{"type":"Feature","properties":{"ref:CZ:eru":"12915_T11","name":"MVE Unčín","city":"Unčín","type":"vodní","fuel":"Vodní","output_mw":0.11,"osm_proposal":"power=generator generator:source=hydro","river":"Svratka","river_km":"128.0","cadastre":"Unčín (774316): St. 108","geocode_precision":"parcel","osm_power_within_300m":false},"geometry":{"type":"Point","coordinates":[16.240499,49.610267]}},{"type":"Feature","properties":{"ref:CZ:eru":"16002_T11","name":"Bioplynová stanice Kožichovice","city":"Kožichovice","type":"plynovýaspalovací","fuel":"Bioplyn","output_mw":0.637,"osm_proposal":"power=generator generator:source=biogas","cadastre":"Kožichovice (672050): parc. č. 1406/2","geocode_precision":"parcel","osm_power_within_300m":false},"geometry":{"type":"Point","coordinates":[15.917899,49.202705]}},{"type":"Feature","properties":{"ref:CZ:eru":"16005_T11","name":"Bioplynová stanice Pikárec","city":"Pikárec","type":"plynovýaspalovací","fuel":"Bioplyn","output_mw":0.888,"osm_proposal":"power=generator generator:source=biogas","cadastre":"Pikárec (698547): St. 108/1","geocode_precision":"parcel","osm_power_within_300m":false},"geometry":{"type":"Point","coordinates":[16.121341,49.437287]}},{"type":"Feature","properties":{"ref:CZ:eru":"15865_T11","name":"Bioplynová stanice Dubinka","city":"Třebíč","type":"plynovýaspalovací","fuel":"Bioplyn","output_mw":1.097,"osm_proposal":"power=plant plant:source=biogas","cadastre":"Podklášteří (769916): St. 1730","geocode_precision":"parcel","osm_power_within_300m":false},"geometry":{"type":"Point","coordinates":[15.845186,49.233597]}},{"type":"Feature","properties":{"ref:CZ:eru":"09441_T11","name":"Bioplynová stanice Lesonice","city":"Lesonice","type":"plynovýaspalovací","fuel":"Bioplyn","output_mw":0.998,"osm_proposal":"power=generator generator:source=biogas","cadastre":"Lesonice (680231): St. 215","geocode_precision":"parcel","osm_power_within_300m":false},"geometry":{"type":"Point","coordinates":[15.762519,49.10742]}},{"type":"Feature","properties":{"ref:CZ:eru":"02227_T11","name":"M V E  Bransouze 1","city":"Bransouze","type":"vodní","fuel":"Vodní","output_mw":0.06,"osm_proposal":"power=generator generator:source=hydro","river":"Jihlava","river_km":"118.5","cadastre":"Bransouze (609471): St. 37","geocode_precision":"parcel","osm_power_within_300m":false},"geometry":{"type":"Point","coordinates":[15.750586,49.302756]}},{"type":"Feature","properties":{"ref:CZ:eru":"08830_T11","name":"Náměšť nad Oslavou 2,0 MW","city":"Náměšť nad Oslavou","type":"solární","fuel":"Sluneční energie","output_mw":3.05,"osm_proposal":"power=plant plant:source=solar","cadastre":"Náměšť nad Oslavou (701564): 219/2,3,4; 220; 225/1; 1130","geocode_precision":"parcel","osm_power_within_300m":true},"geometry":{"type":"Point","coordinates":[16.168635,49.216518]}},{"type":"Feature","properties":{"ref:CZ:eru":"12912_T11","name":"FVE Pucov","city":"Pucov","type":"solární","fuel":"Sluneční energie","output_mw":1.756,"osm_proposal":"power=plant plant:source=solar","cadastre":"Pucov (736708): 661/2,13,19,47,7,48,36; Pucov (736708): 661/43,35,15,28,23,34,26; Pucov (736708): 661/16,29,24,14,27,22,18; Pucov (736708): 661/33,17,25,49,30,31,32; Pucov (736708): 661/50,46,8,45,10,44,20; Pucov (736708): 661/39,42,41,21,11,40,37; Pucov (736708): 661/9,38,12; 110/1,4,3,2; Pucov (736708): 109/1,2,3,6,5,4,7; 92/5,8; Pucov (736708): 92/6,3,7,4,2,1; 145/1,5,4; Pucov (736708): 145/3,2; 112/2,1; 111/1,2; Pucov (736708): 146/5,4,3,2,1; 147/7,6,5; Pucov (736708): 147/4,3,2,1; 106/4,3,2,1; Pucov (736708): 5110; 5119","geocode_precision":"parcel","osm_power_within_300m":false},"geometry":{"type":"Point","coordinates":[16.176964,49.249452]}},{"type":"Feature","properties":{"ref:CZ:eru":"16166_T11","name":"MVE Tasov - Papírna","city":"Tasov","type":"vodní","fuel":"Vodní","output_mw":0.045,"osm_proposal":"power=generator generator:source=hydro","river":"Oslava","river_km":"48.645","cadastre":"Tasov (765104): 6272/2","geocode_precision":"parcel","osm_power_within_300m":false},"geometry":{"type":"Point","coordinates":[16.079311,49.283947]}},{"type":"Feature","properties":{"ref:CZ:eru":"16176_T11","name":"OUDOLEŇ 100","city":"Oudoleň","type":"vodní","fuel":"Vodní","output_mw":0.008,"osm_proposal":"power=generator generator:source=hydro","river":"Oudoleňskýpotok","river_km":"2.4","cadastre":"Oudoleň (717070): St. 59/1","geocode_precision":"parcel","osm_power_within_300m":false},"geometry":{"type":"Point","coordinates":[15.756015,49.660701]}},{"type":"Feature","properties":{"ref:CZ:eru":"01982_T11","name":"Kogenerace Petrůvky","city":"Petrůvky","type":"plynovýaspalovací","fuel":"Skládkový plyn","output_mw":0.3,"osm_proposal":"power=generator generator:source=biogas","cadastre":"Petrůvky (720402): 851/2","geocode_precision":"parcel","osm_power_within_300m":false},"geometry":{"type":"Point","coordinates":[15.90132,49.167582]}},{"type":"Feature","properties":{"ref:CZ:eru":"01421_T11","name":"MVE","city":"Havlíčkův Brod","type":"vodní","fuel":"Vodní","output_mw":0.028,"osm_proposal":"power=generator generator:source=hydro","river":"Šlapánka","river_km":"1.7","cadastre":"Havlíčkův Brod (637823): St. 449/1","geocode_precision":"parcel","osm_power_within_300m":false},"geometry":{"type":"Point","coordinates":[15.59591,49.594724]}},{"type":"Feature","properties":{"ref:CZ:eru":"16914_T11","name":"BPS Puklice - Střížov","city":"Brtnice","type":"plynovýaspalovací","fuel":"Bioplyn","output_mw":0.6,"osm_proposal":"power=generator generator:source=biogas","cadastre":"Střížov (758078): 1163/2","geocode_precision":"parcel","osm_power_within_300m":false},"geometry":{"type":"Point","coordinates":[15.71186,49.343795]}},{"type":"Feature","properties":{"ref:CZ:eru":"01495_T11","name":"MVE - Pstružný potok","city":"Dolní Město","type":"vodní","fuel":"Vodní","output_mw":0.012,"osm_proposal":"power=generator generator:source=hydro","river":"Pstružnýpotok","river_km":"6.4","cadastre":"Dolní Město (629740): 2880/9","geocode_precision":"parcel","osm_power_within_300m":false},"geometry":{"type":"Point","coordinates":[15.387219,49.640054]}},{"type":"Feature","properties":{"ref:CZ:eru":"01496_T11","name":"Kulíkův mlýn","city":"Dolní Město","type":"vodní","fuel":"Vodní","output_mw":0.024,"osm_proposal":"power=generator generator:source=hydro","river":"Pstružnýpotok","river_km":"0.0","cadastre":"Dolní Město (629740): 108/2","geocode_precision":"parcel","osm_power_within_300m":false},"geometry":{"type":"Point","coordinates":[15.388018,49.61691]}},{"type":"Feature","properties":{"ref:CZ:eru":"13983_T11","name":"Fotovoltaická elektrárna Pacov","city":"Pacov","type":"solární","fuel":"Sluneční energie","output_mw":1.926,"osm_proposal":"power=plant plant:source=solar","cadastre":"Pacov (717215): 2416/6, 2416/84; Pacov (717215): 2416/86, 2416/87","geocode_precision":"parcel","osm_power_within_300m":true},"geometry":{"type":"Point","coordinates":[14.993937,49.461579]}},{"type":"Feature","properties":{"ref:CZ:eru":"01369_T11","name":"MALÁ VODNÍ ELEKTRÁRNA NA KALICHU","city":"Kamenice nad Lipou","type":"vodní","fuel":"Vodní","output_mw":0.011,"osm_proposal":"power=generator generator:source=hydro","river":"Včelnička-rybníkKalich","river_km":"0.0","cadastre":"Kamenice nad Lipou (662577):  2786","geocode_precision":"parcel","osm_power_within_300m":false},"geometry":{"type":"Point","coordinates":[15.06528,49.292905]}},{"type":"Feature","properties":{"ref:CZ:eru":"09725_T11","name":"Nová Ves u Nového Města na Moravě","city":"Nová Ves u Nového Města na Moravě","type":"plynovýaspalovací","fuel":"Bioplyn","output_mw":1.137,"osm_proposal":"power=plant plant:source=biogas","cadastre":"Nová Ves u Nového Města na Moravě (705969): 1930; 1923/3","geocode_precision":"parcel","osm_power_within_300m":false},"geometry":{"type":"Point","coordinates":[16.098869,49.541667]}},{"type":"Feature","properties":{"ref:CZ:eru":"21827_T11","name":"BPS Starý Pelhřimov","city":"Pelhřimov","type":"plynovýaspalovací","fuel":"Bioplyn","output_mw":0.37,"osm_proposal":"power=generator generator:source=biogas","cadastre":"Starý Pelhřimov (755095): St. 167","geocode_precision":"parcel","osm_power_within_300m":false},"geometry":{"type":"Point","coordinates":[15.188162,49.439633]}},{"type":"Feature","properties":{"ref:CZ:eru":"15968_T11","name":"Bioplynová stanice Černov","city":"Černov","type":"plynovýaspalovací","fuel":"Bioplyn","output_mw":1.2,"osm_proposal":"power=plant plant:source=biogas","cadastre":"Černov (620521): St. 114","geocode_precision":"parcel","osm_power_within_300m":false},"geometry":{"type":"Point","coordinates":[15.309228,49.346339]}},{"type":"Feature","properties":{"ref:CZ:eru":"15869_T11","name":"Bioplynová stanice Okrouhlice","city":"Okrouhlice","type":"plynovýaspalovací","fuel":"Bioplyn","output_mw":1.05,"osm_proposal":"power=plant plant:source=biogas","cadastre":"Vadín (709671): St. 135","geocode_precision":"parcel","osm_power_within_300m":false},"geometry":{"type":"Point","coordinates":[15.502818,49.620666]}},{"type":"Feature","properties":{"ref:CZ:eru":"04194_T11","name":"Bioplynová stanice VOD Jetřichovec","city":"Pacov","type":"plynovýaspalovací","fuel":"Bioplyn","output_mw":1.249,"osm_proposal":"power=plant plant:source=biogas","cadastre":"Jetřichovec (659207): 890/5; St. 127","geocode_precision":"parcel","osm_power_within_300m":false},"geometry":{"type":"Point","coordinates":[14.980524,49.504605]}},{"type":"Feature","properties":{"ref:CZ:eru":"02041_T11","name":"Čistírna odpadních vod","city":"Perknov","type":"plynovýaspalovací","fuel":"Kalový plyn","output_mw":0.32,"osm_proposal":"power=generator generator:source=biogas","cadastre":"Perknov (637955): St. 354","geocode_precision":"parcel","osm_power_within_300m":false},"geometry":{"type":"Point","coordinates":[15.543449,49.615677]}},{"type":"Feature","properties":{"ref:CZ:eru":"25304_T11","name":"Bioplynová stanice Výčapy","city":"Výčapy","type":"plynovýaspalovací","fuel":"Bioplyn","output_mw":1.189,"osm_proposal":"power=plant plant:source=biogas","cadastre":"Výčapy (787523): 908/4","geocode_precision":"parcel","osm_power_within_300m":false},"geometry":{"type":"Point","coordinates":[15.880275,49.139765]}},{"type":"Feature","properties":{"ref:CZ:eru":"25452_T11","name":"KGJ Bukov","city":"Bukov","type":"plynovýaspalovací","fuel":"Skládkový plyn","output_mw":0.154,"osm_proposal":"power=generator generator:source=biogas","cadastre":"Bukov na Moravě (615757): 1003/2","geocode_precision":"parcel","osm_power_within_300m":false},"geometry":{"type":"Point","coordinates":[16.229446,49.457808]}},{"type":"Feature","properties":{"ref:CZ:eru":"25454_T11","name":"KGJ Henčov","city":"Jihlava","type":"plynovýaspalovací","fuel":"Skládkový plyn","output_mw":0.204,"osm_proposal":"power=generator generator:source=biogas","cadastre":"Henčov (648680): 287/2","geocode_precision":"parcel","osm_power_within_300m":false},"geometry":{"type":"Point","coordinates":[15.650239,49.414964]}},{"type":"Feature","properties":{"ref:CZ:eru":"19625_T11","name":"BPS Havlíčkova Borová","city":"Havlíčkova Borová","type":"plynovýaspalovací","fuel":"Bioplyn","output_mw":0.99,"osm_proposal":"power=generator generator:source=biogas","cadastre":"Havlíčkova Borová (637963): 289/2","geocode_precision":"parcel","osm_power_within_300m":false},"geometry":{"type":"Point","coordinates":[15.772033,49.638265]}},{"type":"Feature","properties":{"ref:CZ:eru":"11490_T11","name":"4010 FVS Mrázek, Jívoví","city":"Jívoví","type":"solární","fuel":"Bioplyn, Sluneční energie","output_mw":0.0455,"osm_proposal":"power=generator generator:source=solar","cadastre":"Jívoví (661414): St. 182","geocode_precision":"parcel","osm_power_within_300m":false},"geometry":{"type":"Point","coordinates":[16.084987,49.407032]}},{"type":"Feature","properties":{"ref:CZ:eru":"15969_T11","name":"BPS Větrný Jeníkov","city":"Větrný Jeníkov","type":"plynovýaspalovací","fuel":"Bioplyn","output_mw":0.8,"osm_proposal":"power=generator generator:source=biogas","cadastre":"Větrný Jeníkov (781118): 431","geocode_precision":"parcel","osm_power_within_300m":true},"geometry":{"type":"Point","coordinates":[15.47156,49.478369]}},{"type":"Feature","properties":{"ref:CZ:eru":"15678_T11","name":"FVE ENERGY One","city":"Ledeč nad Sázavou","type":"solární","fuel":"Sluneční energie","output_mw":1.991,"osm_proposal":"power=plant plant:source=solar","cadastre":"Ledeč nad Sázavou (679712): 1230/42,1230/25; Ledeč nad Sázavou (679712): 2273/10","geocode_precision":"parcel","osm_power_within_300m":true},"geometry":{"type":"Point","coordinates":[15.275477,49.68256]}},{"type":"Feature","properties":{"ref:CZ:eru":"25626_T11","name":"Čistírna odpadních vod Humpolec","city":"Humpolec","type":"plynovýaspalovací","fuel":"Kalový plyn","output_mw":0.08,"osm_proposal":"power=generator generator:source=biogas","cadastre":"Humpolec (649325): St. 2225","geocode_precision":"parcel","osm_power_within_300m":false},"geometry":{"type":"Point","coordinates":[15.361883,49.557414]}},{"type":"Feature","properties":{"ref:CZ:eru":"12841_T11","name":"FVE Žďár nad Sázavou","city":"Žďár nad Sázavou","type":"solární","fuel":"Sluneční energie","output_mw":1.02,"osm_proposal":"power=plant plant:source=solar","cadastre":"Město Žďár (795232): 5406;5423;5431;5432; Město Žďár (795232): 5436;5437;5413;5414; Město Žďár (795232): 5425; 5427; 9521/13;; Město Žďár (795232): 5443/1-2; 9530; 9532; Město Žďár (795232): 9529/4","geocode_precision":"parcel","osm_power_within_300m":true},"geometry":{"type":"Point","coordinates":[15.953466,49.553384]}},{"type":"Feature","properties":{"ref:CZ:eru":"01823_T11","name":"MVE Koroužné","city":"Koroužné","type":"vodní","fuel":"Vodní","output_mw":0.041,"osm_proposal":"power=generator generator:source=hydro","river":"Svratka","river_km":"0.0","cadastre":"Koroužné (669598): St. 2","geocode_precision":"parcel","osm_power_within_300m":false},"geometry":{"type":"Point","coordinates":[16.345719,49.527043]}},{"type":"Feature","properties":{"ref:CZ:eru":"02240_T11","name":"MVE Nesměř","city":"Dolní Heřmanice","type":"vodní","fuel":"Vodní","output_mw":0.0518,"osm_proposal":"power=generator generator:source=hydro","river":"Oslava","river_km":"54.844","cadastre":"Dolní Heřmanice (629081): 566/6","geocode_precision":"parcel","osm_power_within_300m":true},"geometry":{"type":"Point","coordinates":[16.030311,49.309308]}},{"type":"Feature","properties":{"ref:CZ:eru":"01630_T11","name":"MVE Krásné","city":"Krásné","type":"vodní","fuel":"Vodní","output_mw":0.02,"osm_proposal":"power=generator generator:source=hydro","river":"Svratka","river_km":"168.0","cadastre":"Krásné nad Svratkou (673714): St. 148","geocode_precision":"parcel","osm_power_within_300m":true},"geometry":{"type":"Point","coordinates":[16.14649,49.685604]}},{"type":"Feature","properties":{"ref:CZ:eru":"15982_T11","name":"BPS Dolní Heřmanice","city":"Dolní Heřmanice","type":"plynovýaspalovací","fuel":"Bioplyn","output_mw":0.549,"osm_proposal":"power=generator generator:source=biogas","cadastre":"Dolní Heřmanice (629081): 365/2","geocode_precision":"parcel","osm_power_within_300m":false},"geometry":{"type":"Point","coordinates":[16.062247,49.298413]}},{"type":"Feature","properties":{"ref:CZ:eru":"29034_T11","name":"BPS Ždírec nad Doubravou","city":"Ždírec nad Doubravou","type":"plynovýaspalovací","fuel":"Bioplyn","output_mw":0.549,"osm_proposal":"power=generator generator:source=biogas","cadastre":"Ždírec nad Doubravou (795640): 1256","geocode_precision":"parcel","osm_power_within_300m":false},"geometry":{"type":"Point","coordinates":[15.826523,49.69759]}},{"type":"Feature","properties":{"ref:CZ:eru":"29420_T11","name":"MVE Chotěbudice","city":"Chotěbudice","type":"vodní","fuel":"Vodní","output_mw":0.0138,"osm_proposal":"power=generator generator:source=hydro","river":"Želetavka","river_km":"34.355","cadastre":"Chotěbudice (652946): St. 62","geocode_precision":"parcel","osm_power_within_300m":false},"geometry":{"type":"Point","coordinates":[15.582652,49.055971]}},{"type":"Feature","properties":{"ref:CZ:eru":"29432_T11","name":"BPS Okříšky","city":"Okříšky","type":"plynovýaspalovací","fuel":"Bioplyn","output_mw":0.549,"osm_proposal":"power=generator generator:source=biogas","cadastre":"Okříšky (709778): St. 348/1","geocode_precision":"parcel","osm_power_within_300m":false},"geometry":{"type":"Point","coordinates":[15.764378,49.240958]}},{"type":"Feature","properties":{"ref:CZ:eru":"30171_T11","name":"BPS Čáslavice","city":"Čáslavice","type":"plynovýaspalovací","fuel":"Bioplyn","output_mw":0.55,"osm_proposal":"power=generator generator:source=biogas","cadastre":"Čáslavice (618501): 209/33","geocode_precision":"parcel","osm_power_within_300m":false},"geometry":{"type":"Point","coordinates":[15.775807,49.148669]}},{"type":"Feature","properties":{"ref:CZ:eru":"08227_T11","name":"Fotovoltaická elektrárna Kamenice nad Lipou","city":"Kamenice nad Lipou","type":"solární","fuel":"Sluneční energie","output_mw":1.35,"osm_proposal":"power=plant plant:source=solar","cadastre":"Kamenice nad Lipou (662577): 493/68,493/67,494/4; Kamenice nad Lipou (662577): 496/2,496/4,495/8; Kamenice nad Lipou (662577): 493/70,494/1,495/1","geocode_precision":"parcel","osm_power_within_300m":true},"geometry":{"type":"Point","coordinates":[15.069627,49.292027]}},{"type":"Feature","properties":{"ref:CZ:eru":"30623_T11","name":"BPS Rybníček","city":"Rybníček","type":"plynovýaspalovací","fuel":"Bioplyn","output_mw":0.55,"osm_proposal":"power=generator generator:source=biogas","cadastre":"Rybníček u Habrů (743909): 773/3","geocode_precision":"parcel","osm_power_within_300m":false},"geometry":{"type":"Point","coordinates":[15.515381,49.768564]}},{"type":"Feature","properties":{"ref:CZ:eru":"06445_T11","name":"BPS Dešov","city":"Dešov","type":"plynovýaspalovací","fuel":"Bioplyn","output_mw":0.708,"osm_proposal":"power=generator generator:source=biogas","cadastre":"Velký Dešov (625728): St. 215","geocode_precision":"parcel","osm_power_within_300m":false},"geometry":{"type":"Point","coordinates":[15.708957,48.981819]}},{"type":"Feature","properties":{"ref:CZ:eru":"30720_T11","name":"Bioplynová stanice Telč","city":"Telč","type":"plynovýaspalovací","fuel":"Bioplyn","output_mw":0.25,"osm_proposal":"power=generator generator:source=biogas","cadastre":"Telč (765546): 1554/39","geocode_precision":"parcel","osm_power_within_300m":false},"geometry":{"type":"Point","coordinates":[15.439599,49.165875]}},{"type":"Feature","properties":{"ref:CZ:eru":"23683_T11","name":"BPS Černá","city":"Černá","type":"plynovýaspalovací","fuel":"Bioplyn","output_mw":0.637,"osm_proposal":"power=generator generator:source=biogas","cadastre":"Černá (619809): St. 188","geocode_precision":"parcel","osm_power_within_300m":false},"geometry":{"type":"Point","coordinates":[15.863207,49.432778]}},{"type":"Feature","properties":{"ref:CZ:eru":"25232_T11","name":"BPS Vysoké","city":"Vysoké","type":"plynovýaspalovací","fuel":"Bioplyn","output_mw":0.637,"osm_proposal":"power=generator generator:source=biogas","cadastre":"Vysoké (723207): 193/1","geocode_precision":"parcel","osm_power_within_300m":true},"geometry":{"type":"Point","coordinates":[15.967145,49.579428]}},{"type":"Feature","properties":{"ref:CZ:eru":"30978_T11","name":"BPS Lipnice","city":"Lipnice nad Sázavou","type":"plynovýaspalovací","fuel":"Bioplyn","output_mw":0.25,"osm_proposal":"power=generator generator:source=biogas","cadastre":"Lipnice nad Sázavou (684198): St. 612","geocode_precision":"parcel","osm_power_within_300m":false},"geometry":{"type":"Point","coordinates":[15.422122,49.607117]}},{"type":"Feature","properties":{"ref:CZ:eru":"02571_T11","name":"Větrná elektrárna Kámen u Habrů","city":"Kámen","type":"větrná","fuel":"Větrná","output_mw":2.0,"osm_proposal":"power=plant plant:source=wind","cadastre":"Kámen u Habrů (662381): 329/6","geocode_precision":"parcel","osm_power_within_300m":true},"geometry":{"type":"Point","coordinates":[15.506418,49.726242]}},{"type":"Feature","properties":{"ref:CZ:eru":"31198_T11","name":"MVE Chýstovice","city":"Chýstovice","type":"vodní","fuel":"Vodní","output_mw":0.018,"osm_proposal":"power=generator generator:source=hydro","river":"Martinickýpotok","river_km":"21.5","cadastre":"Chýstovice (655490): 1484/2","geocode_precision":"parcel","osm_power_within_300m":false},"geometry":{"type":"Point","coordinates":[15.085469,49.577788]}},{"type":"Feature","properties":{"ref:CZ:eru":"31396_T11","name":"BPS Batelov","city":"Batelov","type":"plynovýaspalovací","fuel":"Bioplyn","output_mw":0.55,"osm_proposal":"power=generator generator:source=biogas","cadastre":"Batelov (601144): 2158/3","geocode_precision":"parcel","osm_power_within_300m":false},"geometry":{"type":"Point","coordinates":[15.413114,49.312483]}},{"type":"Feature","properties":{"ref:CZ:eru":"31414_T11","name":"MVE Červený mlýn Petrovice u Třebíče","city":"Petrovice","type":"vodní","fuel":"Vodní","output_mw":0.08,"osm_proposal":"power=generator generator:source=hydro","river":"Jihlava","river_km":"107.2","cadastre":"Petrovice u Třebíče (720160): St. 73","geocode_precision":"parcel","osm_power_within_300m":false},"geometry":{"type":"Point","coordinates":[15.812982,49.240456]}},{"type":"Feature","properties":{"ref:CZ:eru":"31768_T11","name":"MVE U starého mlýna","city":"Maleč","type":"vodní","fuel":"Vodní","output_mw":0.0055,"osm_proposal":"power=generator generator:source=hydro","river":"Blatnickýpotok","river_km":"0.668","cadastre":"Hranice u Malče (690635): 26/1","geocode_precision":"parcel","osm_power_within_300m":false},"geometry":{"type":"Point","coordinates":[15.68766,49.763637]}},{"type":"Feature","properties":{"ref:CZ:eru":"02177_T11","name":"Červený mlýn","city":"Červená Řečice","type":"vodní","fuel":"Vodní","output_mw":0.019,"osm_proposal":"power=generator generator:source=hydro","river":"Trnava","river_km":"12.1","cadastre":"Červená Řečice (620718): st. 223, 224","geocode_precision":"parcel","osm_power_within_300m":false},"geometry":{"type":"Point","coordinates":[15.16752,49.520234]}},{"type":"Feature","properties":{"ref:CZ:eru":"01210_T11","name":"Plevnice","city":"Olešná","type":"plynovýaspalovací","fuel":"Bioplyn","output_mw":0.3,"osm_proposal":"power=generator generator:source=biogas","cadastre":"Plevnice (710237): St. 70","geocode_precision":"parcel","osm_power_within_300m":true},"geometry":{"type":"Point","coordinates":[15.282881,49.44231]}},{"type":"Feature","properties":{"ref:CZ:eru":"16139_T11","name":"Plevnice II.","city":"Olešná","type":"plynovýaspalovací","fuel":"Bioplyn","output_mw":0.35,"osm_proposal":"power=generator generator:source=biogas","cadastre":"Plevnice (710237): St. 70","geocode_precision":"parcel","osm_power_within_300m":true},"geometry":{"type":"Point","coordinates":[15.282881,49.44231]}},{"type":"Feature","properties":{"ref:CZ:eru":"01946_T11","name":"MVE Poušov","city":"Třebíč","type":"vodní","fuel":"Vodní","output_mw":0.11,"osm_proposal":"power=generator generator:source=hydro","river":"Jihlava","river_km":"100.681","cadastre":"Třebíč (769738): St. 1483/2","geocode_precision":"parcel","osm_power_within_300m":false},"geometry":{"type":"Point","coordinates":[15.857777,49.216097]}},{"type":"Feature","properties":{"ref:CZ:eru":"15428_T11","name":"FVE Komorovice","city":"Komorovice","type":"solární","fuel":"Sluneční energie","output_mw":2.354,"osm_proposal":"power=plant plant:source=solar","cadastre":"Komorovice (668851):  424/23, 424/24, 424/25; Komorovice (668851):  424/48, PK 416","geocode_precision":"parcel","osm_power_within_300m":true},"geometry":{"type":"Point","coordinates":[15.342116,49.512993]}},{"type":"Feature","properties":{"ref:CZ:eru":"30693_T11","name":"BPS Velká Bíteš","city":"Velká Bíteš","type":"plynovýaspalovací","fuel":"Biomasa, Bioplyn","output_mw":0.999,"osm_proposal":"power=generator generator:source=biogas","cadastre":"Velká Bíteš (778214): 1084/8","geocode_precision":"parcel","osm_power_within_300m":false},"geometry":{"type":"Point","coordinates":[16.231155,49.295801]}},{"type":"Feature","properties":{"ref:CZ:eru":"32094_T11","name":"VTE- 4,5kW STŘÍTEŽ","city":"Střítež","type":"větrná","fuel":"Větrná","output_mw":0.0048,"osm_proposal":"power=generator generator:source=wind","cadastre":"Střítež u Třebíče (757926): St. 244","geocode_precision":"parcel","osm_power_within_300m":false},"geometry":{"type":"Point","coordinates":[15.900019,49.190239]}},{"type":"Feature","properties":{"ref:CZ:eru":"08028_T11","name":"Bioplynová stanice středisko Radešínská Svratka","city":"Radešínská Svratka","type":"plynovýaspalovací","fuel":"Bioplyn","output_mw":0.888,"osm_proposal":"power=generator generator:source=biogas","cadastre":"Radešínská Svratka (737569): 1028/5","geocode_precision":"parcel","osm_power_within_300m":false},"geometry":{"type":"Point","coordinates":[16.092331,49.509693]}},{"type":"Feature","properties":{"ref:CZ:eru":"22944_T11","name":"BPS Plandry","city":"Plandry","type":"plynovýaspalovací","fuel":"Bioplyn","output_mw":0.8,"osm_proposal":"power=generator generator:source=biogas","cadastre":"Plandry (721409): St. 132","geocode_precision":"parcel","osm_power_within_300m":true},"geometry":{"type":"Point","coordinates":[15.529775,49.422144]}},{"type":"Feature","properties":{"ref:CZ:eru":"01743_T11","name":"MVE Ostružno","city":"Borek","type":"vodní","fuel":"Vodní","output_mw":0.0205,"osm_proposal":"power=generator generator:source=hydro","river":"Doubrava","river_km":"45.947","cadastre":"Ostružno (607550): St. 50/2","geocode_precision":"parcel","osm_power_within_300m":false},"geometry":{"type":"Point","coordinates":[15.607724,49.809202]}},{"type":"Feature","properties":{"ref:CZ:eru":"32206_T11","name":"MVE Tasov","city":"Tasov","type":"vodní","fuel":"Vodní","output_mw":0.033,"osm_proposal":"power=generator generator:source=hydro","river":"Oslava","river_km":"48.276","cadastre":"Tasov (765104): 6338","geocode_precision":"parcel","osm_power_within_300m":false},"geometry":{"type":"Point","coordinates":[16.078018,49.280873]}},{"type":"Feature","properties":{"ref:CZ:eru":"03059_T11","name":"Bioplynová stanice Lípa","city":"Lípa","type":"plynovýaspalovací","fuel":"Bioplyn","output_mw":0.549,"osm_proposal":"power=generator generator:source=biogas","cadastre":"Lípa u Havlíčkova Brodu (683906): St. 349","geocode_precision":"parcel","osm_power_within_300m":false},"geometry":{"type":"Point","coordinates":[15.545381,49.559915]}},{"type":"Feature","properties":{"ref:CZ:eru":"32239_T11","name":"MVE LIBICKÁ LHOTKA","city":"Libice nad Doubravou","type":"vodní","fuel":"Vodní","output_mw":0.0075,"osm_proposal":"power=generator generator:source=hydro","river":"Doubrava","river_km":"63.684","cadastre":"Libická Lhotka (682756): St. 27","geocode_precision":"parcel","osm_power_within_300m":false},"geometry":{"type":"Point","coordinates":[15.70636,49.737653]}},{"type":"Feature","properties":{"ref:CZ:eru":"01119_T11","name":"MVE Želivka","city":"Sedlice","type":"vodní","fuel":"Vodní","output_mw":2.16,"osm_proposal":"power=plant plant:source=hydro","river":"Želivka","river_km":"63.35","cadastre":"Sedlice u Želivi (746878): 64, 71; Vřesník (782866): 38","geocode_precision":"parcel","osm_power_within_300m":false},"geometry":{"type":"Point","coordinates":[15.258298,49.515176]}},{"type":"Feature","properties":{"ref:CZ:eru":"00836_T11","name":"MVE Rotter - Vír","city":"Vír","type":"vodní","fuel":"Vodní","output_mw":0.131,"osm_proposal":"power=generator generator:source=hydro","river":"Svratka","river_km":"114.9","cadastre":"Vír (782491): St. 2","geocode_precision":"parcel","osm_power_within_300m":false},"geometry":{"type":"Point","coordinates":[16.311998,49.56003]}},{"type":"Feature","properties":{"ref:CZ:eru":"01566_T11","name":"MVE - Květinov","city":"Květinov","type":"vodní","fuel":"Vodní","output_mw":0.0115,"osm_proposal":"power=generator generator:source=hydro","river":"Úsobskýpotok","river_km":"8.04","cadastre":"Květinov (678261): St. 96","geocode_precision":"parcel","osm_power_within_300m":false},"geometry":{"type":"Point","coordinates":[15.514665,49.562033]}},{"type":"Feature","properties":{"ref:CZ:eru":"32418_T11","name":"Poděbaby č.p.33","city":"Havlíčkův Brod","type":"vodní","fuel":"Vodní","output_mw":0.015,"osm_proposal":"power=generator generator:source=hydro","river":"Úsobskýpotok","river_km":"3.271","cadastre":"Poděbaby (723479): St. 55","geocode_precision":"parcel","osm_power_within_300m":false},"geometry":{"type":"Point","coordinates":[15.524128,49.600973]}},{"type":"Feature","properties":{"ref:CZ:eru":"00515_T11","name":"MVE Jimramov","city":"Jimramov","type":"vodní","fuel":"Vodní","output_mw":0.03,"osm_proposal":"power=generator generator:source=hydro","river":"Svratka","river_km":"132.75","cadastre":"Jimramov (660230): St. 16/4; 1249/2","geocode_precision":"parcel","osm_power_within_300m":false},"geometry":{"type":"Point","coordinates":[16.226922,49.637933]}},{"type":"Feature","properties":{"ref:CZ:eru":"15670_T11","name":"FVEVladislav","city":"Vladislav","type":"solární","fuel":"Sluneční energie","output_mw":1.259,"osm_proposal":"power=plant plant:source=solar","cadastre":"Vladislav (783234): 762/72-76","geocode_precision":"parcel","osm_power_within_300m":true},"geometry":{"type":"Point","coordinates":[15.982722,49.213334]}},{"type":"Feature","properties":{"ref:CZ:eru":"15803_T11","name":"FVE - Jaroměřice nad Rokytnou","city":"Jaroměřice nad Rokytnou","type":"solární","fuel":"Sluneční energie","output_mw":2.614,"osm_proposal":"power=plant plant:source=solar","cadastre":"Popovice nad Rokytnou (657514): 316/2, 317/1, 318/2,; Popovice nad Rokytnou (657514): 319/1, 320/2, 321/1, 322/2,; Popovice nad Rokytnou (657514): 323/1","geocode_precision":"parcel","osm_power_within_300m":true},"geometry":{"type":"Point","coordinates":[15.87255,49.09294]}},{"type":"Feature","properties":{"ref:CZ:eru":"16665_T11","name":"BPS Mohelno","city":"Mohelno","type":"plynovýaspalovací","fuel":"Bioplyn","output_mw":0.888,"osm_proposal":"power=generator generator:source=biogas","cadastre":"Mohelno (698059): 6297","geocode_precision":"parcel","osm_power_within_300m":true},"geometry":{"type":"Point","coordinates":[16.200653,49.123307]}},{"type":"Feature","properties":{"ref:CZ:eru":"01443_T11","name":"MVE - rybník Valcha Žirovnice","city":"Žirovnice","type":"vodní","fuel":"Vodní","output_mw":0.0225,"osm_proposal":"power=generator generator:source=hydro","river":"Žirovnice","river_km":"16.5","cadastre":"Žirovnice (797154):  St. 1074","geocode_precision":"parcel","osm_power_within_300m":false},"geometry":{"type":"Point","coordinates":[15.170848,49.240287]}},{"type":"Feature","properties":{"ref:CZ:eru":"01444_T11","name":"MVE - Hutní Žirovnice","city":"Žirovnice","type":"vodní","fuel":"Vodní","output_mw":0.011,"osm_proposal":"power=generator generator:source=hydro","river":"Počáteckýpotok","river_km":"0.0","cadastre":"Žirovnice (797154): St. 1216","geocode_precision":"parcel","osm_power_within_300m":false},"geometry":{"type":"Point","coordinates":[15.182478,49.250389]}},{"type":"Feature","properties":{"ref:CZ:eru":"00081_T11","name":"MVE - Jan Musil Světlá nad Sázavou","city":"Světlá nad Sázavou","type":"vodní","fuel":"Vodní","output_mw":0.06,"osm_proposal":"power=generator generator:source=hydro","river":"Sázava","river_km":"144.26","cadastre":"Světlá nad Sázavou (760510): St. 98","geocode_precision":"parcel","osm_power_within_300m":true},"geometry":{"type":"Point","coordinates":[15.405399,49.667103]}},{"type":"Feature","properties":{"ref:CZ:eru":"05848_T11","name":"BPS Ždírec","city":"Ždírec","type":"plynovýaspalovací","fuel":"Bioplyn","output_mw":0.787,"osm_proposal":"power=generator generator:source=biogas","cadastre":"Ždírec na Moravě (795607): St. 199","geocode_precision":"parcel","osm_power_within_300m":false},"geometry":{"type":"Point","coordinates":[15.677158,49.450738]}},{"type":"Feature","properties":{"ref:CZ:eru":"01926_T11","name":"ČOV Pelhřimov","city":"Pelhřimov","type":"plynovýaspalovací","fuel":"Skládkový plyn","output_mw":0.071,"osm_proposal":"power=generator generator:source=biogas","cadastre":"Pelhřimov (718912): 3222/8","geocode_precision":"parcel","osm_power_within_300m":false},"geometry":{"type":"Point","coordinates":[15.223961,49.44062]}},{"type":"Feature","properties":{"ref:CZ:eru":"00514_T11","name":"MVE Kamenice nad Lipou - rybník Zámecký","city":"Kamenice nad Lipou","type":"vodní","fuel":"Vodní","output_mw":0.01,"osm_proposal":"power=generator generator:source=hydro","river":"Kamenice","river_km":"19.8","cadastre":"Kamenice nad Lipou (662577): 3738","geocode_precision":"parcel","osm_power_within_300m":false},"geometry":{"type":"Point","coordinates":[15.080291,49.302939]}},{"type":"Feature","properties":{"ref:CZ:eru":"15433_T11","name":"BPS Poděbaby","city":"Havlíčkův Brod","type":"plynovýaspalovací","fuel":"Bioplyn","output_mw":0.62,"osm_proposal":"power=generator generator:source=biogas","cadastre":"Poděbaby (723479): St. 258, St. 259","geocode_precision":"parcel","osm_power_within_300m":false},"geometry":{"type":"Point","coordinates":[15.533271,49.600129]}},{"type":"Feature","properties":{"ref:CZ:eru":"01935_T11","name":"MVE Mostiště","city":"Velké Meziříčí","type":"vodní","fuel":"Vodní","output_mw":0.375,"osm_proposal":"power=generator generator:source=hydro","river":"Oslava","river_km":"65.948","cadastre":"Vídeň (781541): St. 105","geocode_precision":"parcel","osm_power_within_300m":true},"geometry":{"type":"Point","coordinates":[16.015525,49.394211]}},{"type":"Feature","properties":{"ref:CZ:eru":"16009_T11","name":"BPS Hrotovice","city":"Hrotovice","type":"plynovýaspalovací","fuel":"Bioplyn","output_mw":0.76,"osm_proposal":"power=generator generator:source=biogas","cadastre":"Hrotovice (648469): St. 658, 549/31","geocode_precision":"parcel","osm_power_within_300m":false},"geometry":{"type":"Point","coordinates":[16.053305,49.115449]}},{"type":"Feature","properties":{"ref:CZ:eru":"00212_T11","name":"MVE ŠVOMŮV MLÝN","city":"Radostín nad Oslavou","type":"vodní","fuel":"Vodní","output_mw":0.011,"osm_proposal":"power=generator generator:source=hydro","river":"Oslava","river_km":"78.75","cadastre":"Radostín nad Oslavou (738387): St. 113/1; 2212","geocode_precision":"parcel","osm_power_within_300m":false},"geometry":{"type":"Point","coordinates":[15.970663,49.462092]}},{"type":"Feature","properties":{"ref:CZ:eru":"02294_T11","name":"Elektrárna úpravny vody Švařec","city":"Švařec","type":"vodní","fuel":"Vodní","output_mw":0.21,"osm_proposal":"power=generator generator:source=hydro","river":"Svratka","river_km":"114.9","cadastre":"Švařec (669601): St. 67","geocode_precision":"parcel","osm_power_within_300m":false},"geometry":{"type":"Point","coordinates":[16.346714,49.524397]}},{"type":"Feature","properties":{"ref:CZ:eru":"01096_T11","name":"MVE Šlapanov","city":"Šlapanov","type":"vodní","fuel":"Vodní","output_mw":0.0445,"osm_proposal":"power=generator generator:source=hydro","river":"Šlapanka","river_km":"11.9","cadastre":"Šlapanov (762822): St. 52","geocode_precision":"parcel","osm_power_within_300m":false},"geometry":{"type":"Point","coordinates":[15.656217,49.540291]}},{"type":"Feature","properties":{"ref:CZ:eru":"02013_T11","name":"MVE PŘIBYSLAV","city":"Přibyslav","type":"vodní","fuel":"Vodní","output_mw":0.03,"osm_proposal":"power=generator generator:source=hydro","river":"Sázava","river_km":"185.245","cadastre":"Přibyslav (735698): St. 297/3","geocode_precision":"parcel","osm_power_within_300m":false},"geometry":{"type":"Point","coordinates":[15.741012,49.570755]}},{"type":"Feature","properties":{"ref:CZ:eru":"00530_T11","name":"MVE Perknov","city":"Havlíčkův Brod","type":"vodní","fuel":"Vodní","output_mw":0.045,"osm_proposal":"power=generator generator:source=hydro","river":"Sázava","river_km":"159.17","cadastre":"Perknov (637955): St. 608","geocode_precision":"parcel","osm_power_within_300m":false},"geometry":{"type":"Point","coordinates":[15.542604,49.615215]}},{"type":"Feature","properties":{"ref:CZ:eru":"01581_T11","name":"MVE Želivka","city":"Želiv","type":"vodní","fuel":"Vodní","output_mw":0.067,"osm_proposal":"power=generator generator:source=hydro","river":"Želivka","river_km":"53.64","cadastre":"Želiv (796271): St. 561/1,2","geocode_precision":"parcel","osm_power_within_300m":false},"geometry":{"type":"Point","coordinates":[15.222529,49.530816]}},{"type":"Feature","properties":{"ref:CZ:eru":"17769_T11","name":"MVE Trnávka","city":"Želiv","type":"vodní","fuel":"Vodní","output_mw":0.0485,"osm_proposal":"power=generator generator:source=hydro","river":"Trnava","river_km":"0.76","cadastre":"Želiv (796271): St. 609","geocode_precision":"parcel","osm_power_within_300m":false},"geometry":{"type":"Point","coordinates":[15.218263,49.52759]}},{"type":"Feature","properties":{"ref:CZ:eru":"21451_T11","name":"Novostavba bioplynová stanice MERYDEN v Herálci","city":"Herálec","type":"plynovýaspalovací","fuel":"Bioplyn","output_mw":0.835,"osm_proposal":"power=generator generator:source=biogas","cadastre":"Herálec (638293): St. 378; St. 385; St. 386;; Herálec (638293): St. 387","geocode_precision":"parcel","osm_power_within_300m":true},"geometry":{"type":"Point","coordinates":[15.450233,49.53119]}},{"type":"Feature","properties":{"ref:CZ:eru":"16155_T11","name":"Bioplynová stanice Krahulov","city":"Krahulov","type":"plynovýaspalovací","fuel":"Bioplyn","output_mw":1.2,"osm_proposal":"power=plant plant:source=biogas","cadastre":"Krahulov (672220): St. 148","geocode_precision":"parcel","osm_power_within_300m":false},"geometry":{"type":"Point","coordinates":[15.80904,49.215325]}},{"type":"Feature","properties":{"ref:CZ:eru":"01890_T11","name":"KOHOUTKŮV MLÝN","city":"Štěpánov nad Svratkou","type":"vodní","fuel":"Vodní","output_mw":0.0335,"osm_proposal":"power=generator generator:source=hydro","river":"Svratka","river_km":"103.0","cadastre":"Štěpánov nad Svratkou (763462): 1036/3","geocode_precision":"parcel","osm_power_within_300m":false},"geometry":{"type":"Point","coordinates":[16.341353,49.505511]}},{"type":"Feature","properties":{"ref:CZ:eru":"01631_T11","name":"Naloučanský mlýn","city":"Naloučany","type":"vodní","fuel":"Vodní","output_mw":0.022,"osm_proposal":"power=generator generator:source=hydro","river":"Oslava","river_km":"43.24","cadastre":"Naloučany (701467): 1325","geocode_precision":"parcel","osm_power_within_300m":false},"geometry":{"type":"Point","coordinates":[16.115443,49.246966]}},{"type":"Feature","properties":{"ref:CZ:eru":"15917_T11","name":"Bioplynová stanice Kámen","city":"Kámen","type":"plynovýaspalovací","fuel":"Bioplyn","output_mw":1.14,"osm_proposal":"power=plant plant:source=biogas","cadastre":"Kámen u Habrů (662381): St. 186; St. 200; St. 201","geocode_precision":"parcel","osm_power_within_300m":false},"geometry":{"type":"Point","coordinates":[15.525705,49.711899]}},{"type":"Feature","properties":{"ref:CZ:eru":"01719_T11","name":"MVE Borovnice mlýn","city":"Borovnice","type":"vodní","fuel":"Vodní","output_mw":0.03,"osm_proposal":"power=generator generator:source=hydro","river":"Svratka","river_km":"139.489","cadastre":"Borovnice u Jimramova (607886): St. 7","geocode_precision":"parcel","osm_power_within_300m":false},"geometry":{"type":"Point","coordinates":[16.20051,49.670931]}},{"type":"Feature","properties":{"ref:CZ:eru":"01185_T11","name":"MVE Knínice","city":"Knínice","type":"vodní","fuel":"Vodní","output_mw":0.015,"osm_proposal":"power=generator generator:source=hydro","river":"Želetavka","river_km":"14.5","cadastre":"Knínice (667137): 366","geocode_precision":"parcel","osm_power_within_300m":false},"geometry":{"type":"Point","coordinates":[15.604899,49.086417]}},{"type":"Feature","properties":{"ref:CZ:eru":"02058_T11","name":"MVE Sedliště TG1","city":"Jimramov","type":"vodní","fuel":"Vodní","output_mw":0.075,"osm_proposal":"power=generator generator:source=hydro","river":"Svratka","river_km":"136.482","cadastre":"Sedliště u Jimramova (660248): St. 42/1","geocode_precision":"parcel","osm_power_within_300m":true},"geometry":{"type":"Point","coordinates":[16.227176,49.648527]}},{"type":"Feature","properties":{"ref:CZ:eru":"32930_T11","name":"MVE Sedliště TG2","city":"Jimramov","type":"vodní","fuel":"Vodní","output_mw":0.0185,"osm_proposal":"power=generator generator:source=hydro","river":"Svratka","river_km":"136.482","cadastre":"Sedliště u Jimramova (660248): St. 42/6","geocode_precision":"parcel","osm_power_within_300m":true},"geometry":{"type":"Point","coordinates":[16.226851,49.648505]}},{"type":"Feature","properties":{"ref:CZ:eru":"01297_T11","name":"MVE Černíč","city":"Černíč","type":"vodní","fuel":"Vodní","output_mw":0.03,"osm_proposal":"power=generator generator:source=hydro","river":"MoravskáDyje","river_km":"31.688","cadastre":"Černíč (620131): St. 1/2; St. 81","geocode_precision":"parcel","osm_power_within_300m":true},"geometry":{"type":"Point","coordinates":[15.454166,49.127937]}},{"type":"Feature","properties":{"ref:CZ:eru":"31857_T11","name":"MVE Příštpo","city":"Příštpo","type":"vodní","fuel":"Vodní","output_mw":0.011,"osm_proposal":"power=generator generator:source=hydro","river":"Rokytná","river_km":"65.939","cadastre":"Příštpo (736317): St. 73/2","geocode_precision":"parcel","osm_power_within_300m":false},"geometry":{"type":"Point","coordinates":[15.926971,49.077851]}},{"type":"Feature","properties":{"ref:CZ:eru":"30542_T11","name":"BPS Velké Meziříčí","city":"Velké Meziříčí","type":"plynovýaspalovací","fuel":"Bioplyn","output_mw":0.999,"osm_proposal":"power=generator generator:source=biogas","cadastre":"Velké Meziříčí (779091): 5728/12","geocode_precision":"parcel","osm_power_within_300m":false},"geometry":{"type":"Point","coordinates":[15.994968,49.348259]}},{"type":"Feature","properties":{"ref:CZ:eru":"03119_T11","name":"Bioplynová stanice Kouty","city":"Kouty","type":"plynovýaspalovací","fuel":"Bioplyn","output_mw":0.75,"osm_proposal":"power=generator generator:source=biogas","cadastre":"Kouty u Třebíče (671274): St. 191","geocode_precision":"parcel","osm_power_within_300m":false},"geometry":{"type":"Point","coordinates":[15.798106,49.314272]}},{"type":"Feature","properties":{"ref:CZ:eru":"33154_T11","name":"MVE Břevnice","city":"Břevnice","type":"vodní","fuel":"Vodní","output_mw":0.019,"osm_proposal":"power=generator generator:source=hydro","river":"Břevnickýpotok","river_km":"3.9","cadastre":"Břevnice (613843): St. 112","geocode_precision":"parcel","osm_power_within_300m":false},"geometry":{"type":"Point","coordinates":[15.614457,49.632708]}},{"type":"Feature","properties":{"ref:CZ:eru":"15923_T11","name":"Bioplynová stanice - Příložany","city":"Jaroměřice nad Rokytnou","type":"plynovýaspalovací","fuel":"Bioplyn","output_mw":0.366,"osm_proposal":"power=generator generator:source=biogas","cadastre":"Příložany (736066): 329/37","geocode_precision":"parcel","osm_power_within_300m":false},"geometry":{"type":"Point","coordinates":[15.939801,49.104551]}},{"type":"Feature","properties":{"ref:CZ:eru":"01758_T11","name":"MVE ŘÍPOV","city":"Třebíč","type":"vodní","fuel":"Vodní","output_mw":0.02,"osm_proposal":"power=generator generator:source=hydro","river":"Jihlava","river_km":"101.533","cadastre":"Řípov (769886): St. 22","geocode_precision":"parcel","osm_power_within_300m":false},"geometry":{"type":"Point","coordinates":[15.848667,49.2164]}},{"type":"Feature","properties":{"ref:CZ:eru":"10810_T11","name":"Bioplynová stanice FADOM","city":"Dolní Město","type":"plynovýaspalovací","fuel":"Bioplyn","output_mw":1.14,"osm_proposal":"power=plant plant:source=biogas","cadastre":"Dolní Město (629740): St. 440","geocode_precision":"parcel","osm_power_within_300m":false},"geometry":{"type":"Point","coordinates":[15.374137,49.636127]}},{"type":"Feature","properties":{"ref:CZ:eru":"29418_T11","name":"BPSRadňov","city":"Květinov","type":"plynovýaspalovací","fuel":"Bioplyn","output_mw":0.25,"osm_proposal":"power=generator generator:source=biogas","cadastre":"Radňov u Květinova (738166): St. 79","geocode_precision":"parcel","osm_power_within_300m":false},"geometry":{"type":"Point","coordinates":[15.496798,49.553737]}},{"type":"Feature","properties":{"ref:CZ:eru":"00140_T11","name":"MVE RADOSTÍN NAD OSLAVOU","city":"Radostín nad Oslavou","type":"vodní","fuel":"Vodní","output_mw":0.011,"osm_proposal":"power=generator generator:source=hydro","river":"Oslava","river_km":"87.5","cadastre":"Radostín nad Oslavou (738387): St. 301/1","geocode_precision":"parcel","osm_power_within_300m":false},"geometry":{"type":"Point","coordinates":[15.968512,49.459248]}},{"type":"Feature","properties":{"ref:CZ:eru":"01217_T11","name":"MVE Malý Mlýnek","city":"Světlá nad Sázavou","type":"vodní","fuel":"Vodní","output_mw":0.037,"osm_proposal":"power=generator generator:source=hydro","river":"Pstružnýpotok","river_km":"2.0","cadastre":"Radostovice u Lipničky (684236): St. 2/1","geocode_precision":"parcel","osm_power_within_300m":false},"geometry":{"type":"Point","coordinates":[15.385063,49.645872]}},{"type":"Feature","properties":{"ref:CZ:eru":"05522_T11","name":"FVE Křižanov","city":"Křižanov","type":"solární","fuel":"Sluneční energie","output_mw":1.031,"osm_proposal":"power=plant plant:source=solar","cadastre":"Křižanov (676454): 284, 283, 293","geocode_precision":"parcel","osm_power_within_300m":true},"geometry":{"type":"Point","coordinates":[16.1166,49.397712]}},{"type":"Feature","properties":{"ref:CZ:eru":"16425_T11","name":"Zemědělská bioplynová stanice Žatec","city":"Žatec","type":"plynovýaspalovací","fuel":"Bioplyn","output_mw":2.378,"osm_proposal":"power=plant plant:source=biogas","cadastre":"Žatec na Moravě (794945): St. 89; St. 90; St. 91","geocode_precision":"parcel","osm_power_within_300m":false},"geometry":{"type":"Point","coordinates":[15.500737,49.203766]}},{"type":"Feature","properties":{"ref:CZ:eru":"01140_T11","name":"MVE ČS RANTÍŘOV","city":"Rantířov","type":"vodní","fuel":"Vodní","output_mw":0.015,"osm_proposal":"power=generator generator:source=hydro","cadastre":"Rantířov (739316):  151/1","geocode_precision":"parcel","osm_power_within_300m":false},"geometry":{"type":"Point","coordinates":[15.513134,49.402145]}},{"type":"Feature","properties":{"ref:CZ:eru":"10261_T11","name":"Bioplynová stanice Budišov","city":"Budišov","type":"plynovýaspalovací","fuel":"Bioplyn","output_mw":1.0,"osm_proposal":"power=plant plant:source=biogas","cadastre":"Budišov (615463): St. 711; 1333/55","geocode_precision":"parcel","osm_power_within_300m":false},"geometry":{"type":"Point","coordinates":[16.002568,49.264482]}},{"type":"Feature","properties":{"ref:CZ:eru":"22031_T11","name":"Bioplynová stanice Hodov","city":"Hodov","type":"plynovýaspalovací","fuel":"Bioplyn","output_mw":0.75,"osm_proposal":"power=generator generator:source=biogas","cadastre":"Hodov (640611): St. 182","geocode_precision":"parcel","osm_power_within_300m":false},"geometry":{"type":"Point","coordinates":[15.985145,49.291683]}},{"type":"Feature","properties":{"ref:CZ:eru":"00688_T11","name":"Kamenný mlýn","city":"Malý Beranov","type":"vodní","fuel":"Vodní","output_mw":0.0185,"osm_proposal":"power=generator generator:source=hydro","river":"Jihlava","river_km":"136.496","cadastre":"Malý Beranov (691381): St. 333","geocode_precision":"parcel","osm_power_within_300m":true},"geometry":{"type":"Point","coordinates":[15.641295,49.394144]}},{"type":"Feature","properties":{"ref:CZ:eru":"00513_T11","name":"MVE Tasov","city":"Tasov","type":"vodní","fuel":"Vodní","output_mw":0.03,"osm_proposal":"power=generator generator:source=hydro","river":"Oslava","river_km":"49.49","cadastre":"Tasov (765104): 6264","geocode_precision":"parcel","osm_power_within_300m":false},"geometry":{"type":"Point","coordinates":[16.077354,49.287931]}},{"type":"Feature","properties":{"ref:CZ:eru":"07806_T11","name":"FVE Telč","city":"Telč","type":"solární","fuel":"Sluneční energie","output_mw":1.0332,"osm_proposal":"power=plant plant:source=solar","cadastre":"Telč (765546): 5920/30, 24, 13, 4, 3;; Telč (765546): St. 1049; St. 1366; St. 1369; Telč (765546): St. 2207; St. 2445; Telč (765546): St. 1904; St. 1905; St. 2055","geocode_precision":"parcel","osm_power_within_300m":true},"geometry":{"type":"Point","coordinates":[15.47232,49.189285]}},{"type":"Feature","properties":{"ref:CZ:eru":"02043_T11","name":"MVE TÁBORSKÝ MLÝN PTÁČOV","city":"Třebíč","type":"vodní","fuel":"Vodní","output_mw":0.02,"osm_proposal":"power=generator generator:source=hydro","river":"Jihlava","river_km":"93.076","cadastre":"Ptáčov (736562): st. 38/2","geocode_precision":"parcel","osm_power_within_300m":false},"geometry":{"type":"Point","coordinates":[15.929958,49.21425]}},{"type":"Feature","properties":{"ref:CZ:eru":"00245_T11","name":"Bývalý mlýn, Záhoří č. 26, okr. Pelhřimov","city":"p. Humpolec","type":"vodní","fuel":"Vodní","output_mw":0.015,"osm_proposal":"power=generator generator:source=hydro","river":"Jankovskýpotok","river_km":"6.2","cadastre":"Záhoří u Humpolce (789950): St. 39/1","geocode_precision":"parcel","osm_power_within_300m":false},"geometry":{"type":"Point","coordinates":[15.322664,49.494823]}},{"type":"Feature","properties":{"ref:CZ:eru":"02122_T11","name":"Energocentrum BPS","city":"Vladislav","type":"plynovýaspalovací","fuel":"Bioplyn","output_mw":0.3,"osm_proposal":"power=generator generator:source=biogas","cadastre":"Vladislav (783234): St. 82","geocode_precision":"parcel","osm_power_within_300m":false},"geometry":{"type":"Point","coordinates":[15.997543,49.20717]}},{"type":"Feature","properties":{"ref:CZ:eru":"02134_T11","name":"Mohelský mlýn","city":"Mohelno","type":"vodní","fuel":"Vodní","output_mw":0.077,"osm_proposal":"power=generator generator:source=hydro","river":"Jihlava","river_km":"57.95","cadastre":"Mohelno (698059): St. 218, St.  219","geocode_precision":"parcel","osm_power_within_300m":false},"geometry":{"type":"Point","coordinates":[16.189337,49.10291]}},{"type":"Feature","properties":{"ref:CZ:eru":"01978_T11","name":"MVE Petrovice - Rezkův mlýn","city":"Okříšky","type":"vodní","fuel":"Vodní","output_mw":0.018,"osm_proposal":"power=generator generator:source=hydro","river":"Jihlava","river_km":"108.981","cadastre":"Petrovice u Třebíče (720160): st. 72","geocode_precision":"parcel","osm_power_within_300m":false},"geometry":{"type":"Point","coordinates":[15.791869,49.245705]}},{"type":"Feature","properties":{"ref:CZ:eru":"00828_T11","name":"MVE Vladislav","city":"Vladislav","type":"vodní","fuel":"Vodní","output_mw":0.055,"osm_proposal":"power=generator generator:source=hydro","river":"Jihlava","river_km":"90.136","cadastre":"Vladislav (783234): st. 91/3","geocode_precision":"parcel","osm_power_within_300m":false},"geometry":{"type":"Point","coordinates":[15.974216,49.211721]}},{"type":"Feature","properties":{"ref:CZ:eru":"01539_T11","name":"MVE Bouzek","city":"Telč","type":"vodní","fuel":"Vodní","output_mw":0.015,"osm_proposal":"power=generator generator:source=hydro","river":"Telčskýpotok","river_km":"0.3","cadastre":"Telč (765546):  7428/1","geocode_precision":"parcel","osm_power_within_300m":false},"geometry":{"type":"Point","coordinates":[15.470626,49.16346]}},{"type":"Feature","properties":{"ref:CZ:eru":"30368_T11","name":"Bioplynová stanice Uhelná Příbram","city":"Uhelná Příbram","type":"plynovýaspalovací","fuel":"Bioplyn","output_mw":0.549,"osm_proposal":"power=generator generator:source=biogas","cadastre":"Uhelná Příbram (772763): St. 285","geocode_precision":"parcel","osm_power_within_300m":false},"geometry":{"type":"Point","coordinates":[15.592647,49.772593]}},{"type":"Feature","properties":{"ref:CZ:eru":"01013_T11","name":"Malá vodní elektrárna, Sázava","city":"Sázava","type":"vodní","fuel":"Vodní","output_mw":0.03,"osm_proposal":"power=generator generator:source=hydro","river":"Sázava","river_km":"0.0","cadastre":"Sázava u Žďáru nad Sázavou (746266): 3/1","geocode_precision":"parcel","osm_power_within_300m":false},"geometry":{"type":"Point","coordinates":[15.850295,49.555674]}},{"type":"Feature","properties":{"ref:CZ:eru":"01209_T11","name":"MVE KRASÍKOVICE - MLÝN ROŽKOV","city":"Krasíkovice","type":"vodní","fuel":"Vodní","output_mw":0.0055,"osm_proposal":"power=generator generator:source=hydro","river":"Hejlovka","river_km":"74.5","cadastre":"Krasíkovice (673218): St. 25","geocode_precision":"parcel","osm_power_within_300m":false},"geometry":{"type":"Point","coordinates":[15.220905,49.4703]}},{"type":"Feature","properties":{"ref:CZ:eru":"19572_T11","name":"BPS Puchýrna","city":"Třešť","type":"plynovýaspalovací","fuel":"Bioplyn","output_mw":0.249,"osm_proposal":"power=generator generator:source=biogas","cadastre":"Třešť (770761): 3683","geocode_precision":"parcel","osm_power_within_300m":false},"geometry":{"type":"Point","coordinates":[15.475404,49.3152]}},{"type":"Feature","properties":{"ref:CZ:eru":"14559_T11","name":"FVE Svatoslav 1,23 MW","city":"Svatoslav","type":"solární","fuel":"Sluneční energie","output_mw":1.231,"osm_proposal":"power=plant plant:source=solar","cadastre":"Svatoslav u Třebíče (760111): 1173/61,62; 2625/4","geocode_precision":"parcel","osm_power_within_300m":true},"geometry":{"type":"Point","coordinates":[15.871464,49.321146]}},{"type":"Feature","properties":{"ref:CZ:eru":"00824_T11","name":"MVE Buková - Červený mlýn","city":"Nížkov","type":"vodní","fuel":"Vodní","output_mw":0.015,"osm_proposal":"power=generator generator:source=hydro","river":"Sázava","river_km":"192.295","cadastre":"Buková u Nížkova (704717): St. 32","geocode_precision":"parcel","osm_power_within_300m":false},"geometry":{"type":"Point","coordinates":[15.800781,49.556412]}},{"type":"Feature","properties":{"ref:CZ:eru":"01488_T11","name":"MVE KONVALINKŮV JEZ","city":"Luka nad Jihlavou","type":"vodní","fuel":"Vodní","output_mw":0.055,"osm_proposal":"power=generator generator:source=hydro","river":"Jihlava","river_km":"131.39","cadastre":"Luka nad Jihlavou (688703): St. 943","geocode_precision":"parcel","osm_power_within_300m":false},"geometry":{"type":"Point","coordinates":[15.691777,49.372629]}},{"type":"Feature","properties":{"ref:CZ:eru":"35300_T11","name":"KS Fadom","city":"Dolní Město","type":"plynovýaspalovací","fuel":"Bioplyn","output_mw":1.0,"osm_proposal":"power=plant plant:source=biogas","cadastre":"Dolní Město (629740): 2644/14","geocode_precision":"parcel","osm_power_within_300m":false},"geometry":{"type":"Point","coordinates":[15.37367,49.635934]}},{"type":"Feature","properties":{"ref:CZ:eru":"22597_T11","name":"BPS Klučov","city":"Klučov","type":"plynovýaspalovací","fuel":"Bioplyn","output_mw":0.56,"osm_proposal":"power=generator generator:source=biogas","cadastre":"Lipník u Hrotovic (684252): 307/65","geocode_precision":"parcel","osm_power_within_300m":false},"geometry":{"type":"Point","coordinates":[15.940056,49.151319]}},{"type":"Feature","properties":{"ref:CZ:eru":"04241_T11","name":"Bioplynová stanice Křižanov","city":"Křižanov","type":"plynovýaspalovací","fuel":"Bioplyn","output_mw":0.727,"osm_proposal":"power=generator generator:source=biogas","cadastre":"Křižanov (676454): 1390/52; St. 576/4","geocode_precision":"parcel","osm_power_within_300m":false},"geometry":{"type":"Point","coordinates":[16.105081,49.378062]}},{"type":"Feature","properties":{"ref:CZ:eru":"34166_T11","name":"FVE Bosch Powertrain","city":"Jihlava","type":"solární","fuel":"Sluneční energie","output_mw":1.808,"osm_proposal":"power=plant plant:source=solar","cadastre":"Pávov (659916): 508/32; 475/9; 465/1","geocode_precision":"parcel","osm_power_within_300m":false},"geometry":{"type":"Point","coordinates":[15.615172,49.443179]}},{"type":"Feature","properties":{"ref:CZ:eru":"36036_T11","name":"Česká Bělá FVE","city":"Česká Bělá","type":"solární","fuel":"Sluneční energie","output_mw":1.9991,"osm_proposal":"power=plant plant:source=solar","cadastre":"Česká Bělá (621242): 315/1","geocode_precision":"parcel","osm_power_within_300m":true},"geometry":{"type":"Point","coordinates":[15.700928,49.641602]}},{"type":"Feature","properties":{"ref:CZ:eru":"36044_T11","name":"E blok SEPOS Jihlava","city":"Jihlava","type":"plynovýaspalovací","fuel":"Dřevoplyn","output_mw":0.075,"osm_proposal":"power=generator generator:source=biogas","cadastre":"Horní Kosov (643084): 778/1","geocode_precision":"parcel","osm_power_within_300m":false},"geometry":{"type":"Point","coordinates":[15.547972,49.403218]}},{"type":"Feature","properties":{"ref:CZ:eru":"00485_T11","name":"MVE Skryjský potok","city":"Dukovany","type":"vodní","fuel":"Vodní","output_mw":0.16,"osm_proposal":"power=generator generator:source=hydro","river":"Skryjskýpotok","river_km":"0.69","cadastre":"Skryje nad Jihlavou (748854): St. 176","geocode_precision":"parcel","osm_power_within_300m":false},"geometry":{"type":"Point","coordinates":[16.152145,49.093682]}},{"type":"Feature","properties":{"ref:CZ:eru":"00749_T11","name":"elektrárna mlýn Bítovčice","city":"Bítovčice","type":"vodní","fuel":"Vodní","output_mw":0.022,"osm_proposal":"power=generator generator:source=hydro","river":"Jihlava","river_km":"127.89","cadastre":"Dolní Bítovčice (604917): St. 1/1","geocode_precision":"parcel","osm_power_within_300m":false},"geometry":{"type":"Point","coordinates":[15.734661,49.365475]}},{"type":"Feature","properties":{"ref:CZ:eru":"36578_T11","name":"MVE Koroužné č.p.11","city":"Koroužné","type":"vodní","fuel":"Vodní","output_mw":0.015,"osm_proposal":"power=generator generator:source=hydro","river":"Svratka","river_km":"108.2","cadastre":"Koroužné (669598): 433/1","geocode_precision":"parcel","osm_power_within_300m":false},"geometry":{"type":"Point","coordinates":[16.352646,49.532224]}},{"type":"Feature","properties":{"ref:CZ:eru":"00165_T11","name":"MVE - Najdek","city":"Hamry nad Sázavou","type":"vodní","fuel":"Vodní","output_mw":0.022,"osm_proposal":"power=generator generator:source=hydro","river":"Sázava","river_km":"203.565","cadastre":"Najdek na Moravě (637114): 111/5","geocode_precision":"parcel","osm_power_within_300m":false},"geometry":{"type":"Point","coordinates":[15.889462,49.566751]}},{"type":"Feature","properties":{"ref:CZ:eru":"36746_T11","name":"MVE Švařec - Záskalí","city":"Koroužné","type":"vodní","fuel":"Vodní","output_mw":0.02,"osm_proposal":"power=generator generator:source=hydro","river":"Svratka","river_km":"105.71","cadastre":"Švařec (669601): 431/3; 436/1, 3; 440/1;; Švařec (669601): 442/2;","geocode_precision":"parcel","osm_power_within_300m":false},"geometry":{"type":"Point","coordinates":[16.341934,49.517977]}},{"type":"Feature","properties":{"ref:CZ:eru":"36878_T11","name":"FVE Lažínky","city":"Moravské Budějovice","type":"solární","fuel":"Sluneční energie","output_mw":3.8544,"osm_proposal":"power=plant plant:source=solar","cadastre":"Lažínky (780456): 161/2","geocode_precision":"parcel","osm_power_within_300m":true},"geometry":{"type":"Point","coordinates":[15.831396,49.033406]}},{"type":"Feature","properties":{"ref:CZ:eru":"37000_T11","name":"MVE STARÝ","city":"Bobrová","type":"vodní","fuel":"Vodní","output_mw":0.0175,"osm_proposal":"power=generator generator:source=hydro","river":"Bobrůvka","river_km":"45.12","cadastre":"Horní Bobrová (605867): 3101","geocode_precision":"parcel","osm_power_within_300m":false},"geometry":{"type":"Point","coordinates":[16.08864,49.487669]}},{"type":"Feature","properties":{"ref:CZ:eru":"01988_T11","name":"Vodní elektrárna Vír I","city":"Vír","type":"vodní","fuel":"Vodní","output_mw":7.64,"osm_proposal":"power=plant plant:source=hydro","river":"Svratka","river_km":"114.9","cadastre":"Vír (782491): St. 361; Karasín (794970): St. 81","geocode_precision":"parcel","osm_power_within_300m":true},"geometry":{"type":"Point","coordinates":[16.309331,49.564099]}},{"type":"Feature","properties":{"ref:CZ:eru":"01989_T11","name":"Vodní elektrárna Vír II","city":"Vír","type":"vodní","fuel":"Vodní","output_mw":0.81,"osm_proposal":"power=generator generator:source=hydro","river":"Svratka","river_km":"111.6","cadastre":"Vír (782491): St. 171","geocode_precision":"parcel","osm_power_within_300m":true},"geometry":{"type":"Point","coordinates":[16.338876,49.544413]}},{"type":"Feature","properties":{"ref:CZ:eru":"00549_T11","name":"MVE Skryje","city":"Dukovany","type":"vodní","fuel":"Vodní","output_mw":0.15,"osm_proposal":"power=generator generator:source=hydro","river":"Skryjskýpotok","river_km":"0.002","cadastre":"Dukovany (633810): St. 527","geocode_precision":"parcel","osm_power_within_300m":false},"geometry":{"type":"Point","coordinates":[16.151576,49.096867]}},{"type":"Feature","properties":{"ref:CZ:eru":"37748_T11","name":"MVE Holův Mlýn","city":"Jihlava","type":"vodní","fuel":"Vodní","output_mw":0.022,"osm_proposal":"power=generator generator:source=hydro","river":"JIhlava","river_km":"138.41","cadastre":"Helenín (659827): 377","geocode_precision":"parcel","osm_power_within_300m":false},"geometry":{"type":"Point","coordinates":[15.635441,49.405295]}},{"type":"Feature","properties":{"ref:CZ:eru":"01541_T11","name":"Mlýn Jimramovské Paseky","city":"Nový Jimramov","type":"vodní","fuel":"Vodní","output_mw":0.018,"osm_proposal":"power=generator generator:source=hydro","river":"Fryšávka","river_km":"6.75","cadastre":"Nový Jimramov (707597): St. 74, St. 75","geocode_precision":"parcel","osm_power_within_300m":false},"geometry":{"type":"Point","coordinates":[16.163584,49.645189]}},{"type":"Feature","properties":{"ref:CZ:eru":"30112_T11","name":"BPS Dolní Lhotka","city":"Maleč","type":"plynovýaspalovací","fuel":"Bioplyn","output_mw":0.2,"osm_proposal":"power=generator generator:source=biogas","cadastre":"Horní Lhotka (690627): St. 61","geocode_precision":"parcel","osm_power_within_300m":false},"geometry":{"type":"Point","coordinates":[15.671193,49.778778]}},{"type":"Feature","properties":{"ref:CZ:eru":"00422_T11","name":"mve brd.mlýn","city":"Hamry nad Sázavou","type":"vodní","fuel":"Vodní","output_mw":0.03,"osm_proposal":"power=generator generator:source=hydro","river":"Sázava","river_km":"202.28","cadastre":"Najdek na Moravě (637114): 396/3","geocode_precision":"parcel","osm_power_within_300m":false},"geometry":{"type":"Point","coordinates":[15.87811,49.56636]}},{"type":"Feature","properties":{"ref:CZ:eru":"15899_T11","name":"BPS Vysoké Studnice","city":"Vysoké Studnice","type":"plynovýaspalovací","fuel":"Bioplyn","output_mw":0.955,"osm_proposal":"power=generator generator:source=biogas","cadastre":"Vysoké Studnice (788333): 598/1; 598/9","geocode_precision":"parcel","osm_power_within_300m":false},"geometry":{"type":"Point","coordinates":[15.725159,49.390837]}},{"type":"Feature","properties":{"ref:CZ:eru":"01614_T11","name":"MVE Daniel Homolka","city":"Třebíč","type":"vodní","fuel":"Vodní","output_mw":0.055,"osm_proposal":"power=generator generator:source=hydro","river":"Jihlava","river_km":"97.062","cadastre":"Třebíč (769738): St. 167/1; St. 167/4; 1526/3","geocode_precision":"parcel","osm_power_within_300m":false},"geometry":{"type":"Point","coordinates":[15.886865,49.214764]}},{"type":"Feature","properties":{"ref:CZ:eru":"30069_T11","name":"Bioplynová stanice Valeč","city":"Valeč","type":"plynovýaspalovací","fuel":"Bioplyn","output_mw":0.549,"osm_proposal":"power=generator generator:source=biogas","cadastre":"Valeč u Hrotovic (776599): St. 413","geocode_precision":"parcel","osm_power_within_300m":false},"geometry":{"type":"Point","coordinates":[16.044147,49.143648]}},{"type":"Feature","properties":{"ref:CZ:eru":"14505_T11","name":"Bioplynová stanice Dobronín","city":"Dobronín","type":"plynovýaspalovací","fuel":"Bioplyn","output_mw":0.62,"osm_proposal":"power=generator generator:source=biogas","cadastre":"Dobronín (627402): st. 397","geocode_precision":"parcel","osm_power_within_300m":false},"geometry":{"type":"Point","coordinates":[15.662538,49.469055]}},{"type":"Feature","properties":{"ref:CZ:eru":"39047_T11","name":"FVE OSMA","city":"Komorovice","type":"solární","fuel":"Sluneční energie","output_mw":1.2722,"osm_proposal":"power=plant plant:source=solar","cadastre":"Komorovice (668851): st. 260/1; 327/1, 3;; Komorovice (668851): 328/1; 341/3;","geocode_precision":"parcel","osm_power_within_300m":false},"geometry":{"type":"Point","coordinates":[15.344696,49.505425]}},{"type":"Feature","properties":{"ref:CZ:eru":"36593_T11","name":"FVE AGROSTROJ","city":"Pelhřimov","type":"solární","fuel":"Sluneční energie","output_mw":3.1914,"osm_proposal":"power=plant plant:source=solar","cadastre":"Pelhřimov (718912): 2450/7, 2450/17, 2450/47; Pelhřimov (718912): 2450/66, 2450/71, 2450/72; Pelhřimov (718912): 2453, 2655/8, 2673/93; Pelhřimov (718912): 2673/154, 2673/155","geocode_precision":"parcel","osm_power_within_300m":false},"geometry":{"type":"Point","coordinates":[15.2156,49.414124]}},{"type":"Feature","properties":{"ref:CZ:eru":"21669_T11","name":"BIOPLYNOVÁ STANICE Valečov","city":"Okrouhlice","type":"plynovýaspalovací","fuel":"Bioplyn","output_mw":1.0,"osm_proposal":"power=plant plant:source=biogas","cadastre":"Olešnice u Okrouhlice (709662): St. 115","geocode_precision":"parcel","osm_power_within_300m":false},"geometry":{"type":"Point","coordinates":[15.498489,49.645753]}},{"type":"Feature","properties":{"ref:CZ:eru":"23976_T11","name":"BPS Keřkov","city":"Přibyslav","type":"plynovýaspalovací","fuel":"Bioplyn","output_mw":1.0,"osm_proposal":"power=plant plant:source=biogas","cadastre":"Dobrá (626961): St. 97/2","geocode_precision":"parcel","osm_power_within_300m":false},"geometry":{"type":"Point","coordinates":[15.716275,49.588508]}},{"type":"Feature","properties":{"ref:CZ:eru":"13548_T11","name":"BPS Slavíkov","city":"Slavíkov","type":"plynovýaspalovací","fuel":"Bioplyn","output_mw":0.744,"osm_proposal":"power=generator generator:source=biogas","cadastre":"Slavíkov u Chotěboře (750166): St. 166","geocode_precision":"parcel","osm_power_within_300m":false},"geometry":{"type":"Point","coordinates":[15.785669,49.743172]}},{"type":"Feature","properties":{"ref:CZ:eru":"00505_T11","name":"Pekárkův mlýn","city":"Rantířov","type":"vodní","fuel":"Vodní","output_mw":0.09,"osm_proposal":"power=generator generator:source=hydro","river":"Jihlava","river_km":"153.3","cadastre":"Rantířov (739316): St. 51","geocode_precision":"parcel","osm_power_within_300m":false},"geometry":{"type":"Point","coordinates":[15.509595,49.402386]}},{"type":"Feature","properties":{"ref:CZ:eru":"01587_T11","name":"MVE - Petrkov","city":"Zachotín","type":"vodní","fuel":"Vodní","output_mw":0.006,"osm_proposal":"power=generator generator:source=hydro","river":"Jankovskýpotok","river_km":"0.0","cadastre":"Zachotín (790311): 888","geocode_precision":"parcel","osm_power_within_300m":false},"geometry":{"type":"Point","coordinates":[15.367428,49.459064]}},{"type":"Feature","properties":{"ref:CZ:eru":"14674_T11","name":"FVE Mozolov Solar s.r.o.","city":"Krásná Hora","type":"solární","fuel":"Sluneční energie","output_mw":2.2344,"osm_proposal":"power=plant plant:source=solar","cadastre":"Mozolov u Krásné Hory (673498): 19/5; 20/2; 21/8; 30/5; 169","geocode_precision":"parcel","osm_power_within_300m":true},"geometry":{"type":"Point","coordinates":[15.465899,49.610131]}},{"type":"Feature","properties":{"ref:CZ:eru":"02142_T11","name":"MVE Ledeč nad Sázavou","city":"Ledeč nad Sázavou","type":"vodní","fuel":"Vodní","output_mw":0.0435,"osm_proposal":"power=generator generator:source=hydro","river":"Sázava","river_km":"129.378","cadastre":"Ledeč nad Sázavou (679712): St. 100/4","geocode_precision":"parcel","osm_power_within_300m":false},"geometry":{"type":"Point","coordinates":[15.280727,49.695744]}},{"type":"Feature","properties":{"ref:CZ:eru":"22124_T11","name":"Pohled","city":"Pohled","type":"plynovýaspalovací","fuel":"Bioplyn","output_mw":0.62,"osm_proposal":"power=generator generator:source=biogas","cadastre":"Pohled (724645): st. 438","geocode_precision":"parcel","osm_power_within_300m":false},"geometry":{"type":"Point","coordinates":[15.640262,49.60972]}},{"type":"Feature","properties":{"ref:CZ:eru":"00383_T11","name":"MVE Vřesník","city":"Želiv","type":"vodní","fuel":"Vodní","output_mw":0.225,"osm_proposal":"power=generator generator:source=hydro","river":"Želivka","river_km":"57.3","cadastre":"Vřesník (782866): st. 91","geocode_precision":"parcel","osm_power_within_300m":true},"geometry":{"type":"Point","coordinates":[15.242488,49.52942]}},{"type":"Feature","properties":{"ref:CZ:eru":"39939_T11","name":"FVE Štoky","city":"Štoky","type":"solární","fuel":"Sluneční energie","output_mw":2.0001,"osm_proposal":"power=plant plant:source=solar","cadastre":"Štoky (764051): 1230","geocode_precision":"parcel","osm_power_within_300m":false},"geometry":{"type":"Point","coordinates":[15.571837,49.511234]}},{"type":"Feature","properties":{"ref:CZ:eru":"08648_T11","name":"FVE DIAMO I.","city":"Rožná","type":"solární","fuel":"Sluneční energie","output_mw":4.311,"osm_proposal":"power=plant plant:source=solar","cadastre":"Rožná (742899): 1144/3; st. 374","geocode_precision":"parcel","osm_power_within_300m":true},"geometry":{"type":"Point","coordinates":[16.228598,49.487547]}},{"type":"Feature","properties":{"ref:CZ:eru":"15958_T11","name":"Bioplynová stanice Pacov","city":"Pacov","type":"plynovýaspalovací","fuel":"Bioplyn","output_mw":0.8,"osm_proposal":"power=generator generator:source=biogas","cadastre":"Pacov (717215): 870/13","geocode_precision":"parcel","osm_power_within_300m":false},"geometry":{"type":"Point","coordinates":[14.988898,49.48284]}},{"type":"Feature","properties":{"ref:CZ:eru":"15635_T11","name":"Fotovoltaická elektrárna - Ledeč nad Sázavou","city":"Ledeč nad Sázavou","type":"solární","fuel":"Sluneční energie","output_mw":1.0808,"osm_proposal":"power=plant plant:source=solar","cadastre":"Ledeč nad Sázavou (679712): 1230/46, 1230/47, 1261, 1264","geocode_precision":"parcel","osm_power_within_300m":true},"geometry":{"type":"Point","coordinates":[15.275022,49.683743]}},{"type":"Feature","properties":{"ref:CZ:eru":"15964_T11","name":"BPS Číhošť","city":"Číhošť","type":"plynovýaspalovací","fuel":"Bioplyn","output_mw":0.62,"osm_proposal":"power=generator generator:source=biogas","cadastre":"Číhošť (623661): 730/10","geocode_precision":"parcel","osm_power_within_300m":false},"geometry":{"type":"Point","coordinates":[15.335364,49.737417]}},{"type":"Feature","properties":{"ref:CZ:eru":"02936_T11","name":"BPS Závidkovice","city":"Světlá nad Sázavou","type":"plynovýaspalovací","fuel":"Bioplyn","output_mw":0.99,"osm_proposal":"power=generator generator:source=biogas","cadastre":"Závidkovice (760536): st. 100","geocode_precision":"parcel","osm_power_within_300m":true},"geometry":{"type":"Point","coordinates":[15.407133,49.645119]}},{"type":"Feature","properties":{"ref:CZ:eru":"00011_T11","name":"MVE Trnávka","city":"Želiv","type":"vodní","fuel":"Vodní","output_mw":0.165,"osm_proposal":"power=generator generator:source=hydro","river":"Trnava","river_km":"1.5","cadastre":"Želiv (796271): st. 459","geocode_precision":"parcel","osm_power_within_300m":true},"geometry":{"type":"Point","coordinates":[15.217804,49.522569]}}]}