{"type":"FeatureCollection","features":[{"type":"Feature","properties":{"region":"KHK","name":"Hradec Králové – Hlavní budova","address":"Hradecká 1690/2, Hradec Králové","ref":"ZZS1","website":"https://www.zzskhk.cz/vedeni-zzs-a-vyjezdove-zakladny-hradec-kralove","licence":"NKOD: no rights (CC0)","osm_proposal":"emergency=ambulance_station","osm_ambulance_station_within_150m":true},"geometry":{"type":"Point","coordinates":[15.8337,50.1984]}},{"type":"Feature","properties":{"region":"KHK","name":"Hradec Králové – Areál LZS Fakultní nemocnice","address":"Sokolská 581, Hradec Králové","ref":"ZZS2","website":"https://www.zzskhk.cz/vedeni-zzs-a-vyjezdove-zakladny-hradec-kralove","licence":"NKOD: no rights (CC0)","osm_proposal":"emergency=ambulance_station","osm_ambulance_station_within_150m":false},"geometry":{"type":"Point","coordinates":[15.8269,50.2004]}},{"type":"Feature","properties":{"region":"KHK","name":"Hradec Králové – Bláhovka","address":"Pražská 230/153z, Hradec Králové","ref":"ZZS3","website":"https://www.zzskhk.cz/vedeni-zzs-a-vyjezdove-zakladny-hradec-kralove","licence":"NKOD: no rights (CC0)","osm_proposal":"emergency=ambulance_station","osm_ambulance_station_within_150m":true},"geometry":{"type":"Point","coordinates":[15.7779,50.2013]}},{"type":"Feature","properties":{"region":"KHK","name":"Náchod – Náchod","address":"B. Němcové 738, Náchod","ref":"ZZS4","website":"https://www.zzskhk.cz/nachod","licence":"NKOD: no rights (CC0)","osm_proposal":"emergency=ambulance_station","osm_ambulance_station_within_150m":true},"geometry":{"type":"Point","coordinates":[16.1623,50.4126]}},{"type":"Feature","properties":{"region":"KHK","name":"Trutnov – Trutnov","address":"Česká 388, Trutnov","ref":"ZZS5","website":"https://www.zzskhk.cz/trutnov","licence":"NKOD: no rights (CC0)","osm_proposal":"emergency=ambulance_station","osm_ambulance_station_within_150m":false},"geometry":{"type":"Point","coordinates":[15.9172,50.5632]}},{"type":"Feature","properties":{"region":"KHK","name":"Nový Bydžov – Nový Bydžov","address":"Malátova 493, Nový Bydžov","ref":"ZZS6","website":"https://www.zzskhk.cz/novy-bydzov","licence":"NKOD: no rights (CC0)","osm_proposal":"emergency=ambulance_station","osm_ambulance_station_within_150m":false},"geometry":{"type":"Point","coordinates":[15.4823,50.2428]}},{"type":"Feature","properties":{"region":"KHK","name":"Jičín – Jičín","address":"Bolzanova 512, Jičín","ref":"ZZS7","website":"https://www.zzskhk.cz/jicin","licence":"NKOD: no rights (CC0)","osm_proposal":"emergency=ambulance_station","osm_ambulance_station_within_150m":true},"geometry":{"type":"Point","coordinates":[15.3574,50.4401]}},{"type":"Feature","properties":{"region":"KHK","name":"Nová Paka – Nová Paka","address":"Jiráskova 1830, Nová Paka","ref":"ZZS8","website":"https://www.zzskhk.cz/nova-paka","licence":"NKOD: no rights (CC0)","osm_proposal":"emergency=ambulance_station","osm_ambulance_station_within_150m":true},"geometry":{"type":"Point","coordinates":[15.5162,50.4932]}},{"type":"Feature","properties":{"region":"KHK","name":"Hořice – Hořice","address":"Riegrova 655, Hořice","ref":"ZZS9","website":"https://www.zzskhk.cz/horice","licence":"NKOD: no rights (CC0)","osm_proposal":"emergency=ambulance_station","osm_ambulance_station_within_150m":true},"geometry":{"type":"Point","coordinates":[15.6398,50.3685]}},{"type":"Feature","properties":{"region":"KHK","name":"Dvůr Králové nad Labem – Dvůr Králové nad Labem","address":"Rooseveltova 474, Dvůr Králové nad Labem","ref":"ZZS10","website":"https://www.zzskhk.cz/dvur-kralove-nad-labem/","licence":"NKOD: no rights (CC0)","osm_proposal":"emergency=ambulance_station","osm_ambulance_station_within_150m":false},"geometry":{"type":"Point","coordinates":[15.8151,50.4302]}},{"type":"Feature","properties":{"region":"KHK","name":"Jaroměř – Jaroměř","address":"Národní 416, Jaroměř","ref":"ZZS11","website":"https://www.zzskhk.cz/jaromer","licence":"NKOD: no rights (CC0)","osm_proposal":"emergency=ambulance_station","osm_ambulance_station_within_150m":false},"geometry":{"type":"Point","coordinates":[15.9072,50.3559]}},{"type":"Feature","properties":{"region":"KHK","name":"Opočno – Opočno","address":"Nádražní 169, Opočno","ref":"ZZS12","website":"https://www.zzskhk.cz/opocno","licence":"NKOD: no rights (CC0)","osm_proposal":"emergency=ambulance_station","osm_ambulance_station_within_150m":true},"geometry":{"type":"Point","coordinates":[16.1113,50.2692]}},{"type":"Feature","properties":{"region":"KHK","name":"Rychnov nad Kněžnou – Rychnov nad Kněžnou","address":"Jiráskova 506, Rychnov nad Kněžnou","ref":"ZZS13","website":"https://www.zzskhk.cz/rychnov-nad-kneznou","licence":"NKOD: no rights (CC0)","osm_proposal":"emergency=ambulance_station","osm_ambulance_station_within_150m":true},"geometry":{"type":"Point","coordinates":[16.2708,50.168]}},{"type":"Feature","properties":{"region":"KHK","name":"Vrchlabí – Vrchlabí","address":"Valteřická 1409, Vrchlabí","ref":"ZZS14","website":"https://www.zzskhk.cz/vrchlabi","licence":"NKOD: no rights (CC0)","osm_proposal":"emergency=ambulance_station","osm_ambulance_station_within_150m":true},"geometry":{"type":"Point","coordinates":[15.6072,50.6196]}},{"type":"Feature","properties":{"region":"KHK","name":"Broumov – Broumov","address":"Smetanova 91, Broumov","ref":"ZZS15","website":"https://www.zzskhk.cz/broumov/","licence":"NKOD: no rights (CC0)","osm_proposal":"emergency=ambulance_station","osm_ambulance_station_within_150m":true},"geometry":{"type":"Point","coordinates":[16.3339,50.581]}},{"type":"Feature","properties":{"region":"KHK","name":"Temný Důl – Horní Maršov (Temný Důl)","address":"Temný Důl 25, Horní Maršov","ref":"ZZS16","website":"https://www.zzskhk.cz/temny-dul/","licence":"NKOD: no rights (CC0)","osm_proposal":"emergency=ambulance_station","osm_ambulance_station_within_150m":false},"geometry":{"type":"Point","coordinates":[15.7933,50.6749]}},{"type":"Feature","properties":{"region":"MSK","name":"Bruntál","address":"Zeyerova 13,792 01 Bruntál","crews_RLP":1,"crews_RZP":2,"crews_RV":0,"licence":"CC BY 4.0","osm_proposal":"emergency=ambulance_station","osm_ambulance_station_within_150m":false},"geometry":{"type":"Point","coordinates":[17.453986,49.988266]}},{"type":"Feature","properties":{"region":"MSK","name":"Rýmařov","address":"Máchova 84/1,795 01 Rýmařov","crews_RLP":0,"crews_RZP":2,"crews_RV":1,"licence":"CC BY 4.0","osm_proposal":"emergency=ambulance_station","osm_ambulance_station_within_150m":false},"geometry":{"type":"Point","coordinates":[17.272679,49.93454]}},{"type":"Feature","properties":{"region":"MSK","name":"Krnov","address":"Čsl. Armády 786/99,794 01 Krnov","crews_RLP":0,"crews_RZP":2,"crews_RV":1,"licence":"CC BY 4.0","osm_proposal":"emergency=ambulance_station","osm_ambulance_station_within_150m":false},"geometry":{"type":"Point","coordinates":[17.691316,50.078024]}},{"type":"Feature","properties":{"region":"MSK","name":"Město Albrechtice","address":"Opavická 827/29,793 95 Město Albrechtice","crews_RLP":0,"crews_RZP":1,"crews_RV":0,"licence":"CC BY 4.0","osm_proposal":"emergency=ambulance_station","osm_ambulance_station_within_150m":false},"geometry":{"type":"Point","coordinates":[17.581093,50.160822]}},{"type":"Feature","properties":{"region":"MSK","name":"Vrbno pod Pradědem","address":"Nádražní 646,793 26 Vrbno pod Pradědem","crews_RLP":0,"crews_RZP":1,"crews_RV":0,"licence":"CC BY 4.0","osm_proposal":"emergency=ambulance_station","osm_ambulance_station_within_150m":false},"geometry":{"type":"Point","coordinates":[17.389166,50.116246]}},{"type":"Feature","properties":{"region":"MSK","name":"Frýdek - Místek","address":"Elišky Krásnohorské 322,738 01 Frýdek - Místek","crews_RLP":0,"crews_RZP":2,"crews_RV":1,"licence":"CC BY 4.0","osm_proposal":"emergency=ambulance_station","osm_ambulance_station_within_150m":false},"geometry":{"type":"Point","coordinates":[18.349115,49.691031]}},{"type":"Feature","properties":{"region":"MSK","name":"Nošovice","address":"Nošovice 155,739 51 Nošovice","crews_RLP":0,"crews_RZP":1,"crews_RV":0,"licence":"CC BY 4.0","osm_proposal":"emergency=ambulance_station","osm_ambulance_station_within_150m":false},"geometry":{"type":"Point","coordinates":[18.428192,49.661975]}},{"type":"Feature","properties":{"region":"MSK","name":"Frýdlant n. O","address":"Ondřejnická 896,739 11 Frýdlant n. O","crews_RLP":0,"crews_RZP":1,"crews_RV":0,"licence":"CC BY 4.0","osm_proposal":"emergency=ambulance_station","osm_ambulance_station_within_150m":false},"geometry":{"type":"Point","coordinates":[18.34138,49.586627]}},{"type":"Feature","properties":{"region":"MSK","name":"Mošnov","address":"Generála Fajtla 418,742 51 Mošnov","crews_RLP":1,"crews_RZP":0,"crews_RV":0,"licence":"CC BY 4.0","osm_proposal":"emergency=ambulance_station","osm_ambulance_station_within_150m":false},"geometry":{"type":"Point","coordinates":[18.122153,49.695424]}},{"type":"Feature","properties":{"region":"MSK","name":"Třinec","address":"Kaštanová 413,739 61 Třinec","crews_RLP":1,"crews_RZP":2,"crews_RV":0,"licence":"CC BY 4.0","osm_proposal":"emergency=ambulance_station","osm_ambulance_station_within_150m":false},"geometry":{"type":"Point","coordinates":[18.683665,49.679983]}},{"type":"Feature","properties":{"region":"MSK","name":"Jablunkov","address":"Hasičská 1120, 739 91 Jablunkov","crews_RLP":0,"crews_RZP":1,"crews_RV":0,"licence":"CC BY 4.0","osm_proposal":"emergency=ambulance_station","osm_ambulance_station_within_150m":false},"geometry":{"type":"Point","coordinates":[18.770724,49.573948]}},{"type":"Feature","properties":{"region":"MSK","name":"Karviná - Fryštát","address":"Vydmuchov 395/15,733 01 Karviná - Fryštát","crews_RLP":1,"crews_RZP":2,"crews_RV":0,"licence":"CC BY 4.0","osm_proposal":"emergency=ambulance_station","osm_ambulance_station_within_150m":false},"geometry":{"type":"Point","coordinates":[18.548771,49.847592]}},{"type":"Feature","properties":{"region":"MSK","name":"Orlová","address":"Masarykova Třída 900,735 11 Orlová","crews_RLP":0,"crews_RZP":1,"crews_RV":1,"licence":"CC BY 4.0","osm_proposal":"emergency=ambulance_station","osm_ambulance_station_within_150m":false},"geometry":{"type":"Point","coordinates":[18.430107,49.873953]}},{"type":"Feature","properties":{"region":"MSK","name":"Havířov - město","address":"Dělnická 26,736 01 Havířov - město","crews_RLP":1,"crews_RZP":3,"crews_RV":0,"licence":"CC BY 4.0","osm_proposal":"emergency=ambulance_station","osm_ambulance_station_within_150m":false},"geometry":{"type":"Point","coordinates":[18.448224,49.79297]}},{"type":"Feature","properties":{"region":"MSK","name":"Č. Těšín","address":"Třanovského 2,737 01 Č. Těšín","crews_RLP":0,"crews_RZP":1,"crews_RV":0,"licence":"CC BY 4.0","osm_proposal":"emergency=ambulance_station","osm_ambulance_station_within_150m":true},"geometry":{"type":"Point","coordinates":[18.623331,49.749419]}},{"type":"Feature","properties":{"region":"MSK","name":"Bohumín","address":"Šunychelská 1159,735 81 Bohumín","crews_RLP":0,"crews_RZP":1,"crews_RV":0,"licence":"CC BY 4.0","osm_proposal":"emergency=ambulance_station","osm_ambulance_station_within_150m":false},"geometry":{"type":"Point","coordinates":[18.358065,49.909356]}},{"type":"Feature","properties":{"region":"MSK","name":"Nový Jičín","address":"Štefánikova 2111/11,741 01 Nový Jičín","crews_RLP":0,"crews_RZP":2,"crews_RV":1,"licence":"CC BY 4.0","osm_proposal":"emergency=ambulance_station","osm_ambulance_station_within_150m":true},"geometry":{"type":"Point","coordinates":[18.007361,49.596015]}},{"type":"Feature","properties":{"region":"MSK","name":"Fulnek","address":"Pekařská 405,742 45 Fulnek","crews_RLP":0,"crews_RZP":1,"crews_RV":0,"licence":"CC BY 4.0","osm_proposal":"emergency=ambulance_station","osm_ambulance_station_within_150m":false},"geometry":{"type":"Point","coordinates":[17.911054,49.714452]}},{"type":"Feature","properties":{"region":"MSK","name":"Odry","address":"Sídliště míru 958/1,742 35 Odry","crews_RLP":0,"crews_RZP":1,"crews_RV":0,"licence":"CC BY 4.0","osm_proposal":"emergency=ambulance_station","osm_ambulance_station_within_150m":false},"geometry":{"type":"Point","coordinates":[17.830002,49.665447]}},{"type":"Feature","properties":{"region":"MSK","name":"Frenštát","address":"Záhuní 401,744 01 Frenštát","crews_RLP":0,"crews_RZP":1,"crews_RV":1,"licence":"CC BY 4.0","osm_proposal":"emergency=ambulance_station","osm_ambulance_station_within_150m":false},"geometry":{"type":"Point","coordinates":[18.207715,49.547977]}},{"type":"Feature","properties":{"region":"MSK","name":"Kopřivnice","address":"Záhumenní 35/24b,742 21 Kopřivnice","crews_RLP":0,"crews_RZP":1,"crews_RV":0,"licence":"CC BY 4.0","osm_proposal":"emergency=ambulance_station","osm_ambulance_station_within_150m":false},"geometry":{"type":"Point","coordinates":[18.132666,49.584926]}},{"type":"Feature","properties":{"region":"MSK","name":"Studénka","address":"Tovární 899,742 13 Studénka","crews_RLP":0,"crews_RZP":1,"crews_RV":0,"licence":"CC BY 4.0","osm_proposal":"emergency=ambulance_station","osm_ambulance_station_within_150m":false},"geometry":{"type":"Point","coordinates":[18.054891,49.708408]}},{"type":"Feature","properties":{"region":"MSK","name":"Bílovec","address":"B. Němcové 1182/8,743 01 Bílovec","crews_RLP":0,"crews_RZP":1,"crews_RV":0,"licence":"CC BY 4.0","osm_proposal":"emergency=ambulance_station","osm_ambulance_station_within_150m":false},"geometry":{"type":"Point","coordinates":[18.024747,49.757951]}},{"type":"Feature","properties":{"region":"MSK","name":"Opava","address":"Olomoucká 3021/6a,746 01 Opava","crews_RLP":0,"crews_RZP":2,"crews_RV":1,"licence":"CC BY 4.0","osm_proposal":"emergency=ambulance_station","osm_ambulance_station_within_150m":false},"geometry":{"type":"Point","coordinates":[17.864405,49.92786]}},{"type":"Feature","properties":{"region":"MSK","name":"Opava","address":"Těšínská 584/39,746 01 Opava","crews_RLP":0,"crews_RZP":1,"crews_RV":0,"licence":"CC BY 4.0","osm_proposal":"emergency=ambulance_station","osm_ambulance_station_within_150m":false},"geometry":{"type":"Point","coordinates":[17.917918,49.934006]}},{"type":"Feature","properties":{"region":"MSK","name":"Vítkov","address":"Švermova 219,749 01 Vítkov","crews_RLP":0,"crews_RZP":1,"crews_RV":1,"licence":"CC BY 4.0","osm_proposal":"emergency=ambulance_station","osm_ambulance_station_within_150m":true},"geometry":{"type":"Point","coordinates":[17.749294,49.774405]}},{"type":"Feature","properties":{"region":"MSK","name":"Hlučín","address":"Čs. Armády 2058/6c,748 01 Hlučín","crews_RLP":0,"crews_RZP":1,"crews_RV":1,"licence":"CC BY 4.0","osm_proposal":"emergency=ambulance_station","osm_ambulance_station_within_150m":false},"geometry":{"type":"Point","coordinates":[18.190545,49.903192]}},{"type":"Feature","properties":{"region":"MSK","name":"Dolní Benešov","address":"Opavská 80, Zábřeh,742 22 Dolní Benešov","crews_RLP":0,"crews_RZP":1,"crews_RV":0,"licence":"CC BY 4.0","osm_proposal":"emergency=ambulance_station","osm_ambulance_station_within_150m":false},"geometry":{"type":"Point","coordinates":[18.078699,49.92184]}},{"type":"Feature","properties":{"region":"MSK","name":"Ostrava - Zábřeh","address":"Výškovická 40,700 30 Ostrava - Zábřeh","crews_RLP":0,"crews_RZP":3,"crews_RV":1,"licence":"CC BY 4.0","osm_proposal":"emergency=ambulance_station","osm_ambulance_station_within_150m":false},"geometry":{"type":"Point","coordinates":[18.228411,49.790452]}},{"type":"Feature","properties":{"region":"MSK","name":"Ostrava 1","address":"Nemocniční 11,701 80 Ostrava 1","crews_RLP":1,"crews_RZP":2,"crews_RV":0,"licence":"CC BY 4.0","osm_proposal":"emergency=ambulance_station","osm_ambulance_station_within_150m":false},"geometry":{"type":"Point","coordinates":[18.262524,49.820923]}},{"type":"Feature","properties":{"region":"MSK","name":"Ostrava - Poruba","address":"Martinovská 36,708 00 Ostrava - Poruba","crews_RLP":1,"crews_RZP":2,"crews_RV":0,"licence":"CC BY 4.0","osm_proposal":"emergency=ambulance_station","osm_ambulance_station_within_150m":false},"geometry":{"type":"Point","coordinates":[18.186117,49.839785]}},{"type":"Feature","properties":{"region":"MSK","name":"Ostrava - Slezská Ostrava","address":"Čs. Armády 20a,702 00 Ostrava - Slezská Ostrava","crews_RLP":0,"crews_RZP":1,"crews_RV":0,"licence":"CC BY 4.0","osm_proposal":"emergency=ambulance_station","osm_ambulance_station_within_150m":true},"geometry":{"type":"Point","coordinates":[18.332737,49.8416]}},{"type":"Feature","properties":{"region":"MSK","name":"Ostrava - Nová Bělá","address":"Kaminského 636/12,724 00 Ostrava - Nová Bělá","crews_RLP":0,"crews_RZP":1,"crews_RV":0,"licence":"CC BY 4.0","osm_proposal":"emergency=ambulance_station","osm_ambulance_station_within_150m":true},"geometry":{"type":"Point","coordinates":[18.254575,49.771272]}},{"type":"Feature","properties":{"region":"KV","name":"Karlovy Vary","address":"Závodní 390/98C, 36006","opening_hours_source":"nonstop","licence":"NKOD: no rights (CC0)","osm_proposal":"emergency=ambulance_station","osm_ambulance_station_within_150m":false},"geometry":{"type":"Point","coordinates":[12.825229,50.220652]}},{"type":"Feature","properties":{"region":"KV","name":"Sokolov","address":"Slovenská 1596, 35601","opening_hours_source":"nonstop","licence":"NKOD: no rights (CC0)","osm_proposal":"emergency=ambulance_station","osm_ambulance_station_within_150m":false},"geometry":{"type":"Point","coordinates":[12.648849,50.177167]}},{"type":"Feature","properties":{"region":"KV","name":"Luby","address":"Malé náměstí 35, 35137","opening_hours_source":"7:00 - 19:00","licence":"NKOD: no rights (CC0)","osm_proposal":"emergency=ambulance_station","osm_ambulance_station_within_150m":false},"geometry":{"type":"Point","coordinates":[12.405859,50.252416]}},{"type":"Feature","properties":{"region":"KV","name":"Horní Slavkov","address":"Větrná 1015, 35731","opening_hours_source":"nonstop","licence":"NKOD: no rights (CC0)","osm_proposal":"emergency=ambulance_station","osm_ambulance_station_within_150m":false},"geometry":{"type":"Point","coordinates":[12.793186,50.134895]}},{"type":"Feature","properties":{"region":"KV","name":"Ostrov","address":"Jáchymovská 1491, 36301","opening_hours_source":"nonstop","licence":"NKOD: no rights (CC0)","osm_proposal":"emergency=ambulance_station","osm_ambulance_station_within_150m":false},"geometry":{"type":"Point","coordinates":[12.944764,50.314281]}},{"type":"Feature","properties":{"region":"KV","name":"Mariánské Lázně","address":"U nemocnice 464/1, 35301","opening_hours_source":"nonstop","licence":"NKOD: no rights (CC0)","osm_proposal":"emergency=ambulance_station","osm_ambulance_station_within_150m":false},"geometry":{"type":"Point","coordinates":[12.701458,49.961614]}},{"type":"Feature","properties":{"region":"KV","name":"Nejdek","address":"Karlovarská 1347, 36221","opening_hours_source":"nonstop","licence":"NKOD: no rights (CC0)","osm_proposal":"emergency=ambulance_station","osm_ambulance_station_within_150m":true},"geometry":{"type":"Point","coordinates":[12.735944,50.320864]}},{"type":"Feature","properties":{"region":"KV","name":"Žlutice","address":"Karlovarská 530, 36452","opening_hours_source":"nonstop","licence":"NKOD: no rights (CC0)","osm_proposal":"emergency=ambulance_station","osm_ambulance_station_within_150m":false},"geometry":{"type":"Point","coordinates":[13.161975,50.092584]}},{"type":"Feature","properties":{"region":"KV","name":"Aš","address":"Okružní 2545, 35201","opening_hours_source":"nonstop","licence":"NKOD: no rights (CC0)","osm_proposal":"emergency=ambulance_station","osm_ambulance_station_within_150m":false},"geometry":{"type":"Point","coordinates":[12.187344,50.217686]}},{"type":"Feature","properties":{"region":"KV","name":"Kraslice","address":"Husova 127, 35801","opening_hours_source":"nonstop","licence":"NKOD: no rights (CC0)","osm_proposal":"emergency=ambulance_station","osm_ambulance_station_within_150m":false},"geometry":{"type":"Point","coordinates":[12.513781,50.325733]}},{"type":"Feature","properties":{"region":"KV","name":"Cheb","address":"K Nemocnici 1204/17, 35002","opening_hours_source":"nonstop","licence":"NKOD: no rights (CC0)","osm_proposal":"emergency=ambulance_station","osm_ambulance_station_within_150m":false},"geometry":{"type":"Point","coordinates":[12.366945,50.069908]}},{"type":"Feature","properties":{"region":"KV","name":"Toužim","address":"Sídliště 526, 36401","opening_hours_source":"nonstop","licence":"NKOD: no rights (CC0)","osm_proposal":"emergency=ambulance_station","osm_ambulance_station_within_150m":false},"geometry":{"type":"Point","coordinates":[12.98784,50.062119]}},{"type":"Feature","properties":{"region":"KV","name":"Teplá","address":"Pivovarská 333, 36461","opening_hours_source":"nonstop","licence":"NKOD: no rights (CC0)","osm_proposal":"emergency=ambulance_station","osm_ambulance_station_within_150m":false},"geometry":{"type":"Point","coordinates":[12.866724,49.977757]}},{"type":"Feature","properties":{"region":"LK","name":"Výjezdová základna Liberec Husova","address":"Husova 976, Liberec","crews_RV":"1","crews_RZP":"3","licence":"NKOD: no rights (CC0)","osm_proposal":"emergency=ambulance_station","osm_ambulance_station_within_150m":true},"geometry":{"type":"Point","coordinates":[15.067114,50.771248]}},{"type":"Feature","properties":{"region":"LK","name":"Výjezdová základna Frýdlant v Čechách","address":"Fügnerova 1124, Frýdlant","crews_RV":"1","crews_RZP":"2","licence":"NKOD: no rights (CC0)","osm_proposal":"emergency=ambulance_station","osm_ambulance_station_within_150m":false},"geometry":{"type":"Point","coordinates":[15.088524,50.925017]}},{"type":"Feature","properties":{"region":"LK","name":"Výjezdová základna Jablonec nad Nisou","address":"Průmyslová 5588, Jablonec nad Nisou","crews_RV":"1","crews_RZP":"2","licence":"NKOD: no rights (CC0)","osm_proposal":"emergency=ambulance_station","osm_ambulance_station_within_150m":false},"geometry":{"type":"Point","coordinates":[15.16258,50.731301]}},{"type":"Feature","properties":{"region":"LK","name":"Výjezdová základna Velké Hamry","address":"Velké Hamry 534, Velké Hamry","crews_RV":"1","crews_RZP":"1","licence":"NKOD: no rights (CC0)","osm_proposal":"emergency=ambulance_station","osm_ambulance_station_within_150m":true},"geometry":{"type":"Point","coordinates":[15.315909,50.720669]}},{"type":"Feature","properties":{"region":"LK","name":"Výjezdová základna Česká Lípa","address":"Purkyňova 1849, Česká Lípa","crews_RV":"1","crews_RZP":"2","licence":"NKOD: no rights (CC0)","osm_proposal":"emergency=ambulance_station","osm_ambulance_station_within_150m":false},"geometry":{"type":"Point","coordinates":[14.548834,50.685854]}},{"type":"Feature","properties":{"region":"LK","name":"Výjezdová základna Jablonné v Podještědí","address":"Lidická 502, Jablonné v Podještědí","crews_RV":"0","crews_RZP":"1","licence":"NKOD: no rights (CC0)","osm_proposal":"emergency=ambulance_station","osm_ambulance_station_within_150m":false},"geometry":{"type":"Point","coordinates":[14.759048,50.762489]}},{"type":"Feature","properties":{"region":"LK","name":"Výjezdová základna Doksy","address":"Mimoňská 303, Doksy","crews_RV":"1","crews_RZP":"1","licence":"NKOD: no rights (CC0)","osm_proposal":"emergency=ambulance_station","osm_ambulance_station_within_150m":false},"geometry":{"type":"Point","coordinates":[14.661869,50.566869]}},{"type":"Feature","properties":{"region":"LK","name":"Výjezdová základna Turnov","address":"28. října 1000, Turnov","crews_RV":"1","crews_RZP":"2","licence":"NKOD: no rights (CC0)","osm_proposal":"emergency=ambulance_station","osm_ambulance_station_within_150m":false},"geometry":{"type":"Point","coordinates":[15.168846,50.589044]}},{"type":"Feature","properties":{"region":"LK","name":"Výjezdová základna Semily","address":"3. května 421, Semily","crews_RV":"1","crews_RZP":"1","licence":"NKOD: no rights (CC0)","osm_proposal":"emergency=ambulance_station","osm_ambulance_station_within_150m":false},"geometry":{"type":"Point","coordinates":[15.353297,50.597423]}},{"type":"Feature","properties":{"region":"LK","name":"Výjezdová základna Rokytnice nad Jizerou","address":"Dolní Rokytnice 528, Rokytnice nad Jizerou","crews_RV":"0","crews_RZP":"1","licence":"NKOD: no rights (CC0)","osm_proposal":"emergency=ambulance_station","osm_ambulance_station_within_150m":true},"geometry":{"type":"Point","coordinates":[15.419724,50.721406]}},{"type":"Feature","properties":{"region":"LK","name":"Výjezdová základna Jilemnice","address":"Metyšova 372, Jilemnice","crews_RV":"1","crews_RZP":"1","licence":"NKOD: no rights (CC0)","osm_proposal":"emergency=ambulance_station","osm_ambulance_station_within_150m":false},"geometry":{"type":"Point","coordinates":[15.49847,50.611477]}},{"type":"Feature","properties":{"region":"LK","name":"Výjezdová základna Český Dub","address":"Husova 13, Český Dub","crews_RV":"0","crews_RZP":"1","licence":"NKOD: no rights (CC0)","osm_proposal":"emergency=ambulance_station","osm_ambulance_station_within_150m":false},"geometry":{"type":"Point","coordinates":[14.995667,50.659413]}},{"type":"Feature","properties":{"region":"LK","name":"Výjezdová základna Hrádek nad Nisou","address":"Oldřichovská 846, Hrádek nad Nisou","crews_RV":"0","crews_RZP":"1","licence":"NKOD: no rights (CC0)","osm_proposal":"emergency=ambulance_station","osm_ambulance_station_within_150m":false},"geometry":{"type":"Point","coordinates":[14.848347,50.861663]}},{"type":"Feature","properties":{"region":"LK","name":"Výjezdová základna Liberec Partyzánská","address":"Partyzánská 575, Liberec","crews_RV":"1","crews_RZP":"1","licence":"NKOD: no rights (CC0)","osm_proposal":"emergency=ambulance_station","osm_ambulance_station_within_150m":false},"geometry":{"type":"Point","coordinates":[15.025216,50.769376]}}]}