{"type": "FeatureCollection", "features": [{"type": "Feature", "geometry": {"type": "LineString", "coordinates": [[13.836621, 49.70046], [13.836545, 49.700606], [13.836535, 49.700703], [13.836524, 49.7008], [13.836513, 49.700898], [13.836527, 49.701006], [13.83654, 49.701114], [13.836553, 49.701223], [13.836567, 49.701331], [13.83661, 49.701414], [13.836708, 49.701515], [13.836806, 49.701616], [13.836905, 49.701716], [13.836945, 49.701827], [13.836985, 49.701938]]}, "properties": {"dataset": "Meta MapWithAI 2019-12", "ai_highway": "unclassified", "fbid": "442964299976937", "length_m": 172, "osm_highway_within_20m": false}}, {"type": "Feature", "geometry": {"type": "LineString", "coordinates": [[13.82437, 49.70144], [13.824455, 49.70136], [13.82454, 49.701279], [13.824621, 49.701195], [13.824703, 49.701111], [13.824784, 49.701027], [13.824866, 49.700943], [13.824948, 49.700859], [13.825028, 49.700784], [13.825108, 49.700709], [13.825189, 49.700635], [13.825269, 49.70056], [13.82535, 49.700485], [13.82543, 49.70041], [13.825511, 49.700335], [13.825591, 49.70026], [13.825672, 49.700185], [13.825752, 49.70011], [13.825835, 49.700034]]}, "properties": {"dataset": "Meta MapWithAI 2019-12", "ai_highway": "residential", "fbid": "2613125645396878", "length_m": 188, "osm_highway_within_20m": false}}, {"type": "Feature", "geometry": {"type": "LineString", "coordinates": [[13.78459, 49.708746], [13.784717, 49.708703], [13.784844, 49.708659], [13.784971, 49.708616], [13.785098, 49.708573], [13.785225, 49.708529], [13.785352, 49.708486], [13.78548, 49.708442], [13.785607, 49.708399], [13.785734, 49.708356], [13.785845, 49.708289], [13.785956, 49.708222], [13.786067, 49.708155], [13.786179, 49.708089], [13.786275, 49.708023], [13.786372, 49.707957], [13.786468, 49.707891], [13.786635, 49.707755], [13.786705, 49.707662], [13.786774, 49.707568], [13.786822, 49.70747], [13.786869, 49.707372], [13.786917, 49.707274], [13.786964, 49.707176], [13.787012, 49.707078], [13.787059, 49.70698]]}, "properties": {"dataset": "Meta MapWithAI 2019-12", "ai_highway": "track", "fbid": "822081281545539", "length_m": 278, "osm_highway_within_20m": false}}, {"type": "Feature", "geometry": {"type": "LineString", "coordinates": [[13.814042, 49.704071], [13.814167, 49.704125], [13.814292, 49.70418], [13.814417, 49.704235], [13.814528, 49.704298], [13.814639, 49.704361]]}, "properties": {"dataset": "Meta MapWithAI 2019-12", "ai_highway": "service", "fbid": "485182202189054", "length_m": 54, "osm_highway_within_20m": false}}, {"type": "Feature", "geometry": {"type": "LineString", "coordinates": [[13.81527, 49.704779], [13.815372, 49.704858], [13.815474, 49.704936], [13.815576, 49.705015], [13.815694, 49.705114], [13.815812, 49.705213]]}, "properties": {"dataset": "Meta MapWithAI 2019-12", "ai_highway": "service", "fbid": "485182202189054", "length_m": 62, "osm_highway_within_20m": false}}, {"type": "Feature", "geometry": {"type": "LineString", "coordinates": [[13.758032, 49.708994], [13.758134, 49.708869], [13.758187, 49.708772], [13.758241, 49.708675], [13.758295, 49.708578], [13.758335, 49.708488], [13.758376, 49.708399], [13.758417, 49.708309], [13.758458, 49.70822], [13.758498, 49.70813], [13.758539, 49.708041], [13.75858, 49.707951]]}, "properties": {"dataset": "Meta MapWithAI 2019-12", "ai_highway": "track", "fbid": "465908444032019", "length_m": 123, "osm_highway_within_20m": false}}, {"type": "Feature", "geometry": {"type": "LineString", "coordinates": [[13.828306, 49.737002], [13.828416, 49.737076], [13.828526, 49.737151], [13.828636, 49.737225], [13.828745, 49.7373], [13.828855, 49.737374], [13.828965, 49.737449], [13.829097, 49.737519], [13.829228, 49.737589], [13.82936, 49.737659], [13.829491, 49.73773], [13.829596, 49.7378], [13.829701, 49.737871], [13.829807, 49.737942], [13.829912, 49.738013], [13.830017, 49.738083], [13.830097, 49.738104], [13.830274, 49.738229], [13.830384, 49.738288], [13.830493, 49.738347], [13.830603, 49.738406], [13.830712, 49.738465], [13.830822, 49.738524], [13.83093, 49.738591], [13.831039, 49.738659], [13.831148, 49.738727], [13.831257, 49.738795], [13.831365, 49.738862], [13.831474, 49.73893], [13.831583, 49.738998], [13.831692, 49.739066]]}, "properties": {"dataset": "Meta MapWithAI 2019-12", "ai_highway": "track", "fbid": "820141895083990", "length_m": 335, "osm_highway_within_20m": false}}, {"type": "Feature", "geometry": {"type": "LineString", "coordinates": [[13.822183, 49.702056], [13.822279, 49.702126], [13.822375, 49.702197], [13.822471, 49.702268], [13.822566, 49.702339], [13.822662, 49.70241], [13.822776, 49.70247], [13.82289, 49.702531], [13.823003, 49.702591], [13.823117, 49.702651], [13.823231, 49.702712], [13.823352, 49.702765], [13.823474, 49.702818], [13.823596, 49.702871], [13.823717, 49.702925], [13.823839, 49.702978], [13.82396, 49.703031], [13.824072, 49.703109], [13.824184, 49.703188], [13.824295, 49.703266], [13.824407, 49.703345], [13.824518, 49.703423], [13.824614, 49.70349], [13.82471, 49.703557], [13.824806, 49.703625], [13.824902, 49.703692], [13.824998, 49.703759], [13.825094, 49.703827], [13.825191, 49.703894], [13.825287, 49.703961], [13.825383, 49.704029], [13.825479, 49.704096], [13.825607, 49.70415], [13.825736, 49.704205], [13.825865, 49.70426], [13.825993, 49.704314], [13.826089, 49.704387], [13.826185, 49.70446], [13.82628, 49.704533], [13.826376, 49.704606], [13.826472, 49.704679]]}, "properties": {"dataset": "Meta MapWithAI 2019-12", "ai_highway": "residential", "fbid": "738443163323136", "length_m": 427, "osm_highway_within_20m": false}}, {"type": "Feature", "geometry": {"type": "LineString", "coordinates": [[13.830966, 49.719428], [13.831082, 49.719493], [13.831197, 49.719557], [13.831314, 49.719621], [13.83143, 49.719685], [13.831547, 49.719749], [13.831664, 49.719814], [13.83178, 49.719868], [13.831896, 49.719922], [13.832012, 49.719977], [13.832144, 49.720008], [13.832275, 49.720039], [13.832424, 49.720058], [13.832573, 49.720077], [13.832722, 49.720096], [13.832871, 49.720115], [13.833008, 49.720139], [13.833145, 49.720162]]}, "properties": {"dataset": "Meta MapWithAI 2019-12", "ai_highway": "unclassified", "fbid": "418291372445352", "length_m": 181, "osm_highway_within_20m": false}}, {"type": "Feature", "geometry": {"type": "LineString", "coordinates": [[13.811719, 49.702944], [13.811488, 49.702854], [13.811357, 49.702818], [13.811226, 49.702782], [13.811096, 49.702746], [13.810965, 49.70271]]}, "properties": {"dataset": "Meta MapWithAI 2019-12", "ai_highway": "service", "fbid": "465725087688648", "length_m": 60, "osm_highway_within_20m": false}}, {"type": "Feature", "geometry": {"type": "LineString", "coordinates": [[13.78546, 49.744392], [13.785304, 49.74437], [13.785149, 49.744348], [13.784993, 49.744326], [13.784838, 49.744304], [13.784682, 49.744282], [13.784532, 49.744242], [13.784382, 49.744202]]}, "properties": {"dataset": "Meta MapWithAI 2019-12", "ai_highway": "residential", "fbid": "776309496144981", "length_m": 81, "osm_highway_within_20m": false}}, {"type": "Feature", "geometry": {"type": "LineString", "coordinates": [[13.846126, 49.743939], [13.846124, 49.743849], [13.846123, 49.743759], [13.846121, 49.743668], [13.846078, 49.743499], [13.846073, 49.743381], [13.846111, 49.743285], [13.84615, 49.74319], [13.846189, 49.743095]]}, "properties": {"dataset": "Meta MapWithAI 2019-12", "ai_highway": "track", "fbid": "846654465752698", "length_m": 95, "osm_highway_within_20m": false}}, {"type": "Feature", "geometry": {"type": "LineString", "coordinates": [[13.800437, 49.729572], [13.800282, 49.729557], [13.800126, 49.729542], [13.799971, 49.729527], [13.799834, 49.729506], [13.799697, 49.729485], [13.799552, 49.72947], [13.799408, 49.729454], [13.799263, 49.729439], [13.799118, 49.729423], [13.798973, 49.729407]]}, "properties": {"dataset": "Meta MapWithAI 2019-12", "ai_highway": "residential", "fbid": "3476075572606778", "length_m": 107, "osm_highway_within_20m": false}}, {"type": "Feature", "geometry": {"type": "LineString", "coordinates": [[13.823174, 49.727663], [13.823284, 49.727728], [13.823395, 49.727792], [13.823506, 49.727857], [13.823617, 49.727922], [13.823832, 49.727977], [13.823973, 49.72805], [13.824114, 49.728123], [13.824255, 49.728196], [13.824347, 49.728298], [13.824438, 49.7284], [13.824609, 49.728501], [13.824728, 49.728591], [13.824846, 49.728681], [13.824914, 49.728778], [13.824981, 49.728875], [13.825049, 49.728972], [13.825164, 49.729053], [13.825278, 49.729134]]}, "properties": {"dataset": "Meta MapWithAI 2019-12", "ai_highway": "residential", "fbid": "771365369943136", "length_m": 227, "osm_highway_within_20m": false}}, {"type": "Feature", "geometry": {"type": "LineString", "coordinates": [[13.831583, 49.70208], [13.831578, 49.701987], [13.831626, 49.701838], [13.831717, 49.701723], [13.831841, 49.701619], [13.831964, 49.701515], [13.832018, 49.701449], [13.832055, 49.701366], [13.832055, 49.701255], [13.832028, 49.701159], [13.832002, 49.701064], [13.831948, 49.700946], [13.831894, 49.700828], [13.8319, 49.700745], [13.831953, 49.700617], [13.832034, 49.700526], [13.832136, 49.70037], [13.832243, 49.700287], [13.832399, 49.700218], [13.832554, 49.700148], [13.832785, 49.700061]]}, "properties": {"dataset": "Meta MapWithAI 2019-12", "ai_highway": "unclassified", "fbid": "739347636576513", "length_m": 263, "osm_highway_within_20m": false}}, {"type": "Feature", "geometry": {"type": "LineString", "coordinates": [[13.793222, 49.726466], [13.793096, 49.726535], [13.792969, 49.726604], [13.792842, 49.726674], [13.792716, 49.726743], [13.792589, 49.726812], [13.792448, 49.726851]]}, "properties": {"dataset": "Meta MapWithAI 2019-12", "ai_highway": "track", "fbid": "512448499338511", "length_m": 71, "osm_highway_within_20m": false}}, {"type": "Feature", "geometry": {"type": "LineString", "coordinates": [[13.774007, 49.706219], [13.774055, 49.706312], [13.774104, 49.706405], [13.774152, 49.706499], [13.7742, 49.706592], [13.774248, 49.706685], [13.774297, 49.706778], [13.774345, 49.706872], [13.774393, 49.706965], [13.774442, 49.707058], [13.77447, 49.707157], [13.774498, 49.707256], [13.774526, 49.707355], [13.774554, 49.707454], [13.774582, 49.707553], [13.77461, 49.707651], [13.774639, 49.70775], [13.774667, 49.707849], [13.774707, 49.70796], [13.774747, 49.708071], [13.774817, 49.708158], [13.774914, 49.708228], [13.77501, 49.708299]]}, "properties": {"dataset": "Meta MapWithAI 2019-12", "ai_highway": "track", "fbid": "426722971586050", "length_m": 245, "osm_highway_within_20m": false}}, {"type": "Feature", "geometry": {"type": "LineString", "coordinates": [[13.8074, 49.709673], [13.807541, 49.709653], [13.807681, 49.709633], [13.807821, 49.709613], [13.807962, 49.709593], [13.808102, 49.709572], [13.808243, 49.709552], [13.808457, 49.709587], [13.80859, 49.70962], [13.808723, 49.709653], [13.808856, 49.709685], [13.808989, 49.709718], [13.809122, 49.709751], [13.809255, 49.709784], [13.809388, 49.709816], [13.809521, 49.709849]]}, "properties": {"dataset": "Meta MapWithAI 2019-12", "ai_highway": "path", "fbid": "2858760514175051", "length_m": 160, "osm_highway_within_20m": false}}, {"type": "Feature", "geometry": {"type": "LineString", "coordinates": [[13.784081, 49.735351], [13.783945, 49.735407], [13.783808, 49.735462], [13.783671, 49.735518], [13.783534, 49.735573], [13.783397, 49.735629], [13.783261, 49.735684], [13.783135, 49.735736], [13.783008, 49.735788], [13.782882, 49.73584], [13.782756, 49.735892], [13.782595, 49.735951], [13.782435, 49.73601], [13.7823, 49.736056], [13.782166, 49.736101], [13.782032, 49.736146], [13.781898, 49.736192], [13.781764, 49.736237], [13.78163, 49.736283], [13.781496, 49.736328], [13.781362, 49.736374]]}, "properties": {"dataset": "Meta MapWithAI 2019-12", "ai_highway": "track", "fbid": "522025491716977", "length_m": 226, "osm_highway_within_20m": false}}, {"type": "Feature", "geometry": {"type": "LineString", "coordinates": [[13.823403, 49.719279], [13.823209, 49.719151], [13.823097, 49.719064], [13.822984, 49.718978], [13.822858, 49.718898], [13.822732, 49.718818], [13.822616, 49.718752], [13.8225, 49.718686], [13.822383, 49.71862]]}, "properties": {"dataset": "Meta MapWithAI 2019-12", "ai_highway": "track", "fbid": "1260255860824296", "length_m": 104, "osm_highway_within_20m": false}}, {"type": "Feature", "geometry": {"type": "LineString", "coordinates": [[13.77817, 49.730973], [13.778221, 49.731062], [13.778273, 49.731151], [13.778325, 49.731241], [13.778376, 49.73133], [13.778428, 49.731419], [13.778479, 49.731509], [13.778531, 49.731598], [13.778582, 49.731687], [13.778634, 49.731777], [13.778686, 49.731866], [13.778737, 49.731955], [13.778789, 49.732045], [13.77884, 49.732134], [13.77891, 49.732189], [13.778969, 49.732203], [13.779071, 49.732203], [13.779232, 49.732188], [13.779393, 49.732173], [13.779554, 49.732158], [13.779715, 49.732142], [13.779876, 49.732127], [13.780026, 49.732108], [13.780176, 49.732088], [13.780326, 49.732069], [13.780476, 49.73205], [13.780627, 49.73203], [13.780773, 49.732005], [13.780919, 49.731979], [13.781065, 49.731954], [13.781211, 49.731928], [13.781357, 49.731903], [13.781503, 49.731878], [13.781649, 49.731852], [13.781795, 49.731827], [13.781941, 49.731801], [13.782198, 49.731739], [13.782381, 49.73167], [13.78252, 49.731569], [13.782584, 49.731482], [13.782647, 49.731395], [13.782711, 49.731307], [13.782774, 49.73122], [13.782838, 49.731133], [13.782901, 49.731046], [13.782965, 49.730958], [13.783028, 49.730871], [13.783092, 49.730784], [13.783155, 49.730697], [13.783219, 49.730609]]}, "properties": {"dataset": "Meta MapWithAI 2019-12", "ai_highway": "residential", "fbid": "490242021841630", "length_m": 537, "osm_highway_within_20m": false}}, {"type": "Feature", "geometry": {"type": "LineString", "coordinates": [[13.797938, 49.729309], [13.797845, 49.729239], [13.797752, 49.729169], [13.797659, 49.729099], [13.797566, 49.729029], [13.797473, 49.728959], [13.79738, 49.728889], [13.797246, 49.728813], [13.797149, 49.728688], [13.797049, 49.728605], [13.796949, 49.728522], [13.796849, 49.728438], [13.796747, 49.728343], [13.796645, 49.728248]]}, "properties": {"dataset": "Meta MapWithAI 2019-12", "ai_highway": "residential", "fbid": "562213994544092", "length_m": 151, "osm_highway_within_20m": false}}, {"type": "Feature", "geometry": {"type": "LineString", "coordinates": [[13.799644, 49.724479], [13.799566, 49.724395], [13.799488, 49.72431], [13.79941, 49.724226], [13.799332, 49.724142], [13.799255, 49.724057], [13.799177, 49.723973]]}, "properties": {"dataset": "Meta MapWithAI 2019-12", "ai_highway": "residential", "fbid": "942588309456068", "length_m": 65, "osm_highway_within_20m": false}}, {"type": "Feature", "geometry": {"type": "LineString", "coordinates": [[13.818981, 49.749423], [13.819086, 49.749354], [13.819191, 49.749286], [13.819296, 49.749217], [13.819401, 49.749149], [13.819506, 49.74908], [13.819611, 49.749012], [13.819716, 49.748943], [13.819821, 49.748875], [13.819926, 49.748806], [13.820035, 49.748741], [13.820143, 49.748676], [13.820251, 49.74861], [13.820359, 49.748545], [13.820467, 49.74848], [13.820576, 49.748415], [13.820675, 49.748344], [13.820775, 49.748272], [13.820875, 49.748201], [13.820975, 49.74813], [13.821074, 49.748059], [13.821174, 49.747988], [13.821274, 49.747917]]}, "properties": {"dataset": "Meta MapWithAI 2019-12", "ai_highway": "track", "fbid": "2408886649328011", "length_m": 235, "osm_highway_within_20m": false}}, {"type": "Feature", "geometry": {"type": "LineString", "coordinates": [[13.801248, 49.72459], [13.801248, 49.724698], [13.801248, 49.724805], [13.801333, 49.724961], [13.801423, 49.725048], [13.801514, 49.725134], [13.801604, 49.725221], [13.801694, 49.725308], [13.801784, 49.725394], [13.801843, 49.72548], [13.801902, 49.725565], [13.801961, 49.725651], [13.80202, 49.725736], [13.802079, 49.725822]]}, "properties": {"dataset": "Meta MapWithAI 2019-12", "ai_highway": "residential", "fbid": "579133639521345", "length_m": 152, "osm_highway_within_20m": false}}, {"type": "Feature", "geometry": {"type": "LineString", "coordinates": [[13.764028, 49.729159], [13.764169, 49.729094], [13.764301, 49.729042], [13.764433, 49.728991], [13.764565, 49.728939], [13.764698, 49.728887]]}, "properties": {"dataset": "Meta MapWithAI 2019-12", "ai_highway": "residential", "fbid": "423430491894984", "length_m": 57, "osm_highway_within_20m": false}}, {"type": "Feature", "geometry": {"type": "LineString", "coordinates": [[13.842773, 49.710649], [13.842906, 49.710615], [13.843038, 49.710582], [13.84317, 49.710548], [13.843303, 49.710514], [13.843435, 49.710481], [13.843567, 49.710447], [13.8437, 49.710414], [13.843832, 49.71038], [13.843964, 49.710347], [13.844109, 49.710331], [13.844254, 49.710316]]}, "properties": {"dataset": "Meta MapWithAI 2019-12", "ai_highway": "residential", "fbid": "2413965225522395", "length_m": 113, "osm_highway_within_20m": false}}, {"type": "Feature", "geometry": {"type": "LineString", "coordinates": [[13.768804, 49.722609], [13.768918, 49.722553], [13.769032, 49.722496], [13.769146, 49.72244], [13.769261, 49.722383], [13.769375, 49.722327], [13.769489, 49.72227], [13.769604, 49.722213], [13.769718, 49.722157], [13.769832, 49.7221], [13.769947, 49.722044], [13.770061, 49.721987], [13.770175, 49.721931], [13.770289, 49.721874], [13.770404, 49.721817], [13.770518, 49.721761], [13.770632, 49.721704], [13.770747, 49.721648], [13.770861, 49.721591], [13.770975, 49.721535], [13.77109, 49.721478], [13.771204, 49.721421], [13.771318, 49.721365], [13.771432, 49.721308], [13.771547, 49.721252]]}, "properties": {"dataset": "Meta MapWithAI 2019-12", "ai_highway": "unclassified", "fbid": "1520580584756547", "length_m": 248, "osm_highway_within_20m": false}}, {"type": "Feature", "geometry": {"type": "LineString", "coordinates": [[13.831363, 49.705397], [13.831471, 49.705469], [13.831645, 49.705539], [13.831819, 49.705608], [13.83195, 49.705647], [13.83208, 49.705687], [13.83221, 49.705726], [13.83234, 49.705765], [13.832471, 49.705804], [13.832601, 49.705843], [13.832731, 49.705882], [13.832897, 49.705919]]}, "properties": {"dataset": "Meta MapWithAI 2019-12", "ai_highway": "residential", "fbid": "803636276734948", "length_m": 126, "osm_highway_within_20m": false}}, {"type": "Feature", "geometry": {"type": "LineString", "coordinates": [[13.84289, 49.730757], [13.842911, 49.730853], [13.842931, 49.73095], [13.842952, 49.731046], [13.842972, 49.731142], [13.842999, 49.731236], [13.843027, 49.73133], [13.843054, 49.731424], [13.843081, 49.731518], [13.843109, 49.731612], [13.843136, 49.731706], [13.843163, 49.7318], [13.843191, 49.731894], [13.843218, 49.731988], [13.843246, 49.732082], [13.843306, 49.732173]]}, "properties": {"dataset": "Meta MapWithAI 2019-12", "ai_highway": "track", "fbid": "355420051961066", "length_m": 160, "osm_highway_within_20m": false}}, {"type": "Feature", "geometry": {"type": "LineString", "coordinates": [[13.767055, 49.718698], [13.767171, 49.718638], [13.767287, 49.718577], [13.767403, 49.718516], [13.767508, 49.718454], [13.767613, 49.718391], [13.767717, 49.718329], [13.767822, 49.718266], [13.767926, 49.718204], [13.768031, 49.718141], [13.768136, 49.718079], [13.76824, 49.718017], [13.768345, 49.717954], [13.768449, 49.717892], [13.768554, 49.717829], [13.768659, 49.717767], [13.768763, 49.717704], [13.768868, 49.717642], [13.76898, 49.71757], [13.769091, 49.717497], [13.769203, 49.717425], [13.769315, 49.717353], [13.769427, 49.717281], [13.769538, 49.717208], [13.769656, 49.717141], [13.769774, 49.717074], [13.769892, 49.717006], [13.77001, 49.716939], [13.770128, 49.716871]]}, "properties": {"dataset": "Meta MapWithAI 2019-12", "ai_highway": "service", "fbid": "424911551511511", "length_m": 300, "osm_highway_within_20m": false}}, {"type": "Feature", "geometry": {"type": "LineString", "coordinates": [[13.770364, 49.716737], [13.770461, 49.71667], [13.770558, 49.716604], [13.770654, 49.716537], [13.770751, 49.716471], [13.770847, 49.716405], [13.770944, 49.716338]]}, "properties": {"dataset": "Meta MapWithAI 2019-12", "ai_highway": "service", "fbid": "424911551511511", "length_m": 61, "osm_highway_within_20m": false}}, {"type": "Feature", "geometry": {"type": "LineString", "coordinates": [[13.782825, 49.709403], [13.782697, 49.709452], [13.782499, 49.709559], [13.782354, 49.709611], [13.782209, 49.709663], [13.782035, 49.709712], [13.781861, 49.709761], [13.781726, 49.709785], [13.781565, 49.709826], [13.781405, 49.709868], [13.781244, 49.70991], [13.781045, 49.709955], [13.780788, 49.710014], [13.780613, 49.710068], [13.780439, 49.710121], [13.780303, 49.710156], [13.780166, 49.710191], [13.78003, 49.710225], [13.779894, 49.71026], [13.779758, 49.710295], [13.779621, 49.710343], [13.779484, 49.710392], [13.779347, 49.71044], [13.77921, 49.710489], [13.779074, 49.710538], [13.778937, 49.710586], [13.7788, 49.710635]]}, "properties": {"dataset": "Meta MapWithAI 2019-12", "ai_highway": "residential", "fbid": "2486408601617358", "length_m": 322, "osm_highway_within_20m": false}}, {"type": "Feature", "geometry": {"type": "LineString", "coordinates": [[13.842768, 49.712456], [13.842993, 49.712428], [13.843152, 49.712407], [13.84331, 49.712387], [13.843358, 49.71238], [13.843503, 49.712348]]}, "properties": {"dataset": "Meta MapWithAI 2019-12", "ai_highway": "residential", "fbid": "978969819153157", "length_m": 54, "osm_highway_within_20m": false}}, {"type": "Feature", "geometry": {"type": "LineString", "coordinates": [[13.824338, 49.746202], [13.824454, 49.746282], [13.82456, 49.746346], [13.824667, 49.746409], [13.824773, 49.746472], [13.82488, 49.746535], [13.824987, 49.746598], [13.825093, 49.746661], [13.8252, 49.746724], [13.825306, 49.746788], [13.825413, 49.746851], [13.825519, 49.746914], [13.825626, 49.746977], [13.825732, 49.74704], [13.825839, 49.747103], [13.825945, 49.747166], [13.826053, 49.747238], [13.826162, 49.747309], [13.82627, 49.74738], [13.826378, 49.747451], [13.826486, 49.747522], [13.826594, 49.747593], [13.82672, 49.747685], [13.826847, 49.747777], [13.826945, 49.747841], [13.827044, 49.747904], [13.827143, 49.747968], [13.827242, 49.748032], [13.827341, 49.748096], [13.82744, 49.74816], [13.827538, 49.748224]]}, "properties": {"dataset": "Meta MapWithAI 2019-12", "ai_highway": "track", "fbid": "751503622030808", "length_m": 322, "osm_highway_within_20m": false}}, {"type": "Feature", "geometry": {"type": "LineString", "coordinates": [[13.814197, 49.720757], [13.814142, 49.72085], [13.814086, 49.720942], [13.814031, 49.721035], [13.813951, 49.721122], [13.813872, 49.721209], [13.813792, 49.721297], [13.813713, 49.721384], [13.813633, 49.721471], [13.813553, 49.721558], [13.813479, 49.721635], [13.813405, 49.721711], [13.813331, 49.721787], [13.813257, 49.721864], [13.813183, 49.72194], [13.813102, 49.722018], [13.813022, 49.722096], [13.812941, 49.722174], [13.81286, 49.722253], [13.812779, 49.722331], [13.812698, 49.722409], [13.812617, 49.722487], [13.812536, 49.722565], [13.812455, 49.722644], [13.812375, 49.722722], [13.812294, 49.7228], [13.812213, 49.722878]]}, "properties": {"dataset": "Meta MapWithAI 2019-12", "ai_highway": "track", "fbid": "541430473373690", "length_m": 276, "osm_highway_within_20m": false}}, {"type": "Feature", "geometry": {"type": "LineString", "coordinates": [[13.801618, 49.714768], [13.801682, 49.714679], [13.801746, 49.714589], [13.801822, 49.714509], [13.801897, 49.714428], [13.801972, 49.714347], [13.802047, 49.714267], [13.802117, 49.714184], [13.802186, 49.714101], [13.802256, 49.714018], [13.802326, 49.713936], [13.802395, 49.713853], [13.802465, 49.71377], [13.802535, 49.713687], [13.802576, 49.713582], [13.802617, 49.713477]]}, "properties": {"dataset": "Meta MapWithAI 2019-12", "ai_highway": "track", "fbid": "1158387894551702", "length_m": 161, "osm_highway_within_20m": false}}, {"type": "Feature", "geometry": {"type": "LineString", "coordinates": [[13.812116, 49.731871], [13.812, 49.731944], [13.811885, 49.732017], [13.81177, 49.732091], [13.811654, 49.732164], [13.811539, 49.732238], [13.811424, 49.732311], [13.811328, 49.732384], [13.811232, 49.732457], [13.811136, 49.732531], [13.81104, 49.732604], [13.810944, 49.732677], [13.810848, 49.73275], [13.810753, 49.732824], [13.810657, 49.732897], [13.810543, 49.732977], [13.810429, 49.733056], [13.810315, 49.733136], [13.810201, 49.733216], [13.810111, 49.733285], [13.810022, 49.733355], [13.809933, 49.733424]]}, "properties": {"dataset": "Meta MapWithAI 2019-12", "ai_highway": "unclassified", "fbid": "679328822594983", "length_m": 233, "osm_highway_within_20m": false}}, {"type": "Feature", "geometry": {"type": "LineString", "coordinates": [[13.783212, 49.731559], [13.783152, 49.731651], [13.783092, 49.731743], [13.783032, 49.731835], [13.782972, 49.731927], [13.782912, 49.73202], [13.782825, 49.732095], [13.782738, 49.732171], [13.78265, 49.732246], [13.782563, 49.732321], [13.782424, 49.73233], [13.782284, 49.732339], [13.782132, 49.732338], [13.78198, 49.732337], [13.781827, 49.732337], [13.781675, 49.732336], [13.781523, 49.732335], [13.78137, 49.732334], [13.781218, 49.732334], [13.781066, 49.732333], [13.780913, 49.732332], [13.780761, 49.732332], [13.780622, 49.732344], [13.780484, 49.732356], [13.780345, 49.732368], [13.780206, 49.73238], [13.780068, 49.732392], [13.779929, 49.732405], [13.779782, 49.732426], [13.779634, 49.732447], [13.779487, 49.732469], [13.779339, 49.73249], [13.779192, 49.732511], [13.779044, 49.732533], [13.778958, 49.732529], [13.778851, 49.732481], [13.778741, 49.732403], [13.778631, 49.732325], [13.778515, 49.732257], [13.778399, 49.732188], [13.778282, 49.73212], [13.778164, 49.732002], [13.778139, 49.731909], [13.778114, 49.731816], [13.778089, 49.731723], [13.778064, 49.73163], [13.778039, 49.731537], [13.778014, 49.731444], [13.778041, 49.731378], [13.778036, 49.731281]]}, "properties": {"dataset": "Meta MapWithAI 2019-12", "ai_highway": "residential", "fbid": "1373967942772932", "length_m": 522, "osm_highway_within_20m": false}}, {"type": "Feature", "geometry": {"type": "LineString", "coordinates": [[13.801886, 49.707648], [13.80202, 49.707704], [13.802186, 49.707738], [13.802344, 49.707787], [13.802501, 49.707835], [13.802658, 49.707884], [13.802798, 49.707933], [13.802937, 49.707983], [13.803077, 49.708032]]}, "properties": {"dataset": "Meta MapWithAI 2019-12", "ai_highway": "track", "fbid": "472717033602420", "length_m": 96, "osm_highway_within_20m": false}}, {"type": "Feature", "geometry": {"type": "LineString", "coordinates": [[13.821815, 49.748623], [13.821788, 49.748474], [13.82175, 49.748354], [13.821713, 49.748234], [13.821661, 49.74814], [13.821609, 49.748046], [13.821557, 49.747952]]}, "properties": {"dataset": "Meta MapWithAI 2019-12", "ai_highway": "track", "fbid": "439438217000144", "length_m": 77, "osm_highway_within_20m": false}}, {"type": "Feature", "geometry": {"type": "LineString", "coordinates": [[13.798828, 49.729048], [13.798673, 49.729109], [13.798517, 49.729169], [13.798361, 49.729229], [13.79827, 49.729298], [13.798195, 49.729309], [13.797938, 49.729309], [13.797895, 49.72934], [13.797664, 49.72944]]}, "properties": {"dataset": "Meta MapWithAI 2019-12", "ai_highway": "residential", "fbid": "811457665975767", "length_m": 98, "osm_highway_within_20m": false}}, {"type": "Feature", "geometry": {"type": "LineString", "coordinates": [[13.821337, 49.72589], [13.821509, 49.725934], [13.82168, 49.725977], [13.821868, 49.726012], [13.822002, 49.726019], [13.822134, 49.725975], [13.822265, 49.725932], [13.822401, 49.725904], [13.822537, 49.725876], [13.822673, 49.725849], [13.822809, 49.725821], [13.822945, 49.725793], [13.823081, 49.725765], [13.823217, 49.725738], [13.823353, 49.72571], [13.823488, 49.725682], [13.823624, 49.725654], [13.82376, 49.725627]]}, "properties": {"dataset": "Meta MapWithAI 2019-12", "ai_highway": "track", "fbid": "453462085310918", "length_m": 184, "osm_highway_within_20m": false}}, {"type": "Feature", "geometry": {"type": "LineString", "coordinates": [[13.782615, 49.719053], [13.782569, 49.718943], [13.78249, 49.718864], [13.782412, 49.718785], [13.782334, 49.718705], [13.782255, 49.718626], [13.782177, 49.718547], [13.78208, 49.718462], [13.781984, 49.718376], [13.781887, 49.718291], [13.781826, 49.718187]]}, "properties": {"dataset": "Meta MapWithAI 2019-12", "ai_highway": "track", "fbid": "1171192569755067", "length_m": 112, "osm_highway_within_20m": false}}, {"type": "Feature", "geometry": {"type": "LineString", "coordinates": [[13.825993, 49.704314], [13.82613, 49.704282], [13.826267, 49.704249], [13.826404, 49.704217], [13.826541, 49.704184], [13.826678, 49.704152], [13.826814, 49.704119], [13.826951, 49.704087], [13.827088, 49.704054], [13.827245, 49.70401], [13.827402, 49.703966], [13.827559, 49.703922]]}, "properties": {"dataset": "Meta MapWithAI 2019-12", "ai_highway": "residential", "fbid": "596257547857452", "length_m": 121, "osm_highway_within_20m": false}}, {"type": "Feature", "geometry": {"type": "LineString", "coordinates": [[13.830489, 49.705549], [13.830642, 49.705514], [13.830795, 49.705478], [13.830948, 49.705443], [13.8311, 49.705407], [13.831363, 49.705397], [13.831483, 49.705349], [13.831604, 49.705301], [13.831724, 49.705253], [13.831844, 49.705205], [13.831964, 49.705157], [13.832089, 49.705095], [13.832214, 49.705032], [13.832338, 49.70497], [13.832463, 49.704908], [13.832635, 49.704835], [13.832744, 49.704777], [13.832852, 49.70472], [13.832961, 49.704662], [13.83307, 49.704605], [13.833179, 49.704547], [13.833288, 49.70449], [13.833396, 49.704432], [13.833531, 49.704384], [13.833666, 49.704335], [13.833801, 49.704287], [13.833936, 49.704238], [13.834071, 49.704189], [13.834207, 49.704141], [13.834389, 49.704189], [13.834516, 49.704245], [13.834643, 49.704299], [13.83477, 49.704355], [13.834898, 49.704409], [13.835025, 49.704465], [13.835152, 49.704519], [13.835279, 49.704574], [13.835406, 49.704635], [13.835532, 49.704695], [13.835659, 49.704756], [13.835786, 49.704816], [13.835912, 49.704876], [13.836028, 49.704926], [13.836144, 49.704976], [13.83626, 49.705026], [13.836376, 49.705076], [13.836492, 49.705126], [13.836608, 49.705176], [13.836724, 49.705225], [13.83684, 49.705275], [13.837005, 49.705317], [13.837169, 49.705358]]}, "properties": {"dataset": "Meta MapWithAI 2019-12", "ai_highway": "residential", "fbid": "2541987445899037", "length_m": 567, "osm_highway_within_20m": false}}, {"type": "Feature", "geometry": {"type": "LineString", "coordinates": [[13.764796, 49.712185], [13.764836, 49.712075], [13.764875, 49.711966], [13.764914, 49.711856], [13.764969, 49.711769], [13.765024, 49.711682]]}, "properties": {"dataset": "Meta MapWithAI 2019-12", "ai_highway": "track", "fbid": "1016555152052115", "length_m": 58, "osm_highway_within_20m": false}}, {"type": "Feature", "geometry": {"type": "LineString", "coordinates": [[13.847794, 49.721135], [13.847655, 49.721171], [13.847516, 49.721206], [13.847376, 49.721242], [13.847237, 49.721277], [13.847097, 49.721313], [13.846958, 49.721349], [13.846818, 49.721384], [13.846679, 49.72142], [13.846539, 49.721455]]}, "properties": {"dataset": "Meta MapWithAI 2019-12", "ai_highway": "track", "fbid": "2608683849218925", "length_m": 97, "osm_highway_within_20m": false}}, {"type": "Feature", "geometry": {"type": "LineString", "coordinates": [[13.848245, 49.717099], [13.848347, 49.71717], [13.848449, 49.71724], [13.848551, 49.71731], [13.848653, 49.717381], [13.848755, 49.717451], [13.848847, 49.717521], [13.848939, 49.71759], [13.849031, 49.717659], [13.849123, 49.717729], [13.849215, 49.717798], [13.849307, 49.717867], [13.849398, 49.717937], [13.849499, 49.718009], [13.8496, 49.71808], [13.849701, 49.718152], [13.849802, 49.718224], [13.849903, 49.718296]]}, "properties": {"dataset": "Meta MapWithAI 2019-12", "ai_highway": "residential", "fbid": "2506834596267546", "length_m": 179, "osm_highway_within_20m": false}}, {"type": "Feature", "geometry": {"type": "LineString", "coordinates": [[13.816395, 49.714714], [13.816246, 49.714777], [13.816117, 49.714821], [13.815987, 49.714864], [13.815857, 49.714908], [13.815728, 49.714952], [13.815598, 49.714996], [13.815469, 49.71504], [13.815339, 49.715084], [13.815209, 49.715128], [13.81508, 49.715172], [13.81495, 49.715216], [13.81482, 49.71526], [13.814691, 49.715304], [13.814558, 49.715344], [13.814426, 49.715385], [13.814294, 49.715425], [13.814144, 49.715453], [13.814063, 49.71536], [13.813983, 49.715267], [13.813902, 49.715175], [13.813822, 49.715082], [13.813704, 49.714967], [13.813604, 49.714898], [13.813505, 49.714829], [13.813355, 49.714704], [13.813253, 49.71464], [13.813151, 49.714575], [13.813026, 49.714509], [13.812901, 49.714444], [13.812776, 49.714378], [13.812671, 49.714308], [13.812566, 49.714239], [13.812451, 49.714167], [13.812335, 49.714095], [13.812219, 49.714022], [13.812103, 49.71395], [13.811987, 49.713878], [13.811913, 49.713801]]}, "properties": {"dataset": "Meta MapWithAI 2019-12", "ai_highway": "track", "fbid": "2716260851799149", "length_m": 428, "osm_highway_within_20m": false}}, {"type": "Feature", "geometry": {"type": "LineString", "coordinates": [[13.799616, 49.714099], [13.799705, 49.714026], [13.799794, 49.713953], [13.799883, 49.71388], [13.799972, 49.713806], [13.800061, 49.713733], [13.80015, 49.71366]]}, "properties": {"dataset": "Meta MapWithAI 2019-12", "ai_highway": "track", "fbid": "485673322053325", "length_m": 62, "osm_highway_within_20m": false}}, {"type": "Feature", "geometry": {"type": "LineString", "coordinates": [[13.752496, 49.726958], [13.752638, 49.727001], [13.75278, 49.727045], [13.75293, 49.727105], [13.75308, 49.727165], [13.753231, 49.727225], [13.753358, 49.727281], [13.753486, 49.727337], [13.753614, 49.727393], [13.753742, 49.727449], [13.75387, 49.727505], [13.753998, 49.727561], [13.754137, 49.727612]]}, "properties": {"dataset": "Meta MapWithAI 2019-12", "ai_highway": "residential", "fbid": "421551715179559", "length_m": 139, "osm_highway_within_20m": false}}, {"type": "Feature", "geometry": {"type": "LineString", "coordinates": [[13.821831, 49.72246], [13.821847, 49.722557], [13.82182, 49.722686], [13.821854, 49.722779], [13.821887, 49.722871], [13.821921, 49.722964], [13.821954, 49.723057], [13.821941, 49.723149], [13.821927, 49.723241], [13.821938, 49.723414], [13.821986, 49.723527], [13.822035, 49.72364]]}, "properties": {"dataset": "Meta MapWithAI 2019-12", "ai_highway": "track", "fbid": "431229134186385", "length_m": 133, "osm_highway_within_20m": false}}, {"type": "Feature", "geometry": {"type": "LineString", "coordinates": [[13.830017, 49.738083], [13.829911, 49.738144], [13.829806, 49.738205], [13.8297, 49.738266], [13.829594, 49.738326], [13.829489, 49.738387], [13.829383, 49.738448], [13.829277, 49.738509], [13.829172, 49.73857], [13.829066, 49.73863], [13.828961, 49.738691], [13.828855, 49.738752], [13.828749, 49.738813], [13.828644, 49.738874], [13.828518, 49.738928], [13.828393, 49.738981], [13.828268, 49.739035]]}, "properties": {"dataset": "Meta MapWithAI 2019-12", "ai_highway": "unclassified", "fbid": "422403332040851", "length_m": 165, "osm_highway_within_20m": false}}, {"type": "Feature", "geometry": {"type": "LineString", "coordinates": [[13.806719, 49.712435], [13.806564, 49.712452], [13.80636, 49.712497], [13.806227, 49.712535], [13.806095, 49.712572], [13.805963, 49.712609], [13.805822, 49.712643], [13.805682, 49.712678], [13.805542, 49.712713], [13.805401, 49.712747]]}, "properties": {"dataset": "Meta MapWithAI 2019-12", "ai_highway": "track", "fbid": "2025884230847461", "length_m": 101, "osm_highway_within_20m": false}}, {"type": "Feature", "geometry": {"type": "LineString", "coordinates": [[13.822056, 49.705248], [13.822201, 49.70523], [13.822346, 49.705213], [13.822491, 49.705195], [13.822635, 49.705178], [13.822871, 49.705168], [13.823022, 49.705173], [13.823172, 49.705178], [13.823322, 49.705183], [13.823472, 49.705188], [13.823617, 49.705176], [13.823762, 49.705164], [13.823901, 49.705219], [13.824041, 49.705273], [13.82418, 49.705327], [13.824333, 49.705368], [13.824486, 49.705409], [13.824639, 49.70545], [13.824792, 49.70549], [13.824958, 49.705452], [13.825091, 49.705394], [13.825223, 49.705337], [13.825355, 49.705279], [13.825496, 49.705231], [13.825638, 49.705184]]}, "properties": {"dataset": "Meta MapWithAI 2019-12", "ai_highway": "track", "fbid": "724573328064004", "length_m": 276, "osm_highway_within_20m": false}}, {"type": "Feature", "geometry": {"type": "LineString", "coordinates": [[13.824588, 49.70336], [13.824518, 49.703423], [13.824418, 49.703496], [13.824318, 49.703569], [13.824218, 49.703641], [13.824068, 49.703725], [13.82395, 49.703773], [13.823832, 49.703822], [13.823714, 49.70387], [13.823596, 49.703919], [13.823478, 49.703968], [13.82336, 49.704016], [13.823242, 49.704065], [13.823124, 49.704113], [13.823006, 49.704162], [13.822888, 49.70421]]}, "properties": {"dataset": "Meta MapWithAI 2019-12", "ai_highway": "residential", "fbid": "566110623960034", "length_m": 156, "osm_highway_within_20m": false}}, {"type": "Feature", "geometry": {"type": "LineString", "coordinates": [[13.815597, 49.740843], [13.815699, 49.740904], [13.815801, 49.740966], [13.815903, 49.741027], [13.816005, 49.741089], [13.816107, 49.74115], [13.816209, 49.741212], [13.816311, 49.741273], [13.816413, 49.741334], [13.816515, 49.741396], [13.816617, 49.741457], [13.816718, 49.741519], [13.81682, 49.74158], [13.816922, 49.741642], [13.817024, 49.741703], [13.817126, 49.741764]]}, "properties": {"dataset": "Meta MapWithAI 2019-12", "ai_highway": "track", "fbid": "2532489486871949", "length_m": 150, "osm_highway_within_20m": false}}, {"type": "Feature", "geometry": {"type": "LineString", "coordinates": [[13.800604, 49.728144], [13.800545, 49.72822], [13.80042, 49.728303], [13.800294, 49.728386], [13.800169, 49.72847], [13.800051, 49.728527], [13.799933, 49.728585], [13.799815, 49.728643], [13.799697, 49.728695], [13.799579, 49.728747], [13.799461, 49.728799], [13.799348, 49.728858], [13.799236, 49.728917], [13.7991, 49.728961], [13.798964, 49.729005]]}, "properties": {"dataset": "Meta MapWithAI 2019-12", "ai_highway": "residential", "fbid": "2661501474070751", "length_m": 154, "osm_highway_within_20m": false}}, {"type": "Feature", "geometry": {"type": "LineString", "coordinates": [[13.841239, 49.711155], [13.841336, 49.711074], [13.841432, 49.710992], [13.841588, 49.710919], [13.841738, 49.710881], [13.841888, 49.710843], [13.842038, 49.710805], [13.842189, 49.710767], [13.842339, 49.710728], [13.842482, 49.710703], [13.842625, 49.710678]]}, "properties": {"dataset": "Meta MapWithAI 2019-12", "ai_highway": "residential", "fbid": "439710933335257", "length_m": 116, "osm_highway_within_20m": false}}, {"type": "Feature", "geometry": {"type": "LineString", "coordinates": [[13.817866, 49.730352], [13.817752, 49.730269], [13.817638, 49.730186], [13.817524, 49.730103], [13.81741, 49.730019], [13.8173, 49.729954], [13.81719, 49.729889], [13.81708, 49.729824], [13.81697, 49.729759], [13.81686, 49.729694], [13.816749, 49.729629], [13.816639, 49.729564], [13.816529, 49.729499], [13.816419, 49.729434], [13.816309, 49.729369], [13.816199, 49.729304], [13.816088, 49.729238], [13.815978, 49.729173], [13.815823, 49.729085], [13.815667, 49.728997], [13.815542, 49.728937], [13.815418, 49.728877], [13.815293, 49.728817], [13.815168, 49.728757], [13.815053, 49.728683], [13.814937, 49.728608], [13.814822, 49.728534], [13.814707, 49.728459], [13.814608, 49.728391], [13.814508, 49.728322], [13.814409, 49.728254], [13.81431, 49.728185], [13.814196, 49.728124], [13.814083, 49.728062], [13.81397, 49.728001], [13.813856, 49.72794], [13.813743, 49.727878], [13.813629, 49.727817], [13.813516, 49.727755]]}, "properties": {"dataset": "Meta MapWithAI 2019-12", "ai_highway": "track", "fbid": "744708776015119", "length_m": 426, "osm_highway_within_20m": false}}, {"type": "Feature", "geometry": {"type": "LineString", "coordinates": [[13.812926, 49.727414], [13.812797, 49.727319], [13.812652, 49.727248], [13.812507, 49.727178], [13.812363, 49.727107], [13.812234, 49.727031], [13.812089, 49.726972], [13.81198, 49.726907], [13.811871, 49.726841], [13.811763, 49.726776], [13.811654, 49.726711], [13.811545, 49.726646], [13.811436, 49.72658], [13.811328, 49.726515], [13.811219, 49.72645], [13.81111, 49.726385], [13.811001, 49.726319]]}, "properties": {"dataset": "Meta MapWithAI 2019-12", "ai_highway": "track", "fbid": "744708776015119", "length_m": 185, "osm_highway_within_20m": false}}, {"type": "Feature", "geometry": {"type": "LineString", "coordinates": [[13.754089, 49.70227], [13.753949, 49.702341], [13.753805, 49.702375], [13.75366, 49.70241], [13.753515, 49.702445], [13.75337, 49.702479]]}, "properties": {"dataset": "Meta MapWithAI 2019-12", "ai_highway": "unclassified", "fbid": "818585838579764", "length_m": 57, "osm_highway_within_20m": false}}, {"type": "Feature", "geometry": {"type": "LineString", "coordinates": [[13.821359, 49.741415], [13.821568, 49.741314], [13.821686, 49.741247], [13.821804, 49.74118], [13.821922, 49.741113], [13.822022, 49.741037], [13.822121, 49.740961], [13.822221, 49.740884], [13.82232, 49.740808], [13.82242, 49.740732], [13.82252, 49.740656], [13.822619, 49.740579], [13.822717, 49.740511], [13.822814, 49.740443], [13.822912, 49.740375], [13.823009, 49.740307], [13.823107, 49.740238], [13.823204, 49.74017], [13.823302, 49.740102], [13.8234, 49.740033], [13.823497, 49.739965], [13.823595, 49.739896], [13.823693, 49.739828], [13.823791, 49.739759], [13.823889, 49.739691], [13.823986, 49.739622], [13.824084, 49.739553], [13.824182, 49.739485], [13.82428, 49.739416], [13.824378, 49.739348], [13.824475, 49.739279], [13.824593, 49.739205], [13.824711, 49.739131], [13.824829, 49.739058], [13.824921, 49.738976], [13.825012, 49.738894]]}, "properties": {"dataset": "Meta MapWithAI 2019-12", "ai_highway": "unclassified", "fbid": "2638440416243710", "length_m": 385, "osm_highway_within_20m": false}}, {"type": "Feature", "geometry": {"type": "LineString", "coordinates": [[13.817453, 49.716071], [13.817501, 49.715971], [13.817548, 49.715871], [13.817595, 49.715771], [13.817642, 49.715671], [13.817689, 49.715571]]}, "properties": {"dataset": "Meta MapWithAI 2019-12", "ai_highway": "track", "fbid": "662784987587213", "length_m": 58, "osm_highway_within_20m": false}}, {"type": "Feature", "geometry": {"type": "LineString", "coordinates": [[13.818081, 49.715262], [13.818188, 49.715193], [13.818296, 49.715123], [13.818411, 49.715023], [13.818526, 49.714922], [13.81865, 49.714847], [13.818773, 49.714772], [13.818896, 49.714697], [13.819, 49.714618], [13.819104, 49.71454], [13.819207, 49.714461], [13.81932, 49.714399], [13.819433, 49.714336], [13.819631, 49.714274], [13.819795, 49.714265], [13.819959, 49.714256], [13.820122, 49.714248], [13.820286, 49.714239]]}, "properties": {"dataset": "Meta MapWithAI 2019-12", "ai_highway": "track", "fbid": "662784987587213", "length_m": 205, "osm_highway_within_20m": false}}, {"type": "Feature", "geometry": {"type": "LineString", "coordinates": [[13.808221, 49.710634], [13.808125, 49.710711], [13.808028, 49.710789], [13.807932, 49.710866], [13.807835, 49.710943], [13.807745, 49.711022], [13.807655, 49.7111], [13.807565, 49.711179], [13.807475, 49.711257], [13.807384, 49.711335], [13.807213, 49.711457], [13.807087, 49.711514]]}, "properties": {"dataset": "Meta MapWithAI 2019-12", "ai_highway": "path", "fbid": "2458426231071575", "length_m": 128, "osm_highway_within_20m": false}}, {"type": "Feature", "geometry": {"type": "LineString", "coordinates": [[13.798823, 49.741619], [13.798721, 49.74169], [13.798619, 49.74176], [13.798517, 49.741831], [13.798415, 49.741901], [13.798313, 49.741972], [13.798211, 49.742042], [13.798109, 49.742113], [13.798007, 49.742183], [13.797905, 49.742254], [13.797808, 49.74233], [13.79771, 49.742406], [13.797613, 49.742483], [13.797516, 49.742559]]}, "properties": {"dataset": "Meta MapWithAI 2019-12", "ai_highway": "track", "fbid": "568528730644131", "length_m": 141, "osm_highway_within_20m": false}}, {"type": "Feature", "geometry": {"type": "LineString", "coordinates": [[13.772656, 49.705931], [13.772801, 49.705963], [13.772945, 49.705995], [13.77309, 49.706027], [13.773234, 49.706059], [13.773378, 49.70608], [13.773521, 49.706101], [13.773665, 49.706122], [13.773808, 49.706142], [13.774007, 49.706219], [13.774168, 49.706247], [13.774311, 49.706281], [13.774455, 49.706316], [13.774598, 49.706351]]}, "properties": {"dataset": "Meta MapWithAI 2019-12", "ai_highway": "track", "fbid": "2511161955833854", "length_m": 148, "osm_highway_within_20m": false}}, {"type": "Feature", "geometry": {"type": "LineString", "coordinates": [[13.819497, 49.703235], [13.819631, 49.703322], [13.819765, 49.703409], [13.819894, 49.703465], [13.820055, 49.703527], [13.820203, 49.703569], [13.82035, 49.70361], [13.820511, 49.703669], [13.820672, 49.703728], [13.820789, 49.703788], [13.820906, 49.703848], [13.821023, 49.703908], [13.821141, 49.703969], [13.821258, 49.704029], [13.821375, 49.704089], [13.821529, 49.704144], [13.821682, 49.7042], [13.821836, 49.704255], [13.821963, 49.704302], [13.82209, 49.704348], [13.822217, 49.704394], [13.822458, 49.704464], [13.822591, 49.704517], [13.822723, 49.704571], [13.822855, 49.704625], [13.822988, 49.704679], [13.82312, 49.704732], [13.823252, 49.704786], [13.823368, 49.704858], [13.823483, 49.70493], [13.823598, 49.705002], [13.823714, 49.705074]]}, "properties": {"dataset": "Meta MapWithAI 2019-12", "ai_highway": "track", "fbid": "480760486119976", "length_m": 368, "osm_highway_within_20m": false}}, {"type": "Feature", "geometry": {"type": "LineString", "coordinates": [[13.823617, 49.727922], [13.823494, 49.727973], [13.82337, 49.728024], [13.823247, 49.728074], [13.823229, 49.728176], [13.823211, 49.728278], [13.823193, 49.728379], [13.823156, 49.728471], [13.823118, 49.728563], [13.823143, 49.728681], [13.823168, 49.728799], [13.823193, 49.728917], [13.823258, 49.729007], [13.823322, 49.729097]]}, "properties": {"dataset": "Meta MapWithAI 2019-12", "ai_highway": "residential", "fbid": "2847584551940330", "length_m": 148, "osm_highway_within_20m": false}}, {"type": "Feature", "geometry": {"type": "LineString", "coordinates": [[13.814337, 49.74673], [13.814199, 49.746764], [13.814061, 49.746799], [13.813924, 49.746834], [13.813794, 49.746877], [13.813665, 49.746921], [13.813535, 49.746965], [13.813406, 49.747008], [13.813276, 49.747052], [13.813147, 49.747096]]}, "properties": {"dataset": "Meta MapWithAI 2019-12", "ai_highway": "track", "fbid": "739469226545698", "length_m": 95, "osm_highway_within_20m": false}}, {"type": "Feature", "geometry": {"type": "LineString", "coordinates": [[13.802047, 49.714267], [13.802194, 49.714291], [13.802341, 49.714316], [13.802488, 49.714341], [13.802636, 49.714365], [13.802783, 49.71439], [13.80293, 49.714415], [13.803077, 49.714439], [13.803225, 49.714464], [13.803372, 49.714489], [13.803635, 49.71452], [13.803838, 49.714523]]}, "properties": {"dataset": "Meta MapWithAI 2019-12", "ai_highway": "track", "fbid": "600920647314156", "length_m": 132, "osm_highway_within_20m": false}}, {"type": "Feature", "geometry": {"type": "LineString", "coordinates": [[13.797246, 49.728813], [13.797144, 49.728813], [13.796961, 49.728761], [13.796779, 49.728709], [13.796632, 49.728658], [13.796486, 49.728607]]}, "properties": {"dataset": "Meta MapWithAI 2019-12", "ai_highway": "residential", "fbid": "2846809418671584", "length_m": 60, "osm_highway_within_20m": false}}, {"type": "Feature", "geometry": {"type": "LineString", "coordinates": [[13.834207, 49.704141], [13.834085, 49.704097], [13.833963, 49.704053], [13.833842, 49.704009], [13.833638, 49.703999], [13.833493, 49.703881], [13.833391, 49.703818], [13.833289, 49.703756], [13.83316, 49.703655], [13.832973, 49.703555], [13.832834, 49.703495], [13.832696, 49.703435], [13.832557, 49.703376], [13.832419, 49.703316], [13.832281, 49.703256], [13.832158, 49.703208], [13.832036, 49.70316], [13.831913, 49.703112], [13.831791, 49.703064]]}, "properties": {"dataset": "Meta MapWithAI 2019-12", "ai_highway": "path", "fbid": "2969636146595429", "length_m": 215, "osm_highway_within_20m": false}}, {"type": "Feature", "geometry": {"type": "LineString", "coordinates": [[13.84007, 49.727107], [13.840161, 49.727189], [13.840252, 49.727271], [13.840343, 49.727353], [13.840435, 49.727434], [13.840526, 49.727516], [13.840649, 49.727589]]}, "properties": {"dataset": "Meta MapWithAI 2019-12", "ai_highway": "track", "fbid": "560238527884330", "length_m": 68, "osm_highway_within_20m": false}}, {"type": "Feature", "geometry": {"type": "LineString", "coordinates": [[13.811963, 49.703065], [13.81208, 49.703116], [13.812196, 49.703168], [13.81225, 49.703209], [13.812368, 49.703263], [13.812486, 49.703318], [13.812604, 49.703372], [13.812722, 49.703426], [13.81284, 49.70348], [13.812958, 49.703534], [13.813076, 49.703588]]}, "properties": {"dataset": "Microsoft Road Detections 2025-04", "length_m": 99, "osm_highway_within_20m": false}}, {"type": "Feature", "geometry": {"type": "LineString", "coordinates": [[13.813548, 49.703805], [13.813666, 49.703859], [13.813784, 49.703913], [13.813902, 49.703967], [13.81402, 49.704021], [13.814126, 49.704082], [13.814232, 49.704143], [13.814338, 49.704203], [13.814444, 49.704264], [13.81455, 49.704325]]}, "properties": {"dataset": "Microsoft Road Detections 2025-04", "length_m": 92, "osm_highway_within_20m": false}}, {"type": "Feature", "geometry": {"type": "LineString", "coordinates": [[13.752211, 49.730735], [13.752285, 49.730812], [13.752358, 49.73089], [13.752431, 49.730967], [13.752505, 49.731045], [13.752578, 49.731122], [13.752651, 49.7312], [13.752801, 49.731297], [13.752924, 49.73125], [13.753046, 49.731203], [13.753168, 49.731156], [13.75329, 49.731109], [13.753412, 49.731062], [13.753534, 49.731015], [13.753656, 49.730968], [13.753779, 49.730921], [13.753901, 49.730874], [13.754023, 49.730827], [13.754145, 49.73078], [13.754267, 49.730733], [13.754389, 49.730686], [13.754513, 49.730617], [13.754636, 49.730548], [13.754759, 49.730478], [13.754883, 49.730409], [13.755017, 49.730333], [13.755151, 49.730256], [13.755237, 49.730166], [13.755273, 49.730074], [13.755308, 49.729981]]}, "properties": {"dataset": "Microsoft Road Detections 2025-04", "length_m": 314, "osm_highway_within_20m": false}}, {"type": "Feature", "geometry": {"type": "LineString", "coordinates": [[13.76316, 49.734428], [13.763316, 49.734424], [13.763445, 49.734377], [13.763575, 49.73433], [13.763705, 49.734283], [13.763835, 49.734235], [13.763965, 49.734188], [13.764095, 49.734141], [13.764224, 49.734094], [13.764354, 49.734047], [13.764484, 49.734], [13.764614, 49.733953], [13.764748, 49.73389], [13.764882, 49.733828], [13.764979, 49.733731], [13.765075, 49.733634], [13.765134, 49.733531], [13.765193, 49.733429], [13.765252, 49.733327], [13.765311, 49.733224], [13.765354, 49.733072], [13.765343, 49.732989], [13.765268, 49.732892], [13.765118, 49.732843]]}, "properties": {"dataset": "Microsoft Road Detections 2025-04", "length_m": 267, "osm_highway_within_20m": false}}, {"type": "Feature", "geometry": {"type": "LineString", "coordinates": [[13.799535, 49.714162], [13.79962, 49.714084], [13.799705, 49.714006], [13.79979, 49.713929], [13.799875, 49.713851], [13.79996, 49.713773], [13.800045, 49.713696], [13.800131, 49.713618], [13.800216, 49.71354], [13.800301, 49.713462], [13.800386, 49.713385], [13.800471, 49.713307], [13.800556, 49.713229]]}, "properties": {"dataset": "Microsoft Road Detections 2025-04", "length_m": 127, "osm_highway_within_20m": false}}, {"type": "Feature", "geometry": {"type": "LineString", "coordinates": [[13.822507, 49.733245], [13.822609, 49.733315], [13.822712, 49.733384], [13.822815, 49.733453], [13.822917, 49.733523], [13.82302, 49.733592]]}, "properties": {"dataset": "Microsoft Road Detections 2025-04", "length_m": 53, "osm_highway_within_20m": false}}, {"type": "Feature", "geometry": {"type": "LineString", "coordinates": [[13.806367, 49.723816], [13.806483, 49.723876], [13.806599, 49.723936], [13.806716, 49.723996], [13.806832, 49.724056], [13.806948, 49.724116], [13.807064, 49.724176], [13.807181, 49.724236], [13.807297, 49.724297], [13.807413, 49.724357]]}, "properties": {"dataset": "Microsoft Road Detections 2025-04", "length_m": 96, "osm_highway_within_20m": false}}, {"type": "Feature", "geometry": {"type": "LineString", "coordinates": [[13.776855, 49.7383], [13.776855, 49.738392], [13.776855, 49.738485], [13.776855, 49.738577], [13.776855, 49.738669], [13.776855, 49.738762], [13.776855, 49.738854], [13.776855, 49.738946], [13.776855, 49.739039], [13.776855, 49.739131], [13.776855, 49.739223], [13.776855, 49.739316], [13.776855, 49.739408]]}, "properties": {"dataset": "Microsoft Road Detections 2025-04", "length_m": 123, "osm_highway_within_20m": false}}]}