{"type": "FeatureCollection", "features": [{"type": "Feature", "geometry": {"type": "Point", "coordinates": [16.586432, 49.236989]}, "properties": {"kod_detske_skupiny": "DS00603", "nazev_ds": "Dětská skupina SMARTbaby Brno 1", "kapacita_ds": "12", "misto_poskytovani_ds": "Kuřimská 1260/2, Brno - Řečkovice a Mokrá Hora, 621 00", "vznik_opravneni_ds": "2018-03-19", "geocoded_to": "Kuřimská 1260/2, Řečkovice, 62100 Brno", "osm_2026_09_28": "OSM childcare within 100 m"}}, {"type": "Feature", "geometry": {"type": "Point", "coordinates": [16.586432, 49.236989]}, "properties": {"kod_detske_skupiny": "DS00698", "nazev_ds": "Dětská skupina SMARTbaby Brno 3", "kapacita_ds": "12", "misto_poskytovani_ds": "Kuřimská 1260/2, Brno - Řečkovice a Mokrá Hora, 621 00", "vznik_opravneni_ds": "2018-05-29", "geocoded_to": "Kuřimská 1260/2, Řečkovice, 62100 Brno", "osm_2026_09_28": "OSM childcare within 100 m"}}, {"type": "Feature", "geometry": {"type": "Point", "coordinates": [16.586432, 49.236989]}, "properties": {"kod_detske_skupiny": "DS00828", "nazev_ds": "Dětská skupina SMARTbaby Brno 2", "kapacita_ds": "12", "misto_poskytovani_ds": "Kuřimská 1260/2, Brno - Řečkovice a Mokrá Hora, 621 00", "vznik_opravneni_ds": "2018-09-07", "geocoded_to": "Kuřimská 1260/2, Řečkovice, 62100 Brno", "osm_2026_09_28": "OSM childcare within 100 m"}}, {"type": "Feature", "geometry": {"type": "Point", "coordinates": [16.612561, 49.206846]}, "properties": {"kod_detske_skupiny": "DS00368", "nazev_ds": "Dětská skupina Drobného I.", "kapacita_ds": "24", "misto_poskytovani_ds": "Drobného 304/30, Brno - Černá Pole, 602 00", "vznik_opravneni_ds": "2017-08-22", "geocoded_to": "Drobného 304/30, Černá Pole, 60200 Brno", "osm_2026_09_28": "nothing in OSM within 100 m"}}, {"type": "Feature", "geometry": {"type": "Point", "coordinates": [16.612561, 49.206846]}, "properties": {"kod_detske_skupiny": "DS00130", "nazev_ds": "Dětská skupina Drobného II.", "kapacita_ds": "12", "misto_poskytovani_ds": "Drobného 304/30, Brno - Brno - Královo Pole, 602 00", "vznik_opravneni_ds": "2016-05-30", "geocoded_to": "Drobného 304/30, Černá Pole, 60200 Brno", "osm_2026_09_28": "nothing in OSM within 100 m"}}, {"type": "Feature", "geometry": {"type": "Point", "coordinates": [16.59588, 49.197817]}, "properties": {"kod_detske_skupiny": "DS00017", "nazev_ds": "Dětská skupina Motejlci", "kapacita_ds": "12", "misto_poskytovani_ds": "Údolní 658/39, Brno, 602 00", "vznik_opravneni_ds": "2015-06-29", "geocoded_to": "Údolní 658/39, Brno-město, 60200 Brno", "osm_2026_09_28": "nothing in OSM within 100 m"}}, {"type": "Feature", "geometry": {"type": "Point", "coordinates": [16.507428, 49.220673]}, "properties": {"kod_detske_skupiny": "DS00031", "nazev_ds": "Dětská skupina Chovánek", "kapacita_ds": "12", "misto_poskytovani_ds": "Vejrostova 1361/8, Brno - Bystrc, 635 00", "vznik_opravneni_ds": "2015-08-10", "geocoded_to": "Vejrostova 1361/8, Bystrc, 63500 Brno", "osm_2026_09_28": "nothing in OSM within 100 m"}}, {"type": "Feature", "geometry": {"type": "Point", "coordinates": [16.621505, 49.219318]}, "properties": {"kod_detske_skupiny": "DS00040", "nazev_ds": "Dětská skupina Fügnerova - I. oddělení", "kapacita_ds": "12", "misto_poskytovani_ds": "Fügnerova 466/39, Brno - Černá pole, 613 00", "vznik_opravneni_ds": "2015-09-07", "geocoded_to": "Fügnerova 466/39, Černá Pole, 61300 Brno", "osm_2026_09_28": "OSM kindergarten within 100 m"}}, {"type": "Feature", "geometry": {"type": "Point", "coordinates": [16.621505, 49.219318]}, "properties": {"kod_detske_skupiny": "DS00041", "nazev_ds": "Dětská skupina Fügnerova - II. oddělení", "kapacita_ds": "16", "misto_poskytovani_ds": "Fügnerova 466/39, Brno - Černá pole, 613 00", "vznik_opravneni_ds": "2015-09-07", "geocoded_to": "Fügnerova 466/39, Černá Pole, 61300 Brno", "osm_2026_09_28": "OSM kindergarten within 100 m"}}, {"type": "Feature", "geometry": {"type": "Point", "coordinates": [16.621505, 49.219318]}, "properties": {"kod_detske_skupiny": "DS00042", "nazev_ds": "Dětská skupina Fügnerova - III. oddělení", "kapacita_ds": "17", "misto_poskytovani_ds": "Fügnerova 466/39, Brno - Černá pole, 613 00", "vznik_opravneni_ds": "2015-09-07", "geocoded_to": "Fügnerova 466/39, Černá Pole, 61300 Brno", "osm_2026_09_28": "OSM kindergarten within 100 m"}}, {"type": "Feature", "geometry": {"type": "Point", "coordinates": [16.539299, 49.196462]}, "properties": {"kod_detske_skupiny": "DS00043", "nazev_ds": "Dětská skupina Stamicova - I. oddělení", "kapacita_ds": "12", "misto_poskytovani_ds": "Stamicova 571/9, Brno - Kohoutovice, 623 00", "vznik_opravneni_ds": "2015-09-07", "geocoded_to": "Stamicova 571/9, Kohoutovice, 62300 Brno", "osm_2026_09_28": "OSM kindergarten within 100 m"}}, {"type": "Feature", "geometry": {"type": "Point", "coordinates": [16.539299, 49.196462]}, "properties": {"kod_detske_skupiny": "DS00044", "nazev_ds": "Dětská skupina Stamicova - II. oddělení", "kapacita_ds": "23", "misto_poskytovani_ds": "Stamicova 571/9, Brno - Kohoutovice, 623 00", "vznik_opravneni_ds": "2015-09-07", "geocoded_to": "Stamicova 571/9, Kohoutovice, 62300 Brno", "osm_2026_09_28": "OSM kindergarten within 100 m"}}, {"type": "Feature", "geometry": {"type": "Point", "coordinates": [16.595017, 49.206042]}, "properties": {"kod_detske_skupiny": "DS00258", "nazev_ds": "Dětská skupina Zahradníkova", "kapacita_ds": "22", "misto_poskytovani_ds": "Nerudova 321/7, Veveří, 602 00 Brno", "vznik_opravneni_ds": "2017-01-01", "geocoded_to": "Nerudova 321/7, Veveří, 60200 Brno", "osm_2026_09_28": "nothing in OSM within 100 m"}}, {"type": "Feature", "geometry": {"type": "Point", "coordinates": [16.595017, 49.206042]}, "properties": {"kod_detske_skupiny": "DS01499", "nazev_ds": "Dětská skupina Nerudova", "kapacita_ds": "8", "misto_poskytovani_ds": "Nerudova 321/7, Veveří, 60200 Brno", "vznik_opravneni_ds": "2022-09-14", "geocoded_to": "Nerudova 321/7, Veveří, 60200 Brno", "osm_2026_09_28": "nothing in OSM within 100 m"}}, {"type": "Feature", "geometry": {"type": "Point", "coordinates": [16.553696, 49.168601]}, "properties": {"kod_detske_skupiny": "DS01536", "nazev_ds": "Dětská skupina Kyjevská", "kapacita_ds": "12", "misto_poskytovani_ds": "Kyjevská 5/393, Brno - Bohunice, 625 00", "vznik_opravneni_ds": "2022-10-03", "geocoded_to": "Kyjevská 393/5, Starý Lískovec, 62500 Brno", "osm_2026_09_28": "OSM kindergarten within 100 m"}}, {"type": "Feature", "geometry": {"type": "Point", "coordinates": [16.598768, 49.197702]}, "properties": {"kod_detske_skupiny": "DS00370", "nazev_ds": "Dětská skupina Pidilidi v OZ, z. s.", "kapacita_ds": "12", "misto_poskytovani_ds": "Údolní 567/33, Brno, 602 00", "vznik_opravneni_ds": "2017-08-24", "geocoded_to": "Údolní 567/33, Brno-město, 60200 Brno", "osm_2026_09_28": "nothing in OSM within 100 m"}}, {"type": "Feature", "geometry": {"type": "Point", "coordinates": [16.637807, 49.200163]}, "properties": {"kod_detske_skupiny": "DS00261", "nazev_ds": "Dětská skupina Pupálek", "kapacita_ds": "12", "misto_poskytovani_ds": "Gebauerova 4502/18, Židenice, 615 00 Brno", "vznik_opravneni_ds": "2017-01-01", "geocoded_to": "Gebauerova 4502/18, Židenice, 61500 Brno", "osm_2026_09_28": "nothing in OSM within 100 m"}}, {"type": "Feature", "geometry": {"type": "Point", "coordinates": [16.607262, 49.203324]}, "properties": {"kod_detske_skupiny": "DS00398", "nazev_ds": "ČLOVÍČEK - dětská skupina II.", "kapacita_ds": "12", "misto_poskytovani_ds": "Lidická 1874/38, Brno - Černá pole, 602 00", "vznik_opravneni_ds": "2017-09-18", "geocoded_to": "Lidická 1874/38, Černá Pole, 60200 Brno", "osm_2026_09_28": "OSM kindergarten within 100 m"}}, {"type": "Feature", "geometry": {"type": "Point", "coordinates": [16.605356, 49.202084]}, "properties": {"kod_detske_skupiny": "DS00106", "nazev_ds": "Dětská skupina Filiánek", "kapacita_ds": "12", "misto_poskytovani_ds": "Antonínská 564/18, Veveří, 602 00 Brno", "vznik_opravneni_ds": "2016-05-09", "geocoded_to": "Antonínská 564/18, Veveří, 60200 Brno", "osm_2026_09_28": "nothing in OSM within 100 m"}}, {"type": "Feature", "geometry": {"type": "Point", "coordinates": [16.64922, 49.198875]}, "properties": {"kod_detske_skupiny": "DS00244", "nazev_ds": "Dětská skupina - IRS", "kapacita_ds": "12", "misto_poskytovani_ds": "Viniční 2270/160, Brno - Židenice, 615 00", "vznik_opravneni_ds": "2016-10-18", "geocoded_to": "Viniční 2270/160, Židenice, 61500 Brno", "osm_2026_09_28": "nothing in OSM within 100 m"}}, {"type": "Feature", "geometry": {"type": "Point", "coordinates": [16.497004, 49.219669]}, "properties": {"kod_detske_skupiny": "DS00418", "nazev_ds": "Dětská skupina - IRS II", "kapacita_ds": "12", "misto_poskytovani_ds": "Říčanská 1000/29, Brno - Žebětín, 641 00", "vznik_opravneni_ds": "2017-10-05", "geocoded_to": "Říčanská 1000/29, Žebětín, 64100 Brno", "osm_2026_09_28": "nothing in OSM within 100 m"}}, {"type": "Feature", "geometry": {"type": "Point", "coordinates": [16.528782, 49.192788]}, "properties": {"kod_detske_skupiny": "DS00568", "nazev_ds": "Dětská skupina - IRS I", "kapacita_ds": "24", "misto_poskytovani_ds": "Bellova 504/1, Brno - Kohoutovice, 623 00", "vznik_opravneni_ds": "2018-02-23", "geocoded_to": "Bellova 504/1, Kohoutovice, 62300 Brno", "osm_2026_09_28": "nothing in OSM within 100 m"}}, {"type": "Feature", "geometry": {"type": "Point", "coordinates": [16.528782, 49.192788]}, "properties": {"kod_detske_skupiny": "DS01415", "nazev_ds": "Dětská skupina - IRS V", "kapacita_ds": "3", "misto_poskytovani_ds": "Bellova 504/1, Brno, 623 00", "vznik_opravneni_ds": "2022-01-31", "geocoded_to": "Bellova 504/1, Kohoutovice, 62300 Brno", "osm_2026_09_28": "nothing in OSM within 100 m"}}, {"type": "Feature", "geometry": {"type": "Point", "coordinates": [16.582075, 49.165465]}, "properties": {"kod_detske_skupiny": "DS00295", "nazev_ds": "DĚTSKÁ SKUPINA MONTESSORI LÁNY", "kapacita_ds": "24", "misto_poskytovani_ds": "Lány 34, Brno - Bohunice, 625 00", "vznik_opravneni_ds": "2017-04-01", "geocoded_to": "Lány 161/34, Bohunice, 62500 Brno", "osm_2026_09_28": "nothing in OSM within 100 m"}}, {"type": "Feature", "geometry": {"type": "Point", "coordinates": [16.654742, 49.207308]}, "properties": {"kod_detske_skupiny": "DS00373", "nazev_ds": "ZEMĚKVÍTEK DĚTSKÁ SKUPINA", "kapacita_ds": "12", "misto_poskytovani_ds": "Tvrdonická 4535/11, Brno - Židenice, 628 00", "vznik_opravneni_ds": "2017-08-28", "geocoded_to": "Tvrdonická 4535/11, Židenice, 62800 Brno", "osm_2026_09_28": "OSM kindergarten within 100 m"}}, {"type": "Feature", "geometry": {"type": "Point", "coordinates": [16.612512, 49.204701]}, "properties": {"kod_detske_skupiny": "DS00390", "nazev_ds": "Dětská skupina Mateřinka", "kapacita_ds": "8", "misto_poskytovani_ds": "Vrchlického sad 1894/4, Brno - Černá Pole, 602 00", "vznik_opravneni_ds": "2017-09-05", "geocoded_to": "Vrchlického sad 1894/4, Černá Pole, 60200 Brno", "osm_2026_09_28": "nothing in OSM within 100 m"}}, {"type": "Feature", "geometry": {"type": "Point", "coordinates": [16.599812, 49.200163]}, "properties": {"kod_detske_skupiny": "DS01438", "nazev_ds": "Dětská skupina Hýbánky", "kapacita_ds": "18", "misto_poskytovani_ds": "Gorkého 58/8, Veveří, 602 00 Brno", "vznik_opravneni_ds": "2022-08-03", "geocoded_to": "Gorkého 58/8, Veveří, 60200 Brno", "osm_2026_09_28": "nothing in OSM within 100 m"}}, {"type": "Feature", "geometry": {"type": "Point", "coordinates": [16.600391, 49.201504]}, "properties": {"kod_detske_skupiny": "DS01683", "nazev_ds": "Dětská skupina Háječek2", "kapacita_ds": "12", "misto_poskytovani_ds": "Pekárenská 327/6, Brno - Veveří, 602 00", "vznik_opravneni_ds": "2023-01-17", "geocoded_to": "Pekárenská 327/6, Veveří, 60200 Brno", "osm_2026_09_28": "OSM kindergarten within 100 m"}}, {"type": "Feature", "geometry": {"type": "Point", "coordinates": [16.599812, 49.200163]}, "properties": {"kod_detske_skupiny": "DS01776", "nazev_ds": "Dětská skupina Loučka 2", "kapacita_ds": "12", "misto_poskytovani_ds": "Gorkého 58/8, Brno - Veveří, 602 00", "vznik_opravneni_ds": "2023-08-01", "geocoded_to": "Gorkého 58/8, Veveří, 60200 Brno", "osm_2026_09_28": "nothing in OSM within 100 m"}}, {"type": "Feature", "geometry": {"type": "Point", "coordinates": [16.585237, 49.189853]}, "properties": {"kod_detske_skupiny": "DS02009", "nazev_ds": "Dětská skupina Palouček 2", "kapacita_ds": "24", "misto_poskytovani_ds": "Hlinky 135/68, Brno - Staré Brno, 603 00", "vznik_opravneni_ds": "2024-03-27", "geocoded_to": "Hlinky 135/68, Staré Brno, 60300 Brno", "osm_2026_09_28": "OSM kindergarten within 100 m"}}, {"type": "Feature", "geometry": {"type": "Point", "coordinates": [16.578881, 49.241452]}, "properties": {"kod_detske_skupiny": "DS00205", "nazev_ds": "Montessori dětská skupina Kvítek", "kapacita_ds": "16", "misto_poskytovani_ds": "Ječná 1321/29a, Brno - Řečkovice, 621 00", "vznik_opravneni_ds": "2016-09-01", "geocoded_to": "Ječná 1321/29a, Řečkovice, 62100 Brno", "osm_2026_09_28": "nothing in OSM within 100 m"}}, {"type": "Feature", "geometry": {"type": "Point", "coordinates": [16.650189, 49.229627]}, "properties": {"kod_detske_skupiny": "DS10242", "nazev_ds": "Sportovní dětská skupina Bobříci", "kapacita_ds": "12", "misto_poskytovani_ds": "Kmochova 163/9, Obřany, 614 00 Brno", "vznik_opravneni_ds": "2025-08-26", "geocoded_to": "Kmochova 163/9, Obřany, 61400 Brno", "osm_2026_09_28": "OSM childcare within 100 m"}}, {"type": "Feature", "geometry": {"type": "Point", "coordinates": [16.604572, 49.206783]}, "properties": {"kod_detske_skupiny": "DS00187", "nazev_ds": "Dětská skupina Panáčci 2", "kapacita_ds": "18", "misto_poskytovani_ds": "Lidická 718/77, Brno - Veveří, 602 00", "vznik_opravneni_ds": "2016-09-01", "geocoded_to": "Lidická 718/77, Veveří, 60200 Brno", "osm_2026_09_28": "nothing in OSM within 100 m"}}, {"type": "Feature", "geometry": {"type": "Point", "coordinates": [16.666771, 49.145904]}, "properties": {"kod_detske_skupiny": "DS00814", "nazev_ds": "Dětská skupina Panáčci 5", "kapacita_ds": "12", "misto_poskytovani_ds": "Tuřanské náměstí 939/6, Brno - Tuřany, 620 00", "vznik_opravneni_ds": "2018-08-30", "geocoded_to": "Tuřanské náměstí 939/6, Tuřany, 62000 Brno", "osm_2026_09_28": "nothing in OSM within 100 m"}}, {"type": "Feature", "geometry": {"type": "Point", "coordinates": [16.597313, 49.208801]}, "properties": {"kod_detske_skupiny": "DS01869", "nazev_ds": "Dětská skupina Sedmikráska", "kapacita_ds": "12", "misto_poskytovani_ds": "Hrnčířská 901/43, Brno, 602 00", "vznik_opravneni_ds": "2023-10-01", "geocoded_to": "Hrnčířská 901/43, Veveří, 60200 Brno", "osm_2026_09_28": "OSM kindergarten within 100 m"}}, {"type": "Feature", "geometry": {"type": "Point", "coordinates": [16.512485, 49.222117]}, "properties": {"kod_detske_skupiny": "DS00203", "nazev_ds": "Dětská skupina ŽABKA", "kapacita_ds": "12", "misto_poskytovani_ds": "Čihadla 1390/1, Brno - Bystrc, 635 00", "vznik_opravneni_ds": "2016-09-01", "geocoded_to": "Čihadla 1390/1, Bystrc, 63500 Brno", "osm_2026_09_28": "OSM childcare within 100 m"}}, {"type": "Feature", "geometry": {"type": "Point", "coordinates": [16.512485, 49.222117]}, "properties": {"kod_detske_skupiny": "DS00858", "nazev_ds": "Dětská skupina ŽELVIČKA", "kapacita_ds": "12", "misto_poskytovani_ds": "Čihadla 1390/1, Brno - Bystrc, 635 00", "vznik_opravneni_ds": "2018-10-30", "geocoded_to": "Čihadla 1390/1, Bystrc, 63500 Brno", "osm_2026_09_28": "OSM childcare within 100 m"}}, {"type": "Feature", "geometry": {"type": "Point", "coordinates": [16.639799, 49.17906]}, "properties": {"kod_detske_skupiny": "DS00229", "nazev_ds": "Dětská skupina SUNRISE", "kapacita_ds": "15", "misto_poskytovani_ds": "Charbulova 100/137, Brno - Černovice, 618 00", "vznik_opravneni_ds": "2016-10-01", "geocoded_to": "Charbulova 100/137, Černovice, 61800 Brno", "osm_2026_09_28": "OSM kindergarten within 100 m"}}, {"type": "Feature", "geometry": {"type": "Point", "coordinates": [16.639799, 49.17906]}, "properties": {"kod_detske_skupiny": "DS00351", "nazev_ds": "Dětská skupina - SUNRISE II", "kapacita_ds": "12", "misto_poskytovani_ds": "Charbulova 100/137, Brno - Černovice, 618 00", "vznik_opravneni_ds": "2017-08-10", "geocoded_to": "Charbulova 100/137, Černovice, 61800 Brno", "osm_2026_09_28": "OSM kindergarten within 100 m"}}, {"type": "Feature", "geometry": {"type": "Point", "coordinates": [16.639799, 49.17906]}, "properties": {"kod_detske_skupiny": "DS01897", "nazev_ds": "Dětská skupina SUNRISE III.", "kapacita_ds": "12", "misto_poskytovani_ds": "Charbulova 100/137, Brno - ČERNOVICE, 618 00", "vznik_opravneni_ds": "2023-11-21", "geocoded_to": "Charbulova 100/137, Černovice, 61800 Brno", "osm_2026_09_28": "OSM kindergarten within 100 m"}}, {"type": "Feature", "geometry": {"type": "Point", "coordinates": [16.639799, 49.17906]}, "properties": {"kod_detske_skupiny": "DS02280", "nazev_ds": "Dětská skupina SUNRISE IV.", "kapacita_ds": "12", "misto_poskytovani_ds": "Charbulova 100/137, Brno - Černovice, 618 00", "vznik_opravneni_ds": "2024-12-20", "geocoded_to": "Charbulova 100/137, Černovice, 61800 Brno", "osm_2026_09_28": "OSM kindergarten within 100 m"}}, {"type": "Feature", "geometry": {"type": "Point", "coordinates": [16.677777, 49.210331]}, "properties": {"kod_detske_skupiny": "DS00094", "nazev_ds": "DĚTSKÁ SKUPINA ŠKOLKA PASTELKA", "kapacita_ds": "17", "misto_poskytovani_ds": "Poláčkova 13, Brno - Líšeň, 628 00", "vznik_opravneni_ds": "2016-04-18", "geocoded_to": "Poláčkova 2431/13, Líšeň, 62800 Brno", "osm_2026_09_28": "OSM kindergarten within 100 m"}}, {"type": "Feature", "geometry": {"type": "Point", "coordinates": [16.682041, 49.213078]}, "properties": {"kod_detske_skupiny": "DS01390", "nazev_ds": "Dětská skupina MikroPastelka", "kapacita_ds": "6", "misto_poskytovani_ds": "Horníkova 34/2485, Brno - Líšeň, 628 00", "vznik_opravneni_ds": "2022-01-26", "geocoded_to": "Horníkova 2485/34, Líšeň, 62800 Brno", "osm_2026_09_28": "nothing in OSM within 100 m"}}, {"type": "Feature", "geometry": {"type": "Point", "coordinates": [16.601807, 49.196263]}, "properties": {"kod_detske_skupiny": "DS00461", "nazev_ds": "Dětská skupina Euric", "kapacita_ds": "20", "misto_poskytovani_ds": "Údolní 223/7, Brno, 602 00", "vznik_opravneni_ds": "2017-11-14", "geocoded_to": "Údolní 223/7, Brno-město, 60200 Brno", "osm_2026_09_28": "OSM kindergarten within 100 m"}}, {"type": "Feature", "geometry": {"type": "Point", "coordinates": [16.58177, 49.249124]}, "properties": {"kod_detske_skupiny": "DS00442", "nazev_ds": "Dětská skupina Elánek", "kapacita_ds": "15", "misto_poskytovani_ds": "Vážného 2091/15, Brno - Řečkovice, 621 00", "vznik_opravneni_ds": "2017-10-30", "geocoded_to": "Vážného 2091/15, Řečkovice, 62100 Brno", "osm_2026_09_28": "nothing in OSM within 100 m"}}, {"type": "Feature", "geometry": {"type": "Point", "coordinates": [16.609568, 49.232138]}, "properties": {"kod_detske_skupiny": "DS01022", "nazev_ds": "Dětská skupina Sadová NFE", "kapacita_ds": "24", "misto_poskytovani_ds": "Gustava Broma 189/35, Sadová, 612 00 Brno", "vznik_opravneni_ds": "2019-11-15", "geocoded_to": "Gustava Broma 189/35, Sadová, 61200 Brno", "osm_2026_09_28": "OSM kindergarten within 100 m"}}, {"type": "Feature", "geometry": {"type": "Point", "coordinates": [16.593995, 49.185042]}, "properties": {"kod_detske_skupiny": "DS00499", "nazev_ds": "Dětská skupina Elánek Kamínek", "kapacita_ds": "18", "misto_poskytovani_ds": "Kamenná 177/6, Brno - Štýřice, 639 00", "vznik_opravneni_ds": "2017-12-20", "geocoded_to": "Kamenná 177/6, Štýřice, 63900 Brno", "osm_2026_09_28": "nothing in OSM within 100 m"}}, {"type": "Feature", "geometry": {"type": "Point", "coordinates": [16.60538, 49.232519]}, "properties": {"kod_detske_skupiny": "DS01750", "nazev_ds": "Dětská skupina Elánek Fialka", "kapacita_ds": "12", "misto_poskytovani_ds": "Vlasty Fialové 229/16, Sadová, 612 00 Brno", "vznik_opravneni_ds": "2023-05-24", "geocoded_to": "Vlasty Fialové 229/16, Sadová, 61200 Brno", "osm_2026_09_28": "nothing in OSM within 100 m"}}, {"type": "Feature", "geometry": {"type": "Point", "coordinates": [16.636297, 49.188664]}, "properties": {"kod_detske_skupiny": "DS00492", "nazev_ds": "Dětská skupina Školička", "kapacita_ds": "10", "misto_poskytovani_ds": "Štolcova 298/21, Brno - Černovice, 618 00", "vznik_opravneni_ds": "2017-12-13", "geocoded_to": "Štolcova 298/21, Černovice, 61800 Brno", "osm_2026_09_28": "nothing in OSM within 100 m"}}, {"type": "Feature", "geometry": {"type": "Point", "coordinates": [16.634919, 49.285218]}, "properties": {"kod_detske_skupiny": "DS00513", "nazev_ds": "Dětská skupina Šmoulka", "kapacita_ds": "18", "misto_poskytovani_ds": "Dlouhé Vrchy 266/5, Brno - Útěchov, 644 00", "vznik_opravneni_ds": "2017-12-28", "geocoded_to": "Dlouhé vrchy 266/5, Útěchov, 64400 Brno", "osm_2026_09_28": "nothing in OSM within 100 m"}}, {"type": "Feature", "geometry": {"type": "Point", "coordinates": [16.605823, 49.208954]}, "properties": {"kod_detske_skupiny": "DS00515", "nazev_ds": "Dětská skupina Smíšci", "kapacita_ds": "12", "misto_poskytovani_ds": "Staňkova 359/8a, Ponava, 602 00 Brno", "vznik_opravneni_ds": "2017-12-28", "geocoded_to": "Staňkova 359/8a, Ponava, 60200 Brno", "osm_2026_09_28": "nothing in OSM within 100 m"}}, {"type": "Feature", "geometry": {"type": "Point", "coordinates": [16.626698, 49.208032]}, "properties": {"kod_detske_skupiny": "DS00533", "nazev_ds": "DĚTSKÁ SKUPINA BETTY, z.s.", "kapacita_ds": "12", "misto_poskytovani_ds": "Svitavská 836/33, Brno - Husovice, 614 00", "vznik_opravneni_ds": "2018-01-19", "geocoded_to": "Svitavská 836/33, Husovice, 61400 Brno", "osm_2026_09_28": "nothing in OSM within 100 m"}}, {"type": "Feature", "geometry": {"type": "Point", "coordinates": [16.636733, 49.198252]}, "properties": {"kod_detske_skupiny": "DS00749", "nazev_ds": "Dětská skupina Žabka", "kapacita_ds": "20", "misto_poskytovani_ds": "Filipínského 1287/64, Brno, 615 00", "vznik_opravneni_ds": "2018-07-18", "geocoded_to": "Filipínského 1287/64, Židenice, 61500 Brno", "osm_2026_09_28": "nothing in OSM within 100 m"}}, {"type": "Feature", "geometry": {"type": "Point", "coordinates": [16.666538, 49.139941]}, "properties": {"kod_detske_skupiny": "DS00592", "nazev_ds": "Dětská skupina Veselá školička Zuzanka - Tuřany", "kapacita_ds": "16", "misto_poskytovani_ds": "Režná 916/2, Brno - Tuřany, 620 00", "vznik_opravneni_ds": "2018-03-09", "geocoded_to": "Režná 916/2, Tuřany, 62000 Brno", "osm_2026_09_28": "nothing in OSM within 100 m"}}, {"type": "Feature", "geometry": {"type": "Point", "coordinates": [16.582425, 49.203403]}, "properties": {"kod_detske_skupiny": "DS00593", "nazev_ds": "Ponny dětská skupina", "kapacita_ds": "24", "misto_poskytovani_ds": "Tůmova 2265/60, Brno - Žabovřesky, 616 00", "vznik_opravneni_ds": "2018-03-09", "geocoded_to": "Tůmova 2265/60, Žabovřesky, 61600 Brno", "osm_2026_09_28": "nothing in OSM within 100 m"}}, {"type": "Feature", "geometry": {"type": "Point", "coordinates": [16.616476, 49.176342]}, "properties": {"kod_detske_skupiny": "DS00600", "nazev_ds": "Dětská skupina Viki Kids Club I", "kapacita_ds": "10", "misto_poskytovani_ds": "Vodařská 232/2, Brno - Horní Heršpice, 619 00", "vznik_opravneni_ds": "2018-03-15", "geocoded_to": "Vodařská 232/2, Horní Heršpice, 61900 Brno", "osm_2026_09_28": "nothing in OSM within 100 m"}}, {"type": "Feature", "geometry": {"type": "Point", "coordinates": [16.616476, 49.176342]}, "properties": {"kod_detske_skupiny": "DS00640", "nazev_ds": "Dětská skupina Kids Academy", "kapacita_ds": "24", "misto_poskytovani_ds": "Vodařská 232/2, Brno - Horní Heršpice, 619 00", "vznik_opravneni_ds": "2018-04-13", "geocoded_to": "Vodařská 232/2, Horní Heršpice, 61900 Brno", "osm_2026_09_28": "nothing in OSM within 100 m"}}, {"type": "Feature", "geometry": {"type": "Point", "coordinates": [16.616476, 49.176342]}, "properties": {"kod_detske_skupiny": "DS01121", "nazev_ds": "Dětská skupina Viki Kids Club III", "kapacita_ds": "12", "misto_poskytovani_ds": "Vodařská 232/2, Brno - Horní Heršpice, 619 00", "vznik_opravneni_ds": "2020-05-06", "geocoded_to": "Vodařská 232/2, Horní Heršpice, 61900 Brno", "osm_2026_09_28": "nothing in OSM within 100 m"}}, {"type": "Feature", "geometry": {"type": "Point", "coordinates": [16.588746, 49.22618]}, "properties": {"kod_detske_skupiny": "DS00591", "nazev_ds": "Dětská skupina Mary Poppins - II. oddělení", "kapacita_ds": "17", "misto_poskytovani_ds": "Srbská 30, Brno, 612 00", "vznik_opravneni_ds": "2018-03-08", "geocoded_to": "Srbská 1213/30, Královo Pole, 61200 Brno", "osm_2026_09_28": "OSM kindergarten within 100 m"}}, {"type": "Feature", "geometry": {"type": "Point", "coordinates": [16.601126, 49.216254]}, "properties": {"kod_detske_skupiny": "DS00594", "nazev_ds": "Creative Life, dětská skupina", "kapacita_ds": "24", "misto_poskytovani_ds": "Poděbradova 298/127, Brno - Ponava, 612 00", "vznik_opravneni_ds": "2018-03-09", "geocoded_to": "Poděbradova 298/127, Ponava, 61200 Brno", "osm_2026_09_28": "nothing in OSM within 100 m"}}, {"type": "Feature", "geometry": {"type": "Point", "coordinates": [16.641905, 49.198164]}, "properties": {"kod_detske_skupiny": "DS00614", "nazev_ds": "DĚTSKÁ SKUPINA JESLE ŽIRAFKA O.P.S. ŽIDENICE", "kapacita_ds": "24", "misto_poskytovani_ds": "Rokycanova 530/48, Brno - Židenice, 615 00", "vznik_opravneni_ds": "2018-03-29", "geocoded_to": "Rokycanova 530/48, Židenice, 61500 Brno", "osm_2026_09_28": "nothing in OSM within 100 m"}}, {"type": "Feature", "geometry": {"type": "Point", "coordinates": [16.554316, 49.208851]}, "properties": {"kod_detske_skupiny": "DS00615", "nazev_ds": "DĚTSKÁ SKUPINA JESLE ŽIRAFKA O.P.S. JUNDROV", "kapacita_ds": "24", "misto_poskytovani_ds": "Nálepkova 882/30, Brno - Jundrov, 637 00", "vznik_opravneni_ds": "2018-03-29", "geocoded_to": "Nálepkova 882/30, Jundrov, 63700 Brno", "osm_2026_09_28": "nothing in OSM within 100 m"}}, {"type": "Feature", "geometry": {"type": "Point", "coordinates": [16.521235, 49.224545]}, "properties": {"kod_detske_skupiny": "DS10243", "nazev_ds": "Dětská skupina Ententýky", "kapacita_ds": "18", "misto_poskytovani_ds": "Větrná 549/21, Bystrc, 635 00 Brno", "vznik_opravneni_ds": "2025-09-01", "geocoded_to": "Větrná 549/21, Bystrc, 63500 Brno", "osm_2026_09_28": "nothing in OSM within 100 m"}}, {"type": "Feature", "geometry": {"type": "Point", "coordinates": [16.646262, 49.234212]}, "properties": {"kod_detske_skupiny": "DS00760", "nazev_ds": "Dětská skupina Zdravá školička", "kapacita_ds": "20", "misto_poskytovani_ds": "Fryčajova 25/117, Brno - Maloměřice a Obřany, 614 00", "vznik_opravneni_ds": "2018-07-30", "geocoded_to": "Fryčajova 25/117, Obřany, 61400 Brno", "osm_2026_09_28": "OSM childcare within 100 m"}}, {"type": "Feature", "geometry": {"type": "Point", "coordinates": [16.623857, 49.211993]}, "properties": {"kod_detske_skupiny": "DS00766", "nazev_ds": "Dětská skupina Emily4Life", "kapacita_ds": "12", "misto_poskytovani_ds": "Zemědělská 1716/76, Brno - Brno-sever, 613 00", "vznik_opravneni_ds": "2018-08-03", "geocoded_to": "Zemědělská 1716/76, Černá Pole, 61300 Brno", "osm_2026_09_28": "nothing in OSM within 100 m"}}, {"type": "Feature", "geometry": {"type": "Point", "coordinates": [16.623857, 49.211993]}, "properties": {"kod_detske_skupiny": "DS01091", "nazev_ds": "Dětská skupina Emily4Life2", "kapacita_ds": "12", "misto_poskytovani_ds": "Zemědělská 1716/76, Brno - Brno-sever, 613 00", "vznik_opravneni_ds": "2020-02-10", "geocoded_to": "Zemědělská 1716/76, Černá Pole, 61300 Brno", "osm_2026_09_28": "nothing in OSM within 100 m"}}, {"type": "Feature", "geometry": {"type": "Point", "coordinates": [16.583877, 49.20416]}, "properties": {"kod_detske_skupiny": "DS00868", "nazev_ds": "Dětská skupina Dům pod hvězdami", "kapacita_ds": "20", "misto_poskytovani_ds": "Kraví Hora , Brno - Střed, 602 00", "vznik_opravneni_ds": "2018-11-16", "geocoded_to": "Kraví hora 522/2, Veveří, 61600 Brno", "osm_2026_09_28": "nothing in OSM within 100 m"}}, {"type": "Feature", "geometry": {"type": "Point", "coordinates": [16.601869, 49.197658]}, "properties": {"kod_detske_skupiny": "DS01809", "nazev_ds": "Dětská skupina Dům pod hradbami", "kapacita_ds": "20", "misto_poskytovani_ds": "Marešova 184/8, Brno, 602 00", "vznik_opravneni_ds": "2023-08-21", "geocoded_to": "Marešova 184/8, Veveří, 60200 Brno", "osm_2026_09_28": "nothing in OSM within 100 m"}}, {"type": "Feature", "geometry": {"type": "Point", "coordinates": [16.53292, 49.225963]}, "properties": {"kod_detske_skupiny": "DS00771", "nazev_ds": "Dětská skupina Elánek Bystrc jesle", "kapacita_ds": "10", "misto_poskytovani_ds": "Jakuba Obrovského 228/1a, Brno - Bystrc, 635 00", "vznik_opravneni_ds": "2018-08-08", "geocoded_to": "Jakuba Obrovského 228/1a, Bystrc, 63500 Brno", "osm_2026_09_28": "nothing in OSM within 100 m"}}, {"type": "Feature", "geometry": {"type": "Point", "coordinates": [16.53292, 49.225963]}, "properties": {"kod_detske_skupiny": "DS00772", "nazev_ds": "Dětská skupina Elánek Bystrc školka", "kapacita_ds": "24", "misto_poskytovani_ds": "Jakuba Obrovského 228/1a, Brno - Bystrc, 635 00", "vznik_opravneni_ds": "2018-08-08", "geocoded_to": "Jakuba Obrovského 228/1a, Bystrc, 63500 Brno", "osm_2026_09_28": "nothing in OSM within 100 m"}}, {"type": "Feature", "geometry": {"type": "Point", "coordinates": [16.576828, 49.208133]}, "properties": {"kod_detske_skupiny": "DS00773", "nazev_ds": "Dětská skupina Elánek Žabovřesky", "kapacita_ds": "20", "misto_poskytovani_ds": "Horákova 714/6, Žabovřesky, 616 00 Brno", "vznik_opravneni_ds": "2018-08-08", "geocoded_to": "Horákova 714/6, Žabovřesky, 61600 Brno", "osm_2026_09_28": "nothing in OSM within 100 m"}}, {"type": "Feature", "geometry": {"type": "Point", "coordinates": [16.57658, 49.174383]}, "properties": {"kod_detske_skupiny": "DS00775", "nazev_ds": "Dětská skupina Elánek Bohunice", "kapacita_ds": "24", "misto_poskytovani_ds": "Jihlavská 20, Brno, 625 00", "vznik_opravneni_ds": "2018-08-08", "geocoded_to": "Jihlavská 340/20, Bohunice, 62500 Brno", "osm_2026_09_28": "nothing in OSM within 100 m"}}, {"type": "Feature", "geometry": {"type": "Point", "coordinates": [16.609568, 49.232138]}, "properties": {"kod_detske_skupiny": "DS00985", "nazev_ds": "Dětská skupina Sadová Elánek", "kapacita_ds": "24", "misto_poskytovani_ds": "Gustava Broma 189/35, Sadová, 612 00 Brno", "vznik_opravneni_ds": "2019-08-28", "geocoded_to": "Gustava Broma 189/35, Sadová, 61200 Brno", "osm_2026_09_28": "OSM kindergarten within 100 m"}}, {"type": "Feature", "geometry": {"type": "Point", "coordinates": [16.602995, 49.196607]}, "properties": {"kod_detske_skupiny": "DS01266", "nazev_ds": "Dětská skupina MUNI Komenského náměstí", "kapacita_ds": "24", "misto_poskytovani_ds": "Komenského náměstí 220/2, Brno-město, 602 00 Brno", "vznik_opravneni_ds": "2021-09-22", "geocoded_to": "Komenského náměstí 220/2, Brno-město, 60200 Brno", "osm_2026_09_28": "nothing in OSM within 100 m"}}, {"type": "Feature", "geometry": {"type": "Point", "coordinates": [16.550009, 49.179182]}, "properties": {"kod_detske_skupiny": "DS01267", "nazev_ds": "Dětská skupina Univerzitní kampus", "kapacita_ds": "12", "misto_poskytovani_ds": "Plachty 514/8, Brno - Štýřice, 634 00", "vznik_opravneni_ds": "2021-09-22", "geocoded_to": "Plachty 514/8, Nový Lískovec, 63400 Brno", "osm_2026_09_28": "nothing in OSM within 100 m"}}, {"type": "Feature", "geometry": {"type": "Point", "coordinates": [16.580336, 49.221514]}, "properties": {"kod_detske_skupiny": "DS01269", "nazev_ds": "Dětská skupina Elánek AV", "kapacita_ds": "6", "misto_poskytovani_ds": "Královopolská 3000/137, Žabovřesky, 612 00 Brno", "vznik_opravneni_ds": "2021-09-23", "geocoded_to": "Královopolská 3000/137, Žabovřesky, 61200 Brno", "osm_2026_09_28": "nothing in OSM within 100 m"}}, {"type": "Feature", "geometry": {"type": "Point", "coordinates": [16.59116, 49.205972]}, "properties": {"kod_detske_skupiny": "DS10621", "nazev_ds": "Dětská skupina Elánek FAST", "kapacita_ds": "12", "misto_poskytovani_ds": "Žižkova 512/20, Veveří, 602 00 Brno", "vznik_opravneni_ds": "2026-02-02", "geocoded_to": "Žižkova 512/20, Veveří, 60200 Brno", "osm_2026_09_28": "nothing in OSM within 100 m"}}, {"type": "Feature", "geometry": {"type": "Point", "coordinates": [16.57658, 49.174383]}, "properties": {"kod_detske_skupiny": "DS11307", "nazev_ds": "Dětská skupina Elánek Bohunice II.", "kapacita_ds": "24", "misto_poskytovani_ds": "Jihlavská 340/20, Bohunice, 62500 Brno", "vznik_opravneni_ds": "2026-09-01", "geocoded_to": "Jihlavská 340/20, Bohunice, 62500 Brno", "osm_2026_09_28": "nothing in OSM within 100 m"}}, {"type": "Feature", "geometry": {"type": "Point", "coordinates": [16.567689, 49.179702]}, "properties": {"kod_detske_skupiny": "DS00806", "nazev_ds": "ANGLICKO-ČESKÁ DĚTSKÁ SKUPINA", "kapacita_ds": "24", "misto_poskytovani_ds": "Netroufalky 797/7, Brno - Bohunice, 625 00", "vznik_opravneni_ds": "2018-08-27", "geocoded_to": "Netroufalky 797/7, Bohunice, 62500 Brno", "osm_2026_09_28": "OSM kindergarten within 100 m"}}, {"type": "Feature", "geometry": {"type": "Point", "coordinates": [16.567689, 49.179702]}, "properties": {"kod_detske_skupiny": "DS00805", "nazev_ds": "ČESKO-ANGLICKÁ DĚTSKÁ SKUPINA", "kapacita_ds": "20", "misto_poskytovani_ds": "Netroufalky 797/7, Brno - Bohunice, 625 00", "vznik_opravneni_ds": "2018-08-27", "geocoded_to": "Netroufalky 797/7, Bohunice, 62500 Brno", "osm_2026_09_28": "OSM kindergarten within 100 m"}}, {"type": "Feature", "geometry": {"type": "Point", "coordinates": [16.570275, 49.215223]}, "properties": {"kod_detske_skupiny": "DS00815", "nazev_ds": "Dětská skupina Čiperky", "kapacita_ds": "12", "misto_poskytovani_ds": "Královopolská 10/142, Brno - Žabovřesky, 616 00", "vznik_opravneni_ds": "2018-08-30", "geocoded_to": "Královopolská 142/10, Žabovřesky, 61600 Brno", "osm_2026_09_28": "OSM kindergarten within 100 m"}}, {"type": "Feature", "geometry": {"type": "Point", "coordinates": [16.570275, 49.215223]}, "properties": {"kod_detske_skupiny": "DS01724", "nazev_ds": "Dětská skupina Šikulky", "kapacita_ds": "12", "misto_poskytovani_ds": "Královopolská 142/10, Brno - Žabovřesky, 616 00", "vznik_opravneni_ds": "2023-03-29", "geocoded_to": "Královopolská 142/10, Žabovřesky, 61600 Brno", "osm_2026_09_28": "OSM kindergarten within 100 m"}}, {"type": "Feature", "geometry": {"type": "Point", "coordinates": [16.687741, 49.176378]}, "properties": {"kod_detske_skupiny": "DS00845", "nazev_ds": "Dětská skupina Happy Care Centre", "kapacita_ds": "24", "misto_poskytovani_ds": "Tuřanka 293/3, Brno - Slatina, 627 00", "vznik_opravneni_ds": "2018-10-08", "geocoded_to": "Tuřanka 293/3, Slatina, 62700 Brno", "osm_2026_09_28": "OSM kindergarten within 100 m"}}, {"type": "Feature", "geometry": {"type": "Point", "coordinates": [16.576644, 49.230916]}, "properties": {"kod_detske_skupiny": "DS00972", "nazev_ds": "Dětská skupina Kids Nest pro Technologický park Brno", "kapacita_ds": "24", "misto_poskytovani_ds": "Purkyňova 646/107, Brno - Medlánky, 612 00", "vznik_opravneni_ds": "2019-07-16", "geocoded_to": "Purkyňova 646/107, Medlánky, 61200 Brno", "osm_2026_09_28": "OSM childcare within 100 m"}}, {"type": "Feature", "geometry": {"type": "Point", "coordinates": [16.576644, 49.230916]}, "properties": {"kod_detske_skupiny": "DS01485", "nazev_ds": "Dětská skupina Happy Nest pro TPB", "kapacita_ds": "24", "misto_poskytovani_ds": "Purkyňova 646/107, Brno - Medlánky, 612 00", "vznik_opravneni_ds": "2022-09-05", "geocoded_to": "Purkyňova 646/107, Medlánky, 61200 Brno", "osm_2026_09_28": "OSM childcare within 100 m"}}, {"type": "Feature", "geometry": {"type": "Point", "coordinates": [16.578589, 49.224317]}, "properties": {"kod_detske_skupiny": "DS10509", "nazev_ds": "Dětská skupina Baby Nest pro TPB", "kapacita_ds": "18", "misto_poskytovani_ds": "Technická 3029/17, Královo Pole, 616 00 Brno", "vznik_opravneni_ds": "2025-11-05", "geocoded_to": "Technická 3029/17, Královo Pole, 61600 Brno", "osm_2026_09_28": "nothing in OSM within 100 m"}}, {"type": "Feature", "geometry": {"type": "Point", "coordinates": [16.590801, 49.21815]}, "properties": {"kod_detske_skupiny": "DS01822", "nazev_ds": "Dětská skupina MO v posádce Brno", "kapacita_ds": "24", "misto_poskytovani_ds": "Dobrovského 2549/27, Brno - Brno - Královo Pole, 612 00", "vznik_opravneni_ds": "2023-08-28", "geocoded_to": "Dobrovského 2549/27, Královo Pole, 61200 Brno", "osm_2026_09_28": "nothing in OSM within 100 m"}}, {"type": "Feature", "geometry": {"type": "Point", "coordinates": [16.687741, 49.176378]}, "properties": {"kod_detske_skupiny": "DS00863", "nazev_ds": "Dětská skupina Daycare Centre", "kapacita_ds": "6", "misto_poskytovani_ds": "Tuřanka 293/3, Brno - Slatina, 627 00", "vznik_opravneni_ds": "2018-11-12", "geocoded_to": "Tuřanka 293/3, Slatina, 62700 Brno", "osm_2026_09_28": "OSM kindergarten within 100 m"}}, {"type": "Feature", "geometry": {"type": "Point", "coordinates": [16.569257, 49.16436]}, "properties": {"kod_detske_skupiny": "DS00976", "nazev_ds": "Dětská skupina Happy Leskava", "kapacita_ds": "15", "misto_poskytovani_ds": "U Leskavy 764/20, Brno - Starý Lískovec, 625 00", "vznik_opravneni_ds": "2019-07-25", "geocoded_to": "U Leskavy 764/20, Starý Lískovec, 62500 Brno", "osm_2026_09_28": "nothing in OSM within 100 m"}}, {"type": "Feature", "geometry": {"type": "Point", "coordinates": [16.561622, 49.16319]}, "properties": {"kod_detske_skupiny": "DS01892", "nazev_ds": "Dětská skupina Happy Corner", "kapacita_ds": "12", "misto_poskytovani_ds": "Martina Ševčíka 813/2, Brno - Starý Lískovec, 625 00", "vznik_opravneni_ds": "2023-10-17", "geocoded_to": "Martina Ševčíka 813/2, Starý Lískovec, 62500 Brno", "osm_2026_09_28": "nothing in OSM within 100 m"}}, {"type": "Feature", "geometry": {"type": "Point", "coordinates": [16.561622, 49.16319]}, "properties": {"kod_detske_skupiny": "DS01893", "nazev_ds": "Dětská skupina Happy Corner II", "kapacita_ds": "12", "misto_poskytovani_ds": "Martina Ševčíka 813/2, Brno - Starý Lískovec, 625 00", "vznik_opravneni_ds": "2023-10-17", "geocoded_to": "Martina Ševčíka 813/2, Starý Lískovec, 62500 Brno", "osm_2026_09_28": "nothing in OSM within 100 m"}}, {"type": "Feature", "geometry": {"type": "Point", "coordinates": [16.578858, 49.168207]}, "properties": {"kod_detske_skupiny": "DS00870", "nazev_ds": "Dětská skupina Nejkrásnější svět 1", "kapacita_ds": "22", "misto_poskytovani_ds": "Bohuňova 58/10, Brno - Bohunice, 625 00", "vznik_opravneni_ds": "2018-11-28", "geocoded_to": "Bohuňova 58/10, Bohunice, 62500 Brno", "osm_2026_09_28": "OSM kindergarten within 100 m"}}, {"type": "Feature", "geometry": {"type": "Point", "coordinates": [16.563128, 49.183389]}, "properties": {"kod_detske_skupiny": "DS01646", "nazev_ds": "Dětská skupina Nejkrásnější svět 2", "kapacita_ds": "18", "misto_poskytovani_ds": "Rybnická 1/46, Brno - Nový Lískovec, 634 00", "vznik_opravneni_ds": "2023-01-01", "geocoded_to": "Rybnická 1/46, Nový Lískovec, 63400 Brno", "osm_2026_09_28": "OSM childcare within 100 m"}}, {"type": "Feature", "geometry": {"type": "Point", "coordinates": [16.618982, 49.207754]}, "properties": {"kod_detske_skupiny": "DS01048", "nazev_ds": "Univerzitka dětská skupina", "kapacita_ds": "18", "misto_poskytovani_ds": "Muchova 1093/24, Brno - Černá Pole, 613 00", "vznik_opravneni_ds": "2019-12-17", "geocoded_to": "Muchova 1093/24, Černá Pole, 61300 Brno", "osm_2026_09_28": "OSM childcare within 100 m"}}, {"type": "Feature", "geometry": {"type": "Point", "coordinates": [16.614848, 49.204699]}, "properties": {"kod_detske_skupiny": "DS00962", "nazev_ds": "Dětská skupina Beránek, z.s.", "kapacita_ds": "12", "misto_poskytovani_ds": "Antonína Slavíka 1316/11, Brno - Černá Pole, 602 00", "vznik_opravneni_ds": "2019-05-23", "geocoded_to": "Antonína Slavíka 1316/11, Černá Pole, 60200 Brno", "osm_2026_09_28": "OSM kindergarten within 100 m"}}, {"type": "Feature", "geometry": {"type": "Point", "coordinates": [16.609182, 49.204406]}, "properties": {"kod_detske_skupiny": "DS02019", "nazev_ds": "Dětská skupina Beránek 2, z.s.", "kapacita_ds": "12", "misto_poskytovani_ds": "Lužánecká 10/1888, Brno - střed, 602 00", "vznik_opravneni_ds": "2024-04-10", "geocoded_to": "Lužánecká 1888/10, Černá Pole, 60200 Brno", "osm_2026_09_28": "nothing in OSM within 100 m"}}, {"type": "Feature", "geometry": {"type": "Point", "coordinates": [16.636598, 49.217934]}, "properties": {"kod_detske_skupiny": "DS01796", "nazev_ds": "Montessori jesle Brno - dětská skupina", "kapacita_ds": "9", "misto_poskytovani_ds": "Skryjova 6, Brno - Husovice, 614 00", "vznik_opravneni_ds": "2023-08-08", "geocoded_to": "Skryjova 1257/6, Husovice, 61400 Brno", "osm_2026_09_28": "nothing in OSM within 100 m"}}, {"type": "Feature", "geometry": {"type": "Point", "coordinates": [16.530216, 49.17142]}, "properties": {"kod_detske_skupiny": "DS01584", "nazev_ds": "Mikyho dětská skupina - Ostopovická", "kapacita_ds": "12", "misto_poskytovani_ds": "Ostopovická 342/29, Brno - Bosonohy, 642 00", "vznik_opravneni_ds": "2022-10-20", "geocoded_to": "Ostopovická 342/29, Bosonohy, 64200 Brno", "osm_2026_09_28": "OSM kindergarten within 100 m"}}, {"type": "Feature", "geometry": {"type": "Point", "coordinates": [16.621821, 49.185131]}, "properties": {"kod_detske_skupiny": "DS01109", "nazev_ds": "Dětská skupina Elánek Ponávka", "kapacita_ds": "15", "misto_poskytovani_ds": "Dornych 54/47, Brno, 617 00", "vznik_opravneni_ds": "2020-04-01", "geocoded_to": "Dornych 54/47, Trnitá, 61700 Brno", "osm_2026_09_28": "nothing in OSM within 100 m"}}, {"type": "Feature", "geometry": {"type": "Point", "coordinates": [16.69057, 49.174327]}, "properties": {"kod_detske_skupiny": "DS01181", "nazev_ds": "Dětská skupina Elánek Slatina", "kapacita_ds": "12", "misto_poskytovani_ds": "Ondřeje Veselého 485/7, Brno - Slatina, 627 00", "vznik_opravneni_ds": "2020-09-01", "geocoded_to": "Ondřeje Veselého 485/7, Slatina, 62700 Brno", "osm_2026_09_28": "nothing in OSM within 100 m"}}, {"type": "Feature", "geometry": {"type": "Point", "coordinates": [16.641876, 49.219014]}, "properties": {"kod_detske_skupiny": "DS01182", "nazev_ds": "DĚTSKÁ SKUPINA SMÍŠCI", "kapacita_ds": "12", "misto_poskytovani_ds": "Franzova 1101/43, Brno - Maloměřice, 614 00", "vznik_opravneni_ds": "2020-09-01", "geocoded_to": "Franzova 1101/43, Maloměřice, 61400 Brno", "osm_2026_09_28": "nothing in OSM within 100 m"}}, {"type": "Feature", "geometry": {"type": "Point", "coordinates": [16.662544, 49.177275]}, "properties": {"kod_detske_skupiny": "DS01451", "nazev_ds": "Dětská skupina Borůvkový palouček", "kapacita_ds": "24", "misto_poskytovani_ds": "Vlastimila Pecha 1269/10, Brno - Černovice, 627 00", "vznik_opravneni_ds": "2022-08-16", "geocoded_to": "Vlastimila Pecha 1269/10, Černovice, 62700 Brno", "osm_2026_09_28": "nothing in OSM within 100 m"}}, {"type": "Feature", "geometry": {"type": "Point", "coordinates": [16.662544, 49.177275]}, "properties": {"kod_detske_skupiny": "DS01452", "nazev_ds": "Dětská skupina Jahůdkový palouček", "kapacita_ds": "6", "misto_poskytovani_ds": "Vlastimila Pecha 1269/10, Brno - Černovice, 627 00", "vznik_opravneni_ds": "2022-08-16", "geocoded_to": "Vlastimila Pecha 1269/10, Černovice, 62700 Brno", "osm_2026_09_28": "nothing in OSM within 100 m"}}, {"type": "Feature", "geometry": {"type": "Point", "coordinates": [16.662544, 49.177275]}, "properties": {"kod_detske_skupiny": "DS01453", "nazev_ds": "Dětská skupina Malinový palouček", "kapacita_ds": "24", "misto_poskytovani_ds": "Vlastimila Pecha 1269/10, Brno - Černovice, 627 00", "vznik_opravneni_ds": "2022-08-16", "geocoded_to": "Vlastimila Pecha 1269/10, Černovice, 62700 Brno", "osm_2026_09_28": "nothing in OSM within 100 m"}}, {"type": "Feature", "geometry": {"type": "Point", "coordinates": [16.643743, 49.185043]}, "properties": {"kod_detske_skupiny": "DS01265", "nazev_ds": "Dětská skupina Agáta", "kapacita_ds": "20", "misto_poskytovani_ds": "Kneslova 1067/5, Černovice, 618 00 Brno", "vznik_opravneni_ds": "2021-09-22", "geocoded_to": "Kneslova 1067/5, Černovice, 61800 Brno", "osm_2026_09_28": "nothing in OSM within 100 m"}}, {"type": "Feature", "geometry": {"type": "Point", "coordinates": [16.603794, 49.207958]}, "properties": {"kod_detske_skupiny": "DS01375", "nazev_ds": "Dětská skupina Meduňka a Rozmarýnka", "kapacita_ds": "22", "misto_poskytovani_ds": "Štefánikova 836/1, Veveří, 602 00 Brno", "vznik_opravneni_ds": "2022-01-26", "geocoded_to": "Štefánikova 836/1, Veveří, 60200 Brno", "osm_2026_09_28": "nothing in OSM within 100 m"}}, {"type": "Feature", "geometry": {"type": "Point", "coordinates": [16.603794, 49.207958]}, "properties": {"kod_detske_skupiny": "DS01369", "nazev_ds": "Dětská skupina Bylinky u Lužánek", "kapacita_ds": "22", "misto_poskytovani_ds": "Štefánikova 836/1, Veveří, 602 00 Brno", "vznik_opravneni_ds": "2022-01-18", "geocoded_to": "Štefánikova 836/1, Veveří, 60200 Brno", "osm_2026_09_28": "nothing in OSM within 100 m"}}, {"type": "Feature", "geometry": {"type": "Point", "coordinates": [16.603794, 49.207958]}, "properties": {"kod_detske_skupiny": "DS11298", "nazev_ds": "Dětská skupina Levandulka", "kapacita_ds": "12", "misto_poskytovani_ds": "Štefánikova 836/1, Veveří, 602 00 Brno", "vznik_opravneni_ds": "2026-09-07", "geocoded_to": "Štefánikova 836/1, Veveří, 60200 Brno", "osm_2026_09_28": "nothing in OSM within 100 m"}}, {"type": "Feature", "geometry": {"type": "Point", "coordinates": [16.700588, 49.212152]}, "properties": {"kod_detske_skupiny": "DS01407", "nazev_ds": "Dětská skupina Envíčkovi skřítci", "kapacita_ds": "4", "misto_poskytovani_ds": "Kostelíček 1097/16, Brno - Líšeň, 628 00", "vznik_opravneni_ds": "2022-01-28", "geocoded_to": "Kostelíček 1097/16, Líšeň, 62800 Brno", "osm_2026_09_28": "nothing in OSM within 100 m"}}, {"type": "Feature", "geometry": {"type": "Point", "coordinates": [16.632782, 49.210049]}, "properties": {"kod_detske_skupiny": "DS01596", "nazev_ds": "Dětská skupina Housata žlutá", "kapacita_ds": "12", "misto_poskytovani_ds": "Dukelská třída 1658/88, Brno - Husovice, 614 00", "vznik_opravneni_ds": "2022-10-26", "geocoded_to": "Dukelská třída 1658/88, Husovice, 61400 Brno", "osm_2026_09_28": "nothing in OSM within 100 m"}}, {"type": "Feature", "geometry": {"type": "Point", "coordinates": [16.632782, 49.210049]}, "properties": {"kod_detske_skupiny": "DS02269", "nazev_ds": "Dětská skupina Housata zelená", "kapacita_ds": "12", "misto_poskytovani_ds": "Dukelská třída 1658/88, Brno - Husovice, 614 00", "vznik_opravneni_ds": "2024-12-17", "geocoded_to": "Dukelská třída 1658/88, Husovice, 61400 Brno", "osm_2026_09_28": "nothing in OSM within 100 m"}}, {"type": "Feature", "geometry": {"type": "Point", "coordinates": [16.563014, 49.183333]}, "properties": {"kod_detske_skupiny": "DS01420", "nazev_ds": "Dětská skupina U Mominky", "kapacita_ds": "12", "misto_poskytovani_ds": "Rybnická 97/48, Brno - Nový Lískovec, 634 00", "vznik_opravneni_ds": "2022-03-16", "geocoded_to": "Rybnická 97/48, Nový Lískovec, 63400 Brno", "osm_2026_09_28": "OSM childcare within 100 m"}}, {"type": "Feature", "geometry": {"type": "Point", "coordinates": [16.670237, 49.205821]}, "properties": {"kod_detske_skupiny": "DS02028", "nazev_ds": "Dětská skupina U Mominky Líšeň", "kapacita_ds": "24", "misto_poskytovani_ds": "Štefáčkova 2491/15, Brno - Líšeň, 628 00", "vznik_opravneni_ds": "2024-05-15", "geocoded_to": "Štefáčkova 2491/15, Líšeň, 62800 Brno", "osm_2026_09_28": "OSM kindergarten within 100 m"}}, {"type": "Feature", "geometry": {"type": "Point", "coordinates": [16.553581, 49.207897]}, "properties": {"kod_detske_skupiny": "DS10356", "nazev_ds": "Dětská skupina U Mominky Gellnerka", "kapacita_ds": "12", "misto_poskytovani_ds": "Gellnerova 499/20, Jundrov, 637 00 Brno", "vznik_opravneni_ds": "2025-10-01", "geocoded_to": "Gellnerova 499/20, Jundrov, 63700 Brno", "osm_2026_09_28": "nothing in OSM within 100 m"}}, {"type": "Feature", "geometry": {"type": "Point", "coordinates": [16.581433, 49.217896]}, "properties": {"kod_detske_skupiny": "DS01894", "nazev_ds": "Dětská skupina Skládanka", "kapacita_ds": "12", "misto_poskytovani_ds": "Plovdivská 2560/7, Brno - Žabovřesky, 616 00", "vznik_opravneni_ds": "2023-10-18", "geocoded_to": "Plovdivská 2560/7, Žabovřesky, 61600 Brno", "osm_2026_09_28": "OSM kindergarten within 100 m"}}, {"type": "Feature", "geometry": {"type": "Point", "coordinates": [16.600351, 49.197333]}, "properties": {"kod_detske_skupiny": "DS01559", "nazev_ds": "Dětská skupina Vesněnka", "kapacita_ds": "12", "misto_poskytovani_ds": "Údolní 389/10, Brno - Brno-střed, 602 00", "vznik_opravneni_ds": "2022-10-17", "geocoded_to": "Údolní 389/10, Veveří, 60200 Brno", "osm_2026_09_28": "nothing in OSM within 100 m"}}, {"type": "Feature", "geometry": {"type": "Point", "coordinates": [16.595525, 49.163489]}, "properties": {"kod_detske_skupiny": "DS01581", "nazev_ds": "Dětská skupina Adis Centrum z.s", "kapacita_ds": "24", "misto_poskytovani_ds": "Bohunická 493/81, Brno - Brno-Horní Heršpice, 619 00", "vznik_opravneni_ds": "2022-10-18", "geocoded_to": "Bohunická 493/81, Horní Heršpice, 61900 Brno", "osm_2026_09_28": "nothing in OSM within 100 m"}}, {"type": "Feature", "geometry": {"type": "Point", "coordinates": [16.595525, 49.163489]}, "properties": {"kod_detske_skupiny": "DS01874", "nazev_ds": "Dětská skupina Adis Centrum 2", "kapacita_ds": "12", "misto_poskytovani_ds": "Bohunická 493/81, Brno, 619 00", "vznik_opravneni_ds": "2023-09-27", "geocoded_to": "Bohunická 493/81, Horní Heršpice, 61900 Brno", "osm_2026_09_28": "nothing in OSM within 100 m"}}, {"type": "Feature", "geometry": {"type": "Point", "coordinates": [16.687224, 49.17657]}, "properties": {"kod_detske_skupiny": "DS01563", "nazev_ds": "Dětská skupina Nitka", "kapacita_ds": "18", "misto_poskytovani_ds": "Tuřanka 1200/2, Brno - Slatina, 627 00", "vznik_opravneni_ds": "2022-10-12", "geocoded_to": "Tuřanka 1200/2, Slatina, 62700 Brno", "osm_2026_09_28": "nothing in OSM within 100 m"}}, {"type": "Feature", "geometry": {"type": "Point", "coordinates": [16.687224, 49.17657]}, "properties": {"kod_detske_skupiny": "DS01920", "nazev_ds": "Dětská skupina Nitka II.", "kapacita_ds": "12", "misto_poskytovani_ds": "Tuřanka 1200/2, Brno - Slatina, 627 00", "vznik_opravneni_ds": "2023-12-04", "geocoded_to": "Tuřanka 1200/2, Slatina, 62700 Brno", "osm_2026_09_28": "nothing in OSM within 100 m"}}, {"type": "Feature", "geometry": {"type": "Point", "coordinates": [16.654632, 49.19162]}, "properties": {"kod_detske_skupiny": "DS10362", "nazev_ds": "Dětská skupina Nitka III. ", "kapacita_ds": "12", "misto_poskytovani_ds": "Juliánovské náměstí 3878/2, Židenice, 636 00 Brno", "vznik_opravneni_ds": "2025-10-14", "geocoded_to": "Juliánovské náměstí 3878/2, Židenice, 63600 Brno", "osm_2026_09_28": "nothing in OSM within 100 m"}}, {"type": "Feature", "geometry": {"type": "Point", "coordinates": [16.613628, 49.200069]}, "properties": {"kod_detske_skupiny": "DS01617", "nazev_ds": "Dětská skupina Před školkou", "kapacita_ds": "12", "misto_poskytovani_ds": "Příkop 843/4, Brno, 602 00", "vznik_opravneni_ds": "2022-10-31", "geocoded_to": "Příkop 843/4, Zábrdovice, 60200 Brno", "osm_2026_09_28": "nothing in OSM within 100 m"}}, {"type": "Feature", "geometry": {"type": "Point", "coordinates": [16.600995, 49.207795]}, "properties": {"kod_detske_skupiny": "DS11176", "nazev_ds": "Dětská skupina Před školkou II", "kapacita_ds": "22", "misto_poskytovani_ds": "Bayerova 794/25, Veveří, 602 00 Brno", "vznik_opravneni_ds": "2026-09-01", "geocoded_to": "Bayerova 794/25, Veveří, 60200 Brno", "osm_2026_09_28": "OSM kindergarten within 100 m"}}, {"type": "Feature", "geometry": {"type": "Point", "coordinates": [16.600995, 49.207795]}, "properties": {"kod_detske_skupiny": "DS11177", "nazev_ds": "Dětská skupina Před školkou III", "kapacita_ds": "18", "misto_poskytovani_ds": "Bayerova 794/25, Veveří, 602 00 Brno", "vznik_opravneni_ds": "2026-09-01", "geocoded_to": "Bayerova 794/25, Veveří, 60200 Brno", "osm_2026_09_28": "OSM kindergarten within 100 m"}}, {"type": "Feature", "geometry": {"type": "Point", "coordinates": [16.600995, 49.207795]}, "properties": {"kod_detske_skupiny": "DS11178", "nazev_ds": "Dětská skupina Před školkou IV", "kapacita_ds": "12", "misto_poskytovani_ds": "Bayerova 794/25, Veveří, 602 00 Brno", "vznik_opravneni_ds": "2026-09-01", "geocoded_to": "Bayerova 794/25, Veveří, 60200 Brno", "osm_2026_09_28": "OSM kindergarten within 100 m"}}, {"type": "Feature", "geometry": {"type": "Point", "coordinates": [16.605971, 49.204325]}, "properties": {"kod_detske_skupiny": "DS01638", "nazev_ds": "Dětská skupina Oskárek", "kapacita_ds": "12", "misto_poskytovani_ds": "Lidická 788/49, Brno, 602 00", "vznik_opravneni_ds": "2022-11-29", "geocoded_to": "Lidická 788/49, Veveří, 60200 Brno", "osm_2026_09_28": "OSM childcare within 100 m"}}, {"type": "Feature", "geometry": {"type": "Point", "coordinates": [16.573601, 49.221186]}, "properties": {"kod_detske_skupiny": "DS01651", "nazev_ds": "Dětská skupina Preschool Age", "kapacita_ds": "17", "misto_poskytovani_ds": "Kainarova 2627/11, Brno - Žabovřesky, 616 00", "vznik_opravneni_ds": "2023-01-01", "geocoded_to": "Kainarova 2627/11, Žabovřesky, 61600 Brno", "osm_2026_09_28": "nothing in OSM within 100 m"}}, {"type": "Feature", "geometry": {"type": "Point", "coordinates": [16.573601, 49.221186]}, "properties": {"kod_detske_skupiny": "DS01652", "nazev_ds": "Dětská skupina Happy Baby", "kapacita_ds": "15", "misto_poskytovani_ds": "Kainarova 2627/11, Brno - Žabovřesky, 616 00", "vznik_opravneni_ds": "2023-01-01", "geocoded_to": "Kainarova 2627/11, Žabovřesky, 61600 Brno", "osm_2026_09_28": "nothing in OSM within 100 m"}}, {"type": "Feature", "geometry": {"type": "Point", "coordinates": [16.605133, 49.193019]}, "properties": {"kod_detske_skupiny": "DS01816", "nazev_ds": "Dětská skupina BeKid Lvíčata", "kapacita_ds": "12", "misto_poskytovani_ds": "Husova 255/8, Brno-město, 602 00 Brno", "vznik_opravneni_ds": "2023-08-28", "geocoded_to": "Husova 255/8, Brno-město, 60200 Brno", "osm_2026_09_28": "OSM kindergarten within 100 m"}}, {"type": "Feature", "geometry": {"type": "Point", "coordinates": [16.605133, 49.193019]}, "properties": {"kod_detske_skupiny": "DS01988", "nazev_ds": "Dětská skupina Jesle Bekid Tygříci", "kapacita_ds": "12", "misto_poskytovani_ds": "Husova 255/8, Brno-město, 602 00 Brno", "vznik_opravneni_ds": "2024-02-27", "geocoded_to": "Husova 255/8, Brno-město, 60200 Brno", "osm_2026_09_28": "OSM kindergarten within 100 m"}}, {"type": "Feature", "geometry": {"type": "Point", "coordinates": [16.605055, 49.193248]}, "properties": {"kod_detske_skupiny": "DS10801", "nazev_ds": "Dětská skupina BeKid Lišáci", "kapacita_ds": "12", "misto_poskytovani_ds": "Husova 256/8a, Brno-město, 602 00 Brno", "vznik_opravneni_ds": "2026-04-10", "geocoded_to": "Husova 256/8a, Brno-město, 60200 Brno", "osm_2026_09_28": "OSM kindergarten within 100 m"}}, {"type": "Feature", "geometry": {"type": "Point", "coordinates": [16.658011, 49.138387]}, "properties": {"kod_detske_skupiny": "DS02060", "nazev_ds": "Dětská skupina Elánek - Chrlice", "kapacita_ds": "12", "misto_poskytovani_ds": "U Viaduktu 835/21b, Brno - Chrlice, 643 01", "vznik_opravneni_ds": "2024-07-02", "geocoded_to": "U viaduktu 835/21b, Chrlice, 64300 Brno", "osm_2026_09_28": "nothing in OSM within 100 m"}}, {"type": "Feature", "geometry": {"type": "Point", "coordinates": [16.602025, 49.199956]}, "properties": {"kod_detske_skupiny": "DS01771", "nazev_ds": "Maminčin koutek dětská skupina", "kapacita_ds": "12", "misto_poskytovani_ds": "Slovákova 351/2, Brno - Veveří, 602 00", "vznik_opravneni_ds": "2023-07-10", "geocoded_to": "Slovákova 351/2, Veveří, 60200 Brno", "osm_2026_09_28": "nothing in OSM within 100 m"}}, {"type": "Feature", "geometry": {"type": "Point", "coordinates": [16.613836, 49.203582]}, "properties": {"kod_detske_skupiny": "DS01960", "nazev_ds": "Dětská skupina Kulihrášci", "kapacita_ds": "12", "misto_poskytovani_ds": "náměstí 28. října 1106/16, Brno - Černá Pole, 602 00", "vznik_opravneni_ds": "2024-01-25", "geocoded_to": "náměstí 28. října 1106/16, Černá Pole, 60200 Brno", "osm_2026_09_28": "OSM kindergarten within 100 m"}}, {"type": "Feature", "geometry": {"type": "Point", "coordinates": [16.613823, 49.203411]}, "properties": {"kod_detske_skupiny": "DS02312", "nazev_ds": "Dětská skupina Kulíšci", "kapacita_ds": "12", "misto_poskytovani_ds": "Náměstí 28. října 1104/17, Brno, 602 00", "vznik_opravneni_ds": "2025-02-06", "geocoded_to": "náměstí 28. října 1104/17, Černá Pole, 60200 Brno", "osm_2026_09_28": "OSM kindergarten within 100 m"}}, {"type": "Feature", "geometry": {"type": "Point", "coordinates": [16.648565, 49.196686]}, "properties": {"kod_detske_skupiny": "DS01908", "nazev_ds": "Rosteme spolu - dětská skupina", "kapacita_ds": "11", "misto_poskytovani_ds": "Jamborova 3220/45, Židenice, 615 00 Brno", "vznik_opravneni_ds": "2023-11-13", "geocoded_to": "Jamborova 3220/45, Židenice, 61500 Brno", "osm_2026_09_28": "nothing in OSM within 100 m"}}, {"type": "Feature", "geometry": {"type": "Point", "coordinates": [16.643761, 49.20084]}, "properties": {"kod_detske_skupiny": "DS01951", "nazev_ds": "Pliška Academy, z.s. - DĚTSKÁ SKUPINA", "kapacita_ds": "24", "misto_poskytovani_ds": "Gajdošova 1300/22, Židenice, 615 00 Brno", "vznik_opravneni_ds": "2024-01-17", "geocoded_to": "Gajdošova 1300/22, Židenice, 61500 Brno", "osm_2026_09_28": "nothing in OSM within 100 m"}}, {"type": "Feature", "geometry": {"type": "Point", "coordinates": [16.604295, 49.180902]}, "properties": {"kod_detske_skupiny": "DS02250", "nazev_ds": "Mini Školka Spielberk I. - dětská skupina", "kapacita_ds": "24", "misto_poskytovani_ds": "Holandská 859/3, Brno - Štýřice, 639 00", "vznik_opravneni_ds": "2025-01-01", "geocoded_to": "Holandská 859/3, Štýřice, 63900 Brno", "osm_2026_09_28": "OSM kindergarten within 100 m"}}, {"type": "Feature", "geometry": {"type": "Point", "coordinates": [16.604295, 49.180902]}, "properties": {"kod_detske_skupiny": "DS02251", "nazev_ds": "Mini Školka Spielberk II. - dětská skupina", "kapacita_ds": "24", "misto_poskytovani_ds": "Holandská 859/3, Brno - Štýřice, 639 00", "vznik_opravneni_ds": "2025-01-01", "geocoded_to": "Holandská 859/3, Štýřice, 63900 Brno", "osm_2026_09_28": "OSM kindergarten within 100 m"}}, {"type": "Feature", "geometry": {"type": "Point", "coordinates": [16.621209, 49.226316]}, "properties": {"kod_detske_skupiny": "DS02307", "nazev_ds": "Dětská skupina Brožíkova", "kapacita_ds": "12", "misto_poskytovani_ds": "Brožíkova 39/1, Brno - Lesná, 638 00", "vznik_opravneni_ds": "2025-04-01", "geocoded_to": "Brožíkova 39/1, Lesná, 63800 Brno", "osm_2026_09_28": "nothing in OSM within 100 m"}}, {"type": "Feature", "geometry": {"type": "Point", "coordinates": [16.587437, 49.210036]}, "properties": {"kod_detske_skupiny": "DS02272", "nazev_ds": "Dětská skupina Šťastné mrně", "kapacita_ds": "12", "misto_poskytovani_ds": "Veveří 2219/129, Brno - Žabovřesky, 616 00", "vznik_opravneni_ds": "2024-12-20", "geocoded_to": "Veveří 2219/129, Žabovřesky, 61600 Brno", "osm_2026_09_28": "nothing in OSM within 100 m"}}, {"type": "Feature", "geometry": {"type": "Point", "coordinates": [16.585859, 49.210395]}, "properties": {"kod_detske_skupiny": "DS02198", "nazev_ds": "Dětská skupina Moonimals", "kapacita_ds": "24", "misto_poskytovani_ds": "Minská 73/13, Brno - Žabovřesky, 616 00", "vznik_opravneni_ds": "2024-10-10", "geocoded_to": "Minská 73/13, Žabovřesky, 61600 Brno", "osm_2026_09_28": "nothing in OSM within 100 m"}}, {"type": "Feature", "geometry": {"type": "Point", "coordinates": [16.617642, 49.189264]}, "properties": {"kod_detske_skupiny": "DS02248", "nazev_ds": "Mini Školka Vlněnka I. - dětská skupina", "kapacita_ds": "24", "misto_poskytovani_ds": "Vlněna 526/3, Brno - Trnitá, 602 00", "vznik_opravneni_ds": "2025-01-01", "geocoded_to": "Vlněna 526/3, Trnitá, 60200 Brno", "osm_2026_09_28": "nothing in OSM within 100 m"}}, {"type": "Feature", "geometry": {"type": "Point", "coordinates": [16.598201, 49.182551]}, "properties": {"kod_detske_skupiny": "DS02360", "nazev_ds": "Dětská skupina Elvinkovo", "kapacita_ds": "12", "misto_poskytovani_ds": "Vojtova 1030/7, Brno - Štýřice, 639 00", "vznik_opravneni_ds": "2025-05-01", "geocoded_to": "Vojtova 1030/7, Štýřice, 63900 Brno", "osm_2026_09_28": "OSM community_centre within 100 m"}}, {"type": "Feature", "geometry": {"type": "Point", "coordinates": [16.653782, 49.219589]}, "properties": {"kod_detske_skupiny": "DS02328", "nazev_ds": "Eliščiny Jesličky - dětská skupina", "kapacita_ds": "24", "misto_poskytovani_ds": "Jarní 1116/50, Brno - Maloměřice, 614 00", "vznik_opravneni_ds": "2025-03-10", "geocoded_to": "Jarní 1116/50, Maloměřice, 61400 Brno", "osm_2026_09_28": "nothing in OSM within 100 m"}}, {"type": "Feature", "geometry": {"type": "Point", "coordinates": [16.576551, 49.246607]}, "properties": {"kod_detske_skupiny": "DS02375", "nazev_ds": "Nemo dětská skupina", "kapacita_ds": "12", "misto_poskytovani_ds": "Družstevní 2223/21, Brno - Řečkovice, 621 00", "vznik_opravneni_ds": "2025-05-28", "geocoded_to": "Družstevní 2223/21, Řečkovice, 62100 Brno", "osm_2026_09_28": "nothing in OSM within 100 m"}}, {"type": "Feature", "geometry": {"type": "Point", "coordinates": [16.556408, 49.174666]}, "properties": {"kod_detske_skupiny": "SDS10030", "nazev_ds": "sousedská dětská skupina Mračulda", "kapacita_ds": "4", "misto_poskytovani_ds": "Svážná 394/3, Nový Lískovec, 634 00 Brno", "vznik_opravneni_ds": "2025-07-01", "geocoded_to": "Svážná 394/3, Nový Lískovec, 63400 Brno", "osm_2026_09_28": "nothing in OSM within 100 m"}}, {"type": "Feature", "geometry": {"type": "Point", "coordinates": [16.554936, 49.209191]}, "properties": {"kod_detske_skupiny": "DS10950", "nazev_ds": "Dětská skupina Dráčci", "kapacita_ds": "22", "misto_poskytovani_ds": "Optátova 320/1, Jundrov, 637 00 Brno", "vznik_opravneni_ds": "2026-05-18", "geocoded_to": "Optátova 320/1, Jundrov, 63700 Brno", "osm_2026_09_28": "nothing in OSM within 100 m"}}, {"type": "Feature", "geometry": {"type": "Point", "coordinates": [16.59216, 49.224539]}, "properties": {"kod_detske_skupiny": "SDS10063", "nazev_ds": "Sousedská dětská skupina Blešky", "kapacita_ds": "4", "misto_poskytovani_ds": "Bulharská 1373/12, Královo Pole, 612 00 Brno", "vznik_opravneni_ds": "2025-07-01", "geocoded_to": "Bulharská 1373/12, Královo Pole, 61200 Brno", "osm_2026_09_28": "nothing in OSM within 100 m"}}, {"type": "Feature", "geometry": {"type": "Point", "coordinates": [16.626807, 49.235494]}, "properties": {"kod_detske_skupiny": "SDS10100", "nazev_ds": "Sousedská dětská skupina Lesná Motýlci", "kapacita_ds": "4", "misto_poskytovani_ds": "Dusíkova 910/15, Lesná, 63800 Brno", "vznik_opravneni_ds": "2025-06-25", "geocoded_to": "Dusíkova 910/15, Lesná, 63800 Brno", "osm_2026_09_28": "nothing in OSM within 100 m"}}, {"type": "Feature", "geometry": {"type": "Point", "coordinates": [16.51925, 49.179742]}, "properties": {"kod_detske_skupiny": "DS10142", "nazev_ds": " Dětská skupina BabyStars", "kapacita_ds": "12", "misto_poskytovani_ds": "Práčata 431/33, Bosonohy, 64200 Brno", "vznik_opravneni_ds": "2025-07-01", "geocoded_to": "Práčata 431/33, Bosonohy, 64200 Brno", "osm_2026_09_28": "nothing in OSM within 100 m"}}, {"type": "Feature", "geometry": {"type": "Point", "coordinates": [16.584089, 49.207517]}, "properties": {"kod_detske_skupiny": "DS10520", "nazev_ds": "Dětská skupina S Láskou", "kapacita_ds": "12", "misto_poskytovani_ds": "Zábranského 1280/8, Žabovřesky, 616 00 Brno", "vznik_opravneni_ds": "2025-12-01", "geocoded_to": "Zábranského 1280/8, Žabovřesky, 61600 Brno", "osm_2026_09_28": "OSM kindergarten within 100 m"}}, {"type": "Feature", "geometry": {"type": "Point", "coordinates": [16.637093, 49.200195]}, "properties": {"kod_detske_skupiny": "SDS10203", "nazev_ds": "Sousedská dětská skupina \"Šimíček\"", "kapacita_ds": "4", "misto_poskytovani_ds": "Myslbekova 1147/12, Židenice, 615 00 Brno", "vznik_opravneni_ds": "2025-09-01", "geocoded_to": "Myslbekova 1147/12, Židenice, 61500 Brno", "osm_2026_09_28": "nothing in OSM within 100 m"}}, {"type": "Feature", "geometry": {"type": "Point", "coordinates": [16.608254, 49.201543]}, "properties": {"kod_detske_skupiny": "DS10682", "nazev_ds": "Malý princ a lištičky - dětská skupina", "kapacita_ds": "24", "misto_poskytovani_ds": "Lidická 1863/16, Černá Pole, 602 00 Brno", "vznik_opravneni_ds": "2026-02-02", "geocoded_to": "Lidická 1863/16, Černá Pole, 60200 Brno", "osm_2026_09_28": "nothing in OSM within 100 m"}}, {"type": "Feature", "geometry": {"type": "Point", "coordinates": [16.622981, 49.203335]}, "properties": {"kod_detske_skupiny": "DS10687", "nazev_ds": "Malý princ a zahradníčci - dětská skupina", "kapacita_ds": "24", "misto_poskytovani_ds": "Jugoslávská 713/5, Zábrdovice, 613 00 Brno", "vznik_opravneni_ds": "2026-02-02", "geocoded_to": "Jugoslávská 713/5, Zábrdovice, 61300 Brno", "osm_2026_09_28": "nothing in OSM within 100 m"}}, {"type": "Feature", "geometry": {"type": "Point", "coordinates": [16.594317, 49.21328]}, "properties": {"kod_detske_skupiny": "DS10700", "nazev_ds": "Malý princ a planetky - dětská skupina", "kapacita_ds": "12", "misto_poskytovani_ds": "Tábor 525/46c, Ponava, 602 00 Brno", "vznik_opravneni_ds": "2026-02-02", "geocoded_to": "Tábor 525/46c, Ponava, 60200 Brno", "osm_2026_09_28": "nothing in OSM within 100 m"}}, {"type": "Feature", "geometry": {"type": "Point", "coordinates": [16.5865, 49.220593]}, "properties": {"kod_detske_skupiny": "DS10701", "nazev_ds": "Malý princ a růžičky - dětská skupina", "kapacita_ds": "12", "misto_poskytovani_ds": "Svatopluka Čecha 2091/94, Královo Pole, 612 00 Brno", "vznik_opravneni_ds": "2026-02-02", "geocoded_to": "Svatopluka Čecha 2091/94, Královo Pole, 61200 Brno", "osm_2026_09_28": "nothing in OSM within 100 m"}}, {"type": "Feature", "geometry": {"type": "Point", "coordinates": [16.675193, 49.169592]}, "properties": {"kod_detske_skupiny": "DS10821", "nazev_ds": "LITTLE FAMILY Brno - CTPark 1, dětská skupina", "kapacita_ds": "24", "misto_poskytovani_ds": "Tuřanka 1387/100, Slatina, 627 00 Brno", "vznik_opravneni_ds": "2026-03-17", "geocoded_to": "Tuřanka 1387/100, Slatina, 62700 Brno", "osm_2026_09_28": "nothing in OSM within 100 m"}}, {"type": "Feature", "geometry": {"type": "Point", "coordinates": [16.675193, 49.169592]}, "properties": {"kod_detske_skupiny": "DS10822", "nazev_ds": "LITTLE FAMILY Brno - CTPark 2, dětská skupina", "kapacita_ds": "24", "misto_poskytovani_ds": "Tuřanka 1387/100, Slatina, 627 00 Brno", "vznik_opravneni_ds": "2026-03-17", "geocoded_to": "Tuřanka 1387/100, Slatina, 62700 Brno", "osm_2026_09_28": "nothing in OSM within 100 m"}}, {"type": "Feature", "geometry": {"type": "Point", "coordinates": [16.640565, 49.205047]}, "properties": {"kod_detske_skupiny": "DS10929", "nazev_ds": "Dětská skupina GAIA", "kapacita_ds": "24", "misto_poskytovani_ds": "Touškova 1438/9, Židenice, 615 00 Brno", "vznik_opravneni_ds": "2026-04-29", "geocoded_to": "Touškova 1438/9, Židenice, 61500 Brno", "osm_2026_09_28": "nothing in OSM within 100 m"}}, {"type": "Feature", "geometry": {"type": "Point", "coordinates": [16.624694, 49.191829]}, "properties": {"kod_detske_skupiny": "DS11308", "nazev_ds": "Dětská skupina Linden Kids", "kapacita_ds": "24", "misto_poskytovani_ds": "Křenová 531/69a, Trnitá, 602 00 Brno", "vznik_opravneni_ds": "2026-09-01", "geocoded_to": "Křenová 531/69a, Trnitá, 60200 Brno", "osm_2026_09_28": "nothing in OSM within 100 m"}}]}