{"type":"FeatureCollection","features":[{"type":"Feature","geometry":{"type":"Point","coordinates":[15.695158,50.261576]},"properties":{"icz":"CZH01140","kodTypuZarizeni":"Kompost","suggested_tag":"(no established tag)","stav":"aktivni","addr_obec":"Třesovice","addr_castObce":"Třesovice","addr_ulice":"Třesovice"}},{"type":"Feature","geometry":{"type":"Point","coordinates":[15.824071,50.557831]},"properties":{"icz":"CZH00564","kodTypuZarizeni":"Sberna","suggested_tag":"amenity=recycling + recycling_type=centre","stav":"aktivni","addr_obec":"Vlčice","addr_castObce":"Vlčice","addr_ulice":"Vlčice"}},{"type":"Feature","geometry":{"type":"Point","coordinates":[15.623589,50.620044]},"properties":{"icz":"CZH00134","kodTypuZarizeni":"Sberna","suggested_tag":"amenity=recycling + recycling_type=centre","stav":"aktivni","addr_obec":"Vrchlabí","addr_castObce":"Vrchlabí","addr_ulice":"Vápenická 475"}},{"type":"Feature","geometry":{"type":"Point","coordinates":[16.076997,50.151575]},"properties":{"icz":"CZH00470","kodTypuZarizeni":"ZpracVozidel","suggested_tag":"industrial=scrap_yard","stav":"aktivni","addr_obec":"Týniště nad Orlicí","addr_castObce":"Týniště nad Orlicí","addr_ulice":"Nádražní 468"}},{"type":"Feature","geometry":{"type":"Point","coordinates":[15.903408,50.341117]},"properties":{"icz":"CZH00986","kodTypuZarizeni":"Sberna","suggested_tag":"amenity=recycling + recycling_type=centre","stav":"aktivni","addr_obec":"Jaroměř","addr_castObce":"Jaroměř","addr_ulice":"Hradecká 535"}},{"type":"Feature","geometry":{"type":"Point","coordinates":[15.461367,50.161275]},"properties":{"icz":"CZH00198","kodTypuZarizeni":"Sberna","suggested_tag":"amenity=recycling + recycling_type=centre","stav":"aktivni","addr_obec":"Chlumec nad Cidlinou","addr_castObce":"Chlumec nad Cidlinou","addr_ulice":"Chlumec nad cidlinou"}},{"type":"Feature","geometry":{"type":"Point","coordinates":[15.158611,50.396944]},"properties":{"icz":"CZH01001","kodTypuZarizeni":"Stac142kal01","stav":"aktivni","addr_obec":"Bačalky","addr_castObce":"Bačalky","addr_ulice":"Bačalky"}},{"type":"Feature","geometry":{"type":"Point","coordinates":[16.280524,50.117627]},"properties":{"icz":"CZH00921","kodTypuZarizeni":"KompostMale","suggested_tag":"(no established tag)","stav":"aktivni","addr_obec":"Vamberk","addr_castObce":"Vamberk","addr_ulice":"p.č. 2425, 682/2, 682/4 K.ú. Vamberk"}},{"type":"Feature","geometry":{"type":"Point","coordinates":[15.358204,50.439984]},"properties":{"icz":"CZH01000","kodTypuZarizeni":"Sberna","suggested_tag":"amenity=recycling + recycling_type=centre","stav":"aktivni","addr_obec":"Jičín","addr_castObce":"Jičín","addr_ulice":"Bolzanova 512"}},{"type":"Feature","geometry":{"type":"Point","coordinates":[15.712855,50.337201]},"properties":{"icz":"CZH00840","kodTypuZarizeni":"ZpracVozidel","suggested_tag":"industrial=scrap_yard","stav":"aktivni","addr_obec":"Cerekvice nad Bystřicí","addr_castObce":"Cerekvice nad Bystřicí","addr_ulice":"původní zemědělský areál"}},{"type":"Feature","geometry":{"type":"Point","coordinates":[15.571577,50.347576]},"properties":{"icz":"CZH00660","kodTypuZarizeni":"Stac01","stav":"aktivni","addr_obec":"Lískovice","addr_castObce":"Lískovice"}},{"type":"Feature","geometry":{"type":"Point","coordinates":[15.9306,50.666156]},"properties":{"icz":"CZH00827","kodTypuZarizeni":"BioProcBiodeg","stav":"aktivni","addr_obec":"Lampertice","addr_castObce":"Lampertice"}},{"type":"Feature","geometry":{"type":"Point","coordinates":[16.20678,50.501861]},"properties":{"icz":"CZH00773","kodTypuZarizeni":"Sberna","suggested_tag":"amenity=recycling + recycling_type=centre","stav":"aktivni","addr_obec":"Velké Petrovice","addr_castObce":"Velké Petrovice","addr_ulice":"Petrovice 13"}},{"type":"Feature","geometry":{"type":"Point","coordinates":[15.864172,50.226956]},"properties":{"icz":"CZH01184","kodTypuZarizeni":"ZpracElektro","stav":"aktivni","addr_obec":"Hradec Králové","addr_ulice":"Vážní","addr_cp":"1495"}},{"type":"Feature","geometry":{"type":"Point","coordinates":[15.351514,50.4062]},"properties":{"icz":"CZH01054","kodTypuZarizeni":"Sberna","suggested_tag":"amenity=recycling + recycling_type=centre","stav":"aktivni","addr_obec":"Staré Místo","addr_ulice":"Staré Místo 41"}},{"type":"Feature","geometry":{"type":"Point","coordinates":[15.963422,50.552775]},"properties":{"icz":"CZH01134","kodTypuZarizeni":"SkladkaStavba","stav":"aktivni","addr_obec":"Trutnov","addr_castObce":"Trutnov","addr_ulice":"Ke Skládce"}},{"type":"Feature","geometry":{"type":"Point","coordinates":[16.15835,50.286997]},"properties":{"icz":"CZH00304","kodTypuZarizeni":"Sberna","suggested_tag":"amenity=recycling + recycling_type=centre","stav":"aktivni","addr_obec":"Dobruška","addr_castObce":"Dobruška","addr_ulice":"Čsl. Armády 51"}},{"type":"Feature","geometry":{"type":"Point","coordinates":[15.841967,50.238758]},"properties":{"icz":"CZH00881","kodTypuZarizeni":"Sberna","suggested_tag":"amenity=recycling + recycling_type=centre","stav":"aktivni","addr_obec":"Hradec Králové","addr_ulice":"Piletická 535"}},{"type":"Feature","geometry":{"type":"Point","coordinates":[15.964022,50.551031]},"properties":{"icz":"CZH00442","kodTypuZarizeni":"Kompost","suggested_tag":"(no established tag)","stav":"aktivni","addr_obec":"Trutnov - Starý Rokytník"}},{"type":"Feature","geometry":{"type":"Point","coordinates":[16.265936,50.614868]},"properties":{"icz":"CZH00145","kodTypuZarizeni":"ZpracVozidel","suggested_tag":"industrial=scrap_yard","stav":"aktivni","addr_obec":"Jetřichov","addr_castObce":"Jetřichov","addr_ulice":"Jetřichov 125"}},{"type":"Feature","geometry":{"type":"Point","coordinates":[16.187672,50.190786]},"properties":{"icz":"CZH00468","kodTypuZarizeni":"ZpracVozidel","suggested_tag":"industrial=scrap_yard","stav":"aktivni","addr_obec":"Černíkovice","addr_ulice":"Černíkovice 52"}},{"type":"Feature","geometry":{"type":"Point","coordinates":[15.498403,50.477494]},"properties":{"icz":"CZH00599","kodTypuZarizeni":"Sberna","suggested_tag":"amenity=recycling + recycling_type=centre","stav":"aktivni","addr_obec":"Nová Paka","addr_ulice":"Kumburský Újezd 24"}},{"type":"Feature","geometry":{"type":"Point","coordinates":[15.351086,50.401342]},"properties":{"icz":"CZH01165","kodTypuZarizeni":"Sberna","suggested_tag":"amenity=recycling + recycling_type=centre","stav":"aktivni","addr_obec":"Staré Místo","addr_ulice":"Staré Místo"}},{"type":"Feature","geometry":{"type":"Point","coordinates":[15.814025,50.176142]},"properties":{"icz":"CZH00698","kodTypuZarizeni":"Recyklace","stav":"aktivni","addr_obec":"Vysoká nad Labem"}},{"type":"Feature","geometry":{"type":"Point","coordinates":[15.755629,50.313385]},"properties":{"icz":"CZH00518","kodTypuZarizeni":"Sberna","suggested_tag":"amenity=recycling + recycling_type=centre","stav":"aktivni","addr_obec":"Hořiněves","addr_castObce":"Hořiněves","addr_ulice":"Hořiněves"}},{"type":"Feature","geometry":{"type":"Point","coordinates":[16.065794,50.517428]},"properties":{"icz":"CZH01116","kodTypuZarizeni":"SkladkaRekult","stav":"aktivni","addr_obec":"Rtyně v Podkrkonoší","addr_castObce":"Rtyně v Podkrkonoší","addr_ulice":"Na Rovni 849"}},{"type":"Feature","geometry":{"type":"Point","coordinates":[15.988275,50.204327]},"properties":{"icz":"CZH00225","kodTypuZarizeni":"Sberna","suggested_tag":"amenity=recycling + recycling_type=centre","stav":"aktivni","addr_obec":"Třebechovice pod Orebem","addr_castObce":"Třebechovice pod Orebem","addr_ulice":"Tyršova ul. 1177"}},{"type":"Feature","geometry":{"type":"Point","coordinates":[16.144446,50.101382]},"properties":{"icz":"CZH00389","kodTypuZarizeni":"Sberna","suggested_tag":"amenity=recycling + recycling_type=centre","stav":"aktivni","addr_obec":"Zdelov","addr_castObce":"Zdelov","addr_ulice":"Zdelov"}},{"type":"Feature","geometry":{"type":"Point","coordinates":[15.792253,50.235756]},"properties":{"icz":"CZH00283","kodTypuZarizeni":"Sberna","suggested_tag":"amenity=recycling + recycling_type=centre","stav":"aktivni","addr_obec":"Hradec Králové","addr_castObce":"Hradec Králové","addr_ulice":"areál ČKD"}},{"type":"Feature","geometry":{"type":"Point","coordinates":[15.509292,50.503633]},"properties":{"icz":"CZH00760","kodTypuZarizeni":"Kompost","suggested_tag":"(no established tag)","stav":"aktivni","addr_obec":"Stará Paka","addr_castObce":"Stará Paka","addr_ulice":"Stará Paka 1124"}},{"type":"Feature","geometry":{"type":"Point","coordinates":[15.888561,50.578086]},"properties":{"icz":"CZH00933","kodTypuZarizeni":"ZpracElektro","stav":"aktivni","addr_obec":"Trutnov","addr_castObce":"Trutnov","addr_ulice":"Mírová 694"}},{"type":"Feature","geometry":{"type":"Point","coordinates":[15.608953,50.584872]},"properties":{"icz":"CZH01045","kodTypuZarizeni":"SkladkaRekult","stav":"aktivni","addr_obec":"Dolní Branná","addr_ulice":"Dolní Branná"}},{"type":"Feature","geometry":{"type":"Point","coordinates":[15.977897,50.20075]},"properties":{"icz":"CZH00897","kodTypuZarizeni":"VyrKov","stav":"aktivni","addr_obec":"Třebechovice pod Orebem","addr_castObce":"Třebechovice pod Orebem","addr_ulice":"Za tratí"}},{"type":"Feature","geometry":{"type":"Point","coordinates":[15.921824,50.357624]},"properties":{"icz":"CZH00671","kodTypuZarizeni":"Sberna","suggested_tag":"amenity=recycling + recycling_type=centre","stav":"aktivni","addr_obec":"Jaroměř","addr_castObce":"Jaroměř","addr_ulice":"Na Valech"}},{"type":"Feature","geometry":{"type":"Point","coordinates":[15.812825,50.178403]},"properties":{"icz":"CZH00980","kodTypuZarizeni":"COV","stav":"aktivni","addr_obec":"Hradec Králové","addr_ulice":"V Mlejnku 625"}},{"type":"Feature","geometry":{"type":"Point","coordinates":[16.300518,50.096353]},"properties":{"icz":"CZH00662","kodTypuZarizeni":"Sberna","suggested_tag":"amenity=recycling + recycling_type=centre","stav":"aktivni","addr_obec":"Záměl","addr_castObce":"Záměl","addr_ulice":"Záměl 227"}},{"type":"Feature","geometry":{"type":"Point","coordinates":[15.9715,50.555033]},"properties":{"icz":"CZH00497","kodTypuZarizeni":"ZarEnerget","stav":"aktivni","addr_obec":"Trutnov","addr_ulice":"Kladská"}},{"type":"Feature","geometry":{"type":"Point","coordinates":[16.333722,50.067278]},"properties":{"icz":"CZH01028","kodTypuZarizeni":"Sberna","suggested_tag":"amenity=recycling + recycling_type=centre","stav":"aktivni","addr_obec":"Potštejn","addr_ulice":"za areálem Orličanu"}},{"type":"Feature","geometry":{"type":"Point","coordinates":[16.187686,50.1908]},"properties":{"icz":"CZH00122","kodTypuZarizeni":"Sberna","suggested_tag":"amenity=recycling + recycling_type=centre","stav":"aktivni","addr_obec":"Černíkovice","addr_ulice":"Černíkovice 52"}},{"type":"Feature","geometry":{"type":"Point","coordinates":[15.290664,50.499839]},"properties":{"icz":"CZH00346","kodTypuZarizeni":"Recyklace","stav":"aktivni","addr_obec":"Libuň","addr_ulice":"228"}},{"type":"Feature","geometry":{"type":"Point","coordinates":[15.601972,50.257319]},"properties":{"icz":"CZH00447","kodTypuZarizeni":"Skladka","suggested_tag":"landuse=landfill","stav":"aktivni","addr_obec":"Nechanice","addr_ulice":"Lodín"}},{"type":"Feature","geometry":{"type":"Point","coordinates":[15.897883,50.281703]},"properties":{"icz":"CZH00854","kodTypuZarizeni":"Kompost","suggested_tag":"(no established tag)","stav":"aktivni","addr_obec":"Černilov","addr_ulice":"Újezd u Hradce Králové"}},{"type":"Feature","geometry":{"type":"Point","coordinates":[15.6247,50.611822]},"properties":{"icz":"CZH00433","kodTypuZarizeni":"Sberna","suggested_tag":"amenity=recycling + recycling_type=centre","stav":"aktivni","addr_obec":"Vrchlabí","addr_ulice":"Dělnická 531"}},{"type":"Feature","geometry":{"type":"Point","coordinates":[16.274595,50.150235]},"properties":{"icz":"CZH00075","kodTypuZarizeni":"Sberna","suggested_tag":"amenity=recycling + recycling_type=centre","stav":"aktivni","addr_obec":"Rychnov nad Kněžnou","addr_castObce":"Rychnov nad Kněžnou","addr_ulice":"Na Jamách 1180"}},{"type":"Feature","geometry":{"type":"Point","coordinates":[15.891012,50.559836]},"properties":{"icz":"CZH01073","kodTypuZarizeni":"Sberna","suggested_tag":"amenity=recycling + recycling_type=centre","stav":"aktivni","addr_obec":"Trutnov","addr_castObce":"Trutnov","addr_ulice":"Volanovská 518"}},{"type":"Feature","geometry":{"type":"Point","coordinates":[16.037153,50.391822]},"properties":{"icz":"CZH00872","kodTypuZarizeni":"Recyklace","stav":"aktivni","addr_obec":"Česká Skalice","addr_ulice":"Bezručova 88"}},{"type":"Feature","geometry":{"type":"Point","coordinates":[15.801489,50.415897]},"properties":{"icz":"CZH00149","kodTypuZarizeni":"Sberna","suggested_tag":"amenity=recycling + recycling_type=centre","stav":"aktivni","addr_obec":"Dvůr Králové nad Labem","addr_ulice":"Seifertova 2936"}},{"type":"Feature","geometry":{"type":"Point","coordinates":[15.614177,50.591641]},"properties":{"icz":"CZH00460","kodTypuZarizeni":"Sberna","suggested_tag":"amenity=recycling + recycling_type=centre","stav":"aktivni","addr_obec":"Vrchlabí","addr_castObce":"Vrchlabí","addr_ulice":"Dělnická"}},{"type":"Feature","geometry":{"type":"Point","coordinates":[16.096003,50.485306]},"properties":{"icz":"CZH00849","kodTypuZarizeni":"Sberna","suggested_tag":"amenity=recycling + recycling_type=centre","stav":"aktivni","addr_obec":"Červený Kostelec","addr_castObce":"Červený Kostelec","addr_ulice":"Řehákova"}},{"type":"Feature","geometry":{"type":"Point","coordinates":[16.090892,50.422928]},"properties":{"icz":"CZH00157","kodTypuZarizeni":"ZpracVozidel","suggested_tag":"industrial=scrap_yard","stav":"aktivni","addr_obec":"Studnice","addr_ulice":"138"}},{"type":"Feature","geometry":{"type":"Point","coordinates":[16.083392,50.092236]},"properties":{"icz":"CZH00088","kodTypuZarizeni":"Sberna","suggested_tag":"amenity=recycling + recycling_type=centre","stav":"aktivni","addr_obec":"Borohrádek","addr_ulice":"Husova ulice"}},{"type":"Feature","geometry":{"type":"Point","coordinates":[16.265936,50.614868]},"properties":{"icz":"CZH00140","kodTypuZarizeni":"Sberna","suggested_tag":"amenity=recycling + recycling_type=centre","stav":"aktivni","addr_obec":"Jetřichov","addr_castObce":"Jetřichov","addr_ulice":"Jetřichov 125"}},{"type":"Feature","geometry":{"type":"Point","coordinates":[16.125106,50.2854]},"properties":{"icz":"CZH01160","kodTypuZarizeni":"Sberna","suggested_tag":"amenity=recycling + recycling_type=centre","stav":"aktivni","addr_obec":"Dobruška","addr_ulice":"Pulice","addr_cp":"167"}},{"type":"Feature","geometry":{"type":"Point","coordinates":[15.938728,50.574108]},"properties":{"icz":"CZH01042","kodTypuZarizeni":"Sberna","suggested_tag":"amenity=recycling + recycling_type=centre","stav":"aktivni","addr_obec":"Trutnov","addr_castObce":"Trutnov","addr_ulice":"areál Cerea"}},{"type":"Feature","geometry":{"type":"Point","coordinates":[15.861517,50.217286]},"properties":{"icz":"CZH00672","kodTypuZarizeni":"Sberna","suggested_tag":"amenity=recycling + recycling_type=centre","stav":"aktivni","addr_obec":"Hradec Králové","addr_ulice":"Kladská 1127"}},{"type":"Feature","geometry":{"type":"Point","coordinates":[16.148853,50.355803]},"properties":{"icz":"CZH00306","kodTypuZarizeni":"Sberna","suggested_tag":"amenity=recycling + recycling_type=centre","stav":"aktivni","addr_obec":"Nové Město nad Metují","addr_castObce":"Nové Město nad Metují","addr_ulice":"Družstevní 586"}},{"type":"Feature","geometry":{"type":"Point","coordinates":[15.813736,50.1788]},"properties":{"icz":"CZH00822","kodTypuZarizeni":"COV","stav":"aktivni","addr_obec":"Hradec Králové","addr_ulice":"Třebeš"}},{"type":"Feature","geometry":{"type":"Point","coordinates":[16.024275,50.502986]},"properties":{"icz":"CZH01180","kodTypuZarizeni":"KaucSynVlak","stav":"aktivni","addr_obec":"Úpice","addr_ulice":"3. května","addr_cp":"611"}},{"type":"Feature","geometry":{"type":"Point","coordinates":[16.497136,50.872725]},"properties":{"icz":"CZH01191","kodTypuZarizeni":"KompostMale","suggested_tag":"(no established tag)","stav":"aktivni","addr_obec":"Hynčice"}},{"type":"Feature","geometry":{"type":"Point","coordinates":[15.859133,50.225617]},"properties":{"icz":"CZH00938","kodTypuZarizeni":"ZpracVozidel","suggested_tag":"industrial=scrap_yard","stav":"aktivni","addr_obec":"Hradec Králové","addr_ulice":"Vážní","addr_cp":"1190"}},{"type":"Feature","geometry":{"type":"Point","coordinates":[15.346222,50.402228]},"properties":{"icz":"CZH01118","kodTypuZarizeni":"Sberna","suggested_tag":"amenity=recycling + recycling_type=centre","stav":"aktivni","addr_obec":"Staré Místo","addr_castObce":"Staré Místo","addr_ulice":"Staré Místo"}},{"type":"Feature","geometry":{"type":"Point","coordinates":[15.809492,50.435464]},"properties":{"icz":"CZH00274","kodTypuZarizeni":"ZpracVozidel","suggested_tag":"industrial=scrap_yard","stav":"aktivni","addr_obec":"Dvůr Králové nad Labem","addr_castObce":"Dvůr Králové nad Labem","addr_ulice":"Slovany 3051"}},{"type":"Feature","geometry":{"type":"Point","coordinates":[15.791111,50.241667]},"properties":{"icz":"CZH00908","kodTypuZarizeni":"VyrKov","stav":"aktivni","addr_obec":"Hradec Králové","addr_castObce":"Hradec Králové","addr_ulice":"Náchodská"}},{"type":"Feature","geometry":{"type":"Point","coordinates":[16.091311,50.277053]},"properties":{"icz":"CZH00472","kodTypuZarizeni":"ZpracVozidel","suggested_tag":"industrial=scrap_yard","stav":"aktivni","addr_obec":"Opočno","addr_ulice":"Nádražní"}},{"type":"Feature","geometry":{"type":"Point","coordinates":[15.861203,50.226067]},"properties":{"icz":"CZH01206","kodTypuZarizeni":"ZpracDoprava","stav":"aktivni","addr_obec":"Hradec Králové","addr_ulice":"Vážní","addr_cp":"1190"}},{"type":"Feature","geometry":{"type":"Point","coordinates":[15.372383,50.431317]},"properties":{"icz":"CZH00376","kodTypuZarizeni":"Sberna","suggested_tag":"amenity=recycling + recycling_type=centre","stav":"aktivni","addr_obec":"Jičín","addr_castObce":"Jičín","addr_ulice":"Konecchlumského 981"}},{"type":"Feature","geometry":{"type":"Point","coordinates":[15.733429,50.227759]},"properties":{"icz":"CZH00226","kodTypuZarizeni":"Sberna","suggested_tag":"amenity=recycling + recycling_type=centre","stav":"aktivni","addr_obec":"Stěžery","addr_castObce":"Stěžery","addr_ulice":"Stěžírky"}},{"type":"Feature","geometry":{"type":"Point","coordinates":[15.926051,50.48771]},"properties":{"icz":"CZH00632","kodTypuZarizeni":"Sberna","suggested_tag":"amenity=recycling + recycling_type=centre","stav":"aktivni","addr_obec":"Hajnice","addr_castObce":"Hajnice","addr_ulice":"Kyje u Hajnice"}},{"type":"Feature","geometry":{"type":"Point","coordinates":[16.300592,50.096179]},"properties":{"icz":"CZH00892","kodTypuZarizeni":"KompostMale","suggested_tag":"(no established tag)","stav":"aktivni","addr_obec":"Záměl","addr_castObce":"Záměl","addr_ulice":"Záměl 158"}},{"type":"Feature","geometry":{"type":"Point","coordinates":[15.723972,50.335511]},"properties":{"icz":"CZH00148","kodTypuZarizeni":"Mechan","stav":"aktivni","addr_obec":"Cerekvice nad Bystřicí"}},{"type":"Feature","geometry":{"type":"Point","coordinates":[16.048681,50.531063]},"properties":{"icz":"CZH00343","kodTypuZarizeni":"Sberna","suggested_tag":"amenity=recycling + recycling_type=centre","stav":"aktivni","addr_obec":"Malé Svatoňovice","addr_castObce":"Malé Svatoňovice","addr_ulice":"Nádražní 353"}},{"type":"Feature","geometry":{"type":"Point","coordinates":[15.786339,50.445548]},"properties":{"icz":"CZH00204","kodTypuZarizeni":"Sberna","suggested_tag":"amenity=recycling + recycling_type=centre","stav":"aktivni","addr_obec":"Dvůr Králové nad Labem","addr_castObce":"Dvůr Králové nad Labem","addr_ulice":"katstrální území Verdek"}},{"type":"Feature","geometry":{"type":"Point","coordinates":[15.639531,50.370839]},"properties":{"icz":"CZH01125","kodTypuZarizeni":"Sberna","suggested_tag":"amenity=recycling + recycling_type=centre","stav":"aktivni","addr_obec":"Hořice","addr_castObce":"Hořice","addr_ulice":"Maixnerova 526"}},{"type":"Feature","geometry":{"type":"Point","coordinates":[16.297008,50.576331]},"properties":{"icz":"CZH01202","kodTypuZarizeni":"UpravaKalu","stav":"aktivni","addr_obec":"Křinice"}},{"type":"Feature","geometry":{"type":"Point","coordinates":[16.290822,50.200557]},"properties":{"icz":"CZH00363","kodTypuZarizeni":"ZpracVozidel","suggested_tag":"industrial=scrap_yard","stav":"aktivni","addr_obec":"Lukavice","addr_castObce":"Lukavice","addr_ulice":"Lukavice 80"}},{"type":"Feature","geometry":{"type":"Point","coordinates":[15.712055,50.186874]},"properties":{"icz":"CZH01062","kodTypuZarizeni":"Sberna","suggested_tag":"amenity=recycling + recycling_type=centre","stav":"aktivni","addr_obec":"Hvozdnice","addr_castObce":"Hvozdnice","addr_ulice":"Hvozdnice 83"}},{"type":"Feature","geometry":{"type":"Point","coordinates":[15.870075,50.600761]},"properties":{"icz":"CZH00232","kodTypuZarizeni":"Sberna","suggested_tag":"amenity=recycling + recycling_type=centre","stav":"aktivni","addr_obec":"Trutnov","addr_castObce":"Trutnov","addr_ulice":"Kalnovodská 665"}},{"type":"Feature","geometry":{"type":"Point","coordinates":[16.055545,50.397558]},"properties":{"icz":"CZH00177","kodTypuZarizeni":"Sberna","suggested_tag":"amenity=recycling + recycling_type=centre","stav":"aktivni","addr_obec":"Česká Skalice","addr_castObce":"Česká Skalice","addr_ulice":"Pod nádražím 606"}},{"type":"Feature","geometry":{"type":"Point","coordinates":[15.863533,50.225814]},"properties":{"icz":"CZH00941","kodTypuZarizeni":"Sberna","suggested_tag":"amenity=recycling + recycling_type=centre","stav":"aktivni","addr_obec":"Hradec Králové","addr_castObce":"Hradec Králové","addr_ulice":"Vážní 857"}},{"type":"Feature","geometry":{"type":"Point","coordinates":[16.052767,50.133342]},"properties":{"icz":"CZH00356","kodTypuZarizeni":"Prekladiste","suggested_tag":"amenity=waste_transfer_station","stav":"aktivni","addr_obec":"Albrechtice nad Orlicí"}},{"type":"Feature","geometry":{"type":"Point","coordinates":[15.962049,50.550836]},"properties":{"icz":"CZH00017","kodTypuZarizeni":"Sberna","suggested_tag":"amenity=recycling + recycling_type=centre","stav":"aktivni","addr_obec":"Trutnov","addr_castObce":"Trutnov","addr_ulice":"Starý Rokytník 226"}},{"type":"Feature","geometry":{"type":"Point","coordinates":[16.067222,50.650833]},"properties":{"icz":"CZH00893","kodTypuZarizeni":"VyrKov","stav":"aktivni","addr_obec":"Česká Skalice","addr_castObce":"Česká Skalice","addr_ulice":"T. G. Masaryka"}},{"type":"Feature","geometry":{"type":"Point","coordinates":[15.643836,50.299075]},"properties":{"icz":"CZH00920","kodTypuZarizeni":"KompostMale","suggested_tag":"(no established tag)","stav":"aktivni","addr_obec":"Stračov","addr_castObce":"Stračov","addr_ulice":"st.p.č. 186 a 207, p.p.č. 98 K.ú. Stračov"}},{"type":"Feature","geometry":{"type":"Point","coordinates":[16.157306,50.311019]},"properties":{"icz":"CZH01025","kodTypuZarizeni":"Sberna","suggested_tag":"amenity=recycling + recycling_type=centre","stav":"aktivni","addr_obec":"Dobruška","addr_ulice":"Křovice"}},{"type":"Feature","geometry":{"type":"Point","coordinates":[15.602011,50.260061]},"properties":{"icz":"CZH01164","kodTypuZarizeni":"SkladkaRekult","stav":"aktivni","addr_obec":"Lodín"}},{"type":"Feature","geometry":{"type":"Point","coordinates":[15.609916,50.586287]},"properties":{"icz":"CZH00584","kodTypuZarizeni":"Sberna","suggested_tag":"amenity=recycling + recycling_type=centre","stav":"aktivni","addr_obec":"Dolní Branná","addr_castObce":"Dolní Branná","addr_ulice":"Dolní Branná"}},{"type":"Feature","geometry":{"type":"Point","coordinates":[15.903408,50.341117]},"properties":{"icz":"CZH00131","kodTypuZarizeni":"SberVozidel","suggested_tag":"industrial=scrap_yard","stav":"aktivni","addr_obec":"Jaroměř","addr_castObce":"Jaroměř","addr_ulice":"Hradecká 535"}},{"type":"Feature","geometry":{"type":"Point","coordinates":[15.919531,50.345514]},"properties":{"icz":"CZH00154","kodTypuZarizeni":"Sberna","suggested_tag":"amenity=recycling + recycling_type=centre","stav":"aktivni","addr_obec":"Jaroměř","addr_castObce":"Jaroměř","addr_ulice":"5. Května"}},{"type":"Feature","geometry":{"type":"Point","coordinates":[15.916861,50.366]},"properties":{"icz":"CZH01083","kodTypuZarizeni":"Stac14201","stav":"aktivni","addr_obec":"Hořenice","addr_ulice":"Hořenice"}},{"type":"Feature","geometry":{"type":"Point","coordinates":[15.700105,50.52471]},"properties":{"icz":"CZH01098","kodTypuZarizeni":"ZasZemKam","stav":"aktivni","addr_obec":"Dolní Olešnice","addr_castObce":"Dolní Olešnice","addr_ulice":"Dolní Olešnice"}},{"type":"Feature","geometry":{"type":"Point","coordinates":[16.137076,50.357081]},"properties":{"icz":"CZH00495","kodTypuZarizeni":"Sberna","suggested_tag":"amenity=recycling + recycling_type=centre","stav":"aktivni","addr_obec":"Nové Město nad Metují","addr_castObce":"Nové Město nad Metují","addr_ulice":"Nádražní"}},{"type":"Feature","geometry":{"type":"Point","coordinates":[15.325253,50.329511]},"properties":{"icz":"CZH00752","kodTypuZarizeni":"Sberna","suggested_tag":"amenity=recycling + recycling_type=centre","stav":"aktivni","addr_obec":"Vršce"}},{"type":"Feature","geometry":{"type":"Point","coordinates":[15.530463,50.484998]},"properties":{"icz":"CZH00676","kodTypuZarizeni":"ZpracVozidel","suggested_tag":"industrial=scrap_yard","stav":"aktivni","addr_obec":"Nová Paka","addr_castObce":"Nová Paka","addr_ulice":"Štikov 56"}},{"type":"Feature","geometry":{"type":"Point","coordinates":[15.603,50.571917]},"properties":{"icz":"CZH00899","kodTypuZarizeni":"VyrKov","stav":"aktivni","addr_obec":"Horní Kalná","addr_castObce":"Horní Kalná","addr_ulice":"Horní Kalná"}},{"type":"Feature","geometry":{"type":"Point","coordinates":[15.778471,50.177902]},"properties":{"icz":"CZH01119","kodTypuZarizeni":"Recyklace","stav":"aktivni","addr_obec":"Hradec Králové","addr_castObce":"Hradec Králové","addr_ulice":"Plačice"}},{"type":"Feature","geometry":{"type":"Point","coordinates":[16.076623,50.154183]},"properties":{"icz":"CZH01094","kodTypuZarizeni":"ZarPriprava","stav":"aktivni","addr_obec":"Týniště nad Orlicí","addr_castObce":"Týniště nad Orlicí","addr_ulice":"Za Drahou 189"}},{"type":"Feature","geometry":{"type":"Point","coordinates":[15.876594,50.219769]},"properties":{"icz":"CZH00084","kodTypuZarizeni":"TridDotrid","stav":"aktivni","addr_obec":"Hradec Králové","addr_castObce":"Hradec Králové","addr_ulice":"Bří. Štefanů"}},{"type":"Feature","geometry":{"type":"Point","coordinates":[16.068112,50.453233]},"properties":{"icz":"CZH01032","kodTypuZarizeni":"SredrOdpad","stav":"aktivni","addr_obec":"Červená Hora","addr_castObce":"Červená Hora","addr_ulice":"bývalá míchárna krmiv"}},{"type":"Feature","geometry":{"type":"Point","coordinates":[15.455178,50.149461]},"properties":{"icz":"CZH00633","kodTypuZarizeni":"Sberna","suggested_tag":"amenity=recycling + recycling_type=centre","stav":"aktivni","addr_obec":"Chlumec nad Cidlinou","addr_castObce":"Chlumec nad Cidlinou","addr_ulice":"Palackého 344"}},{"type":"Feature","geometry":{"type":"Point","coordinates":[16.259215,50.626787]},"properties":{"icz":"CZH01108","kodTypuZarizeni":"KompostMale","suggested_tag":"(no established tag)","stav":"aktivni","addr_obec":"Meziměstí","addr_castObce":"Meziměstí","addr_ulice":"Školní"}},{"type":"Feature","geometry":{"type":"Point","coordinates":[16.086089,50.481272]},"properties":{"icz":"CZH00061","kodTypuZarizeni":"Sberna","suggested_tag":"amenity=recycling + recycling_type=centre","stav":"aktivni","addr_obec":"Červený Kostelec","addr_ulice":"Lhota za Červeným Kostelcem"}},{"type":"Feature","geometry":{"type":"Point","coordinates":[16.298039,50.576908]},"properties":{"icz":"CZH00866","kodTypuZarizeni":"Kompost","suggested_tag":"(no established tag)","stav":"aktivni","addr_obec":"Křinice","addr_ulice":"Křinice"}},{"type":"Feature","geometry":{"type":"Point","coordinates":[16.279142,50.1505]},"properties":{"icz":"CZH00453","kodTypuZarizeni":"Sberna","suggested_tag":"amenity=recycling + recycling_type=centre","stav":"aktivni","addr_obec":"Rychnov nad Kněžnou","addr_castObce":"Jámy","addr_cp":"12"}},{"type":"Feature","geometry":{"type":"Point","coordinates":[15.985111,50.199231]},"properties":{"icz":"CZH01096","kodTypuZarizeni":"Sberna","suggested_tag":"amenity=recycling + recycling_type=centre","stav":"aktivni","addr_obec":"Třebechovice pod Orebem","addr_castObce":"Třebechovice pod Orebem","addr_ulice":"Resslova 1493, Třebechovice pod Orebem, Česko"}},{"type":"Feature","geometry":{"type":"Point","coordinates":[15.888517,50.578142]},"properties":{"icz":"CZH01178","kodTypuZarizeni":"SredrElektro","stav":"aktivni","addr_obec":"Trutnov"}},{"type":"Feature","geometry":{"type":"Point","coordinates":[15.848184,50.294664]},"properties":{"icz":"CZH00706","kodTypuZarizeni":"Sberna","suggested_tag":"amenity=recycling + recycling_type=centre","stav":"aktivni","addr_obec":"Smiřice","addr_castObce":"Smiřice","addr_ulice":"Cukrovarská"}},{"type":"Feature","geometry":{"type":"Point","coordinates":[15.803136,50.493811]},"properties":{"icz":"CZH00858","kodTypuZarizeni":"Kompost","suggested_tag":"(no established tag)","stav":"aktivni","addr_obec":"Vítězná","addr_ulice":"Kocléřov"}},{"type":"Feature","geometry":{"type":"Point","coordinates":[15.396389,50.33]},"properties":{"icz":"CZH00909","kodTypuZarizeni":"KompostMale","suggested_tag":"(no established tag)","stav":"aktivni","addr_obec":"Hradec Králové","addr_ulice":"Sokolská"}},{"type":"Feature","geometry":{"type":"Point","coordinates":[15.885833,50.219722]},"properties":{"icz":"CZH00901","kodTypuZarizeni":"Stac14201","stav":"aktivni","addr_obec":"Hradec Králové","addr_castObce":"Hradec Králové","addr_ulice":"Bratří Štefanů 1070"}},{"type":"Feature","geometry":{"type":"Point","coordinates":[15.531077,50.485132]},"properties":{"icz":"CZH00591","kodTypuZarizeni":"ZpracVozidel","suggested_tag":"industrial=scrap_yard","stav":"aktivni","addr_obec":"Nová Paka","addr_castObce":"Nová Paka","addr_ulice":"Štikov 69"}},{"type":"Feature","geometry":{"type":"Point","coordinates":[15.605861,50.341386]},"properties":{"icz":"CZH01049","kodTypuZarizeni":"Recyklace","stav":"aktivni","addr_obec":"Bašnice","addr_ulice":"Bašnice 87"}},{"type":"Feature","geometry":{"type":"Point","coordinates":[15.892239,50.354314]},"properties":{"icz":"CZH00413","kodTypuZarizeni":"Bioplyn","stav":"aktivni","addr_obec":"Jaroměř","addr_castObce":"Jaroměř"}},{"type":"Feature","geometry":{"type":"Point","coordinates":[15.604394,50.258969]},"properties":{"icz":"CZH01190","kodTypuZarizeni":"SkladkaStavba","stav":"aktivni","addr_obec":"Lodín","addr_ulice":"Lodín"}},{"type":"Feature","geometry":{"type":"Point","coordinates":[16.050584,50.133135]},"properties":{"icz":"CZH00543","kodTypuZarizeni":"SkladkaRekult","stav":"aktivni","addr_obec":"Nová Ves","addr_castObce":"Nová Ves","addr_ulice":"Abrechtice nad Orlicí"}},{"type":"Feature","geometry":{"type":"Point","coordinates":[15.967325,50.359798]},"properties":{"icz":"CZH00790","kodTypuZarizeni":"Sberna","suggested_tag":"amenity=recycling + recycling_type=centre","stav":"aktivni","addr_obec":"Rychnovek","addr_castObce":"Rychnovek","addr_ulice":"Rychnovek"}},{"type":"Feature","geometry":{"type":"Point","coordinates":[15.912158,50.564389]},"properties":{"icz":"CZH00701","kodTypuZarizeni":"Sberna","suggested_tag":"amenity=recycling + recycling_type=centre","stav":"aktivni","addr_obec":"Trutnov","addr_castObce":"Trutnov","addr_ulice":"Úpské nábřeží 959"}},{"type":"Feature","geometry":{"type":"Point","coordinates":[15.345086,50.401646]},"properties":{"icz":"CZH01092","kodTypuZarizeni":"Sberna","suggested_tag":"amenity=recycling + recycling_type=centre","stav":"aktivni","addr_obec":"Staré Místo","addr_castObce":"Staré Místo","addr_ulice":"Staré Místo"}},{"type":"Feature","geometry":{"type":"Point","coordinates":[16.297903,50.576708]},"properties":{"icz":"CZH01085","kodTypuZarizeni":"Kompost","suggested_tag":"(no established tag)","stav":"aktivni","addr_obec":"Křinice","addr_ulice":"Zemědělský areál - Křinice"}},{"type":"Feature","geometry":{"type":"Point","coordinates":[16.231411,50.117164]},"properties":{"icz":"CZH01056","kodTypuZarizeni":"Sberna","suggested_tag":"amenity=recycling + recycling_type=centre","stav":"aktivni","addr_obec":"Kostelec nad Orlicí","addr_castObce":"Kostelec nad Orlicí","addr_ulice":"Rudé armády 1458"}},{"type":"Feature","geometry":{"type":"Point","coordinates":[15.291689,50.500617]},"properties":{"icz":"CZH00487","kodTypuZarizeni":"Sberna","suggested_tag":"amenity=recycling + recycling_type=centre","stav":"aktivni","addr_obec":"Libuň","addr_ulice":"Libuň 230"}},{"type":"Feature","geometry":{"type":"Point","coordinates":[16.333719,50.067406]},"properties":{"icz":"CZH00923","kodTypuZarizeni":"KompostMale","suggested_tag":"(no established tag)","stav":"aktivni","addr_obec":"Potštejn","addr_castObce":"Potštejn","addr_ulice":"st.p.č. 639, p.p.č. 808/7 a 813/7 k.ú. Potštejn"}},{"type":"Feature","geometry":{"type":"Point","coordinates":[15.528162,50.256325]},"properties":{"icz":"CZH00972","kodTypuZarizeni":"Bioplyn213","stav":"aktivni","addr_obec":"Králíky","addr_castObce":"Králíky","addr_ulice":"Králíky"}},{"type":"Feature","geometry":{"type":"Point","coordinates":[15.934111,50.569264]},"properties":{"icz":"CZH01138","kodTypuZarizeni":"Prekladiste","suggested_tag":"amenity=waste_transfer_station","stav":"aktivni","addr_obec":"Trutnov","addr_ulice":"šikmá","addr_cp":"371"}},{"type":"Feature","geometry":{"type":"Point","coordinates":[15.815425,50.448766]},"properties":{"icz":"CZH01077","kodTypuZarizeni":"Sberna","suggested_tag":"amenity=recycling + recycling_type=centre","stav":"aktivni","addr_obec":"Dvůr Králové nad Labem","addr_castObce":"Dvůr Králové nad Labem","addr_ulice":"Vrchlického 1504"}},{"type":"Feature","geometry":{"type":"Point","coordinates":[15.167744,50.466556]},"properties":{"icz":"CZH00509","kodTypuZarizeni":"Sberna","suggested_tag":"amenity=recycling + recycling_type=centre","stav":"aktivni","addr_obec":"Sobotka","addr_castObce":"Sobotka","addr_ulice":"Nádražní 301"}},{"type":"Feature","geometry":{"type":"Point","coordinates":[15.324289,50.361434]},"properties":{"icz":"CZH00136","kodTypuZarizeni":"Sberna","suggested_tag":"amenity=recycling + recycling_type=centre","stav":"aktivni","addr_obec":"Jičíněves","addr_castObce":"Jičíněves","addr_ulice":"Bartoušov"}},{"type":"Feature","geometry":{"type":"Point","coordinates":[16.034136,50.515411]},"properties":{"icz":"CZH00271","kodTypuZarizeni":"ZpracVozidel","suggested_tag":"industrial=scrap_yard","stav":"aktivni","addr_obec":"Batňovice","addr_castObce":"Batňovice","addr_ulice":"Batňovice 162"}},{"type":"Feature","geometry":{"type":"Point","coordinates":[15.25935,50.322189]},"properties":{"icz":"CZH00418","kodTypuZarizeni":"SkladkaRekult","stav":"aktivni","addr_obec":"Kopidlno"}},{"type":"Feature","geometry":{"type":"Point","coordinates":[16.0653,50.517143]},"properties":{"icz":"CZH00492","kodTypuZarizeni":"Skladka","suggested_tag":"landuse=landfill","stav":"aktivni","addr_obec":"Rtyně v Podkrkonoší","addr_castObce":"Rtyně v Podkrkonoší","addr_ulice":"Na Rovni 849"}},{"type":"Feature","geometry":{"type":"Point","coordinates":[16.16495,50.597464]},"properties":{"icz":"CZH01152","kodTypuZarizeni":"Sberna","suggested_tag":"amenity=recycling + recycling_type=centre","stav":"aktivni","addr_obec":"Teplice nad Metují","addr_ulice":"Za Školou","addr_cp":"289"}},{"type":"Feature","geometry":{"type":"Point","coordinates":[15.850508,50.295772]},"properties":{"icz":"CZH00414","kodTypuZarizeni":"Kompost","suggested_tag":"(no established tag)","stav":"aktivni","addr_obec":"Smiřice","addr_castObce":"Smiřice"}},{"type":"Feature","geometry":{"type":"Point","coordinates":[16.288198,50.176869]},"properties":{"icz":"CZH01020","kodTypuZarizeni":"KompostMale","suggested_tag":"(no established tag)","stav":"aktivni","addr_obec":"Rychnov nad Kněžnou","addr_castObce":"Rychnov nad Kněžnou","addr_ulice":"Na Poustkách"}},{"type":"Feature","geometry":{"type":"Point","coordinates":[15.578232,50.425038]},"properties":{"icz":"CZH00978","kodTypuZarizeni":"Sberna","suggested_tag":"amenity=recycling + recycling_type=centre","stav":"aktivni","addr_obec":"Lázně Bělohrad","addr_castObce":"Lázně Bělohrad","addr_ulice":"Dolní Nová Ves"}},{"type":"Feature","geometry":{"type":"Point","coordinates":[15.428177,50.141898]},"properties":{"icz":"CZH00101","kodTypuZarizeni":"Kompost","suggested_tag":"(no established tag)","stav":"aktivni","addr_obec":"Olešnice","addr_castObce":"Olešnice","addr_ulice":"Chlumec nad Cidlinou"}},{"type":"Feature","geometry":{"type":"Point","coordinates":[15.539661,50.181939]},"properties":{"icz":"CZH00950","kodTypuZarizeni":"KompostMale","suggested_tag":"(no established tag)","stav":"aktivni","addr_obec":"Kosice","addr_castObce":"Kosice"}},{"type":"Feature","geometry":{"type":"Point","coordinates":[15.371009,50.414366]},"properties":{"icz":"CZH00087","kodTypuZarizeni":"ZpracVozidel","suggested_tag":"industrial=scrap_yard","stav":"aktivni","addr_obec":"Jičín","addr_castObce":"Jičín","addr_ulice":"Popovice 30"}},{"type":"Feature","geometry":{"type":"Point","coordinates":[16.253922,50.205661]},"properties":{"icz":"CZH00434","kodTypuZarizeni":"Sberna","suggested_tag":"amenity=recycling + recycling_type=centre","stav":"aktivni","addr_obec":"Kvasiny","addr_ulice":"Kvasiny 145"}},{"type":"Feature","geometry":{"type":"Point","coordinates":[16.114275,50.229125]},"properties":{"icz":"CZH00568","kodTypuZarizeni":"Kompost","suggested_tag":"(no established tag)","stav":"aktivni","addr_obec":"Přepychy","addr_ulice":"Přepychy"}},{"type":"Feature","geometry":{"type":"Point","coordinates":[16.134676,50.451219]},"properties":{"icz":"CZH01104","kodTypuZarizeni":"Kompost","suggested_tag":"(no established tag)","stav":"aktivni","addr_obec":"Zábrodí","addr_castObce":"Zábrodí","addr_ulice":"Horní Rybníky, Zábrodí, Česko"}},{"type":"Feature","geometry":{"type":"Point","coordinates":[16.042486,50.38845]},"properties":{"icz":"CZH00391","kodTypuZarizeni":"Sberna","suggested_tag":"amenity=recycling + recycling_type=centre","stav":"aktivni","addr_obec":"Česká Skalice","addr_ulice":"Zelená"}},{"type":"Feature","geometry":{"type":"Point","coordinates":[15.535706,50.481428]},"properties":{"icz":"CZH00091","kodTypuZarizeni":"Sberna","suggested_tag":"amenity=recycling + recycling_type=centre","stav":"aktivni","addr_obec":"Nová Paka","addr_castObce":"Nová Paka","addr_ulice":"Přibyslavská 124"}},{"type":"Feature","geometry":{"type":"Point","coordinates":[16.264922,50.303275]},"properties":{"icz":"CZH00922","kodTypuZarizeni":"KompostMale","suggested_tag":"(no established tag)","stav":"aktivni","addr_obec":"Kounov","addr_ulice":"Kounov (p.č. 320/4, k.ú. Kounov)"}},{"type":"Feature","geometry":{"type":"Point","coordinates":[15.476111,50.220167]},"properties":{"icz":"CZH00904","kodTypuZarizeni":"VyrKov","stav":"aktivni","addr_obec":"Nový Bydžov","addr_castObce":"Nový Bydžov","addr_ulice":"Průmyslová"}},{"type":"Feature","geometry":{"type":"Point","coordinates":[15.426892,50.33135]},"properties":{"icz":"CZH01151","kodTypuZarizeni":"Sberna","suggested_tag":"amenity=recycling + recycling_type=centre","stav":"aktivni","addr_obec":"Vysoké Veselí","addr_ulice":"Prof. Seemana","addr_cp":"329"}},{"type":"Feature","geometry":{"type":"Point","coordinates":[15.955419,50.288331]},"properties":{"icz":"CZH00223","kodTypuZarizeni":"Sberna","suggested_tag":"amenity=recycling + recycling_type=centre","stav":"aktivni","addr_obec":"Libřice","addr_castObce":"Libřice","addr_ulice":"Libřice 117"}},{"type":"Feature","geometry":{"type":"Point","coordinates":[15.820183,50.258694]},"properties":{"icz":"CZH00239","kodTypuZarizeni":"Sberna","suggested_tag":"amenity=recycling + recycling_type=centre","stav":"aktivni","addr_obec":"Předměřice nad Labem","addr_ulice":"U Panelárny 461"}},{"type":"Feature","geometry":{"type":"Point","coordinates":[15.757872,50.254608]},"properties":{"icz":"CZH00996","kodTypuZarizeni":"Sberna","suggested_tag":"amenity=recycling + recycling_type=centre","stav":"aktivni","addr_obec":"Všestary","addr_castObce":"Všestary","addr_ulice":"Všestary"}},{"type":"Feature","geometry":{"type":"Point","coordinates":[16.268311,50.26695]},"properties":{"icz":"CZH00831","kodTypuZarizeni":"Kompost","suggested_tag":"(no established tag)","stav":"aktivni","addr_obec":"Dobré","addr_ulice":"Dobré 80"}},{"type":"Feature","geometry":{"type":"Point","coordinates":[16.172506,50.241593]},"properties":{"icz":"CZH01081","kodTypuZarizeni":"Stac142kal01","stav":"aktivni","addr_obec":"Trnov","addr_ulice":"Trnov"}},{"type":"Feature","geometry":{"type":"Point","coordinates":[16.075762,50.155572]},"properties":{"icz":"CZH00989","kodTypuZarizeni":"Sberna","suggested_tag":"amenity=recycling + recycling_type=centre","stav":"aktivni","addr_obec":"Týniště nad Orlicí","addr_castObce":"Týniště nad Orlicí","addr_ulice":"Za Drahou 987"}},{"type":"Feature","geometry":{"type":"Point","coordinates":[15.625542,50.616178]},"properties":{"icz":"CZH01148","kodTypuZarizeni":"Recyklace","stav":"aktivni","addr_obec":"Vrchlabí"}},{"type":"Feature","geometry":{"type":"Point","coordinates":[15.755628,50.313364]},"properties":{"icz":"CZH00514","kodTypuZarizeni":"Sberna","suggested_tag":"amenity=recycling + recycling_type=centre","stav":"aktivni","addr_obec":"Hořiněves","addr_castObce":"Hořiněves","addr_ulice":"73"}},{"type":"Feature","geometry":{"type":"Point","coordinates":[16.143669,50.35351]},"properties":{"icz":"CZH00903","kodTypuZarizeni":"VyrKov","stav":"aktivni","addr_obec":"Nové Město nad Metují","addr_castObce":"Nové Město nad Metují","addr_ulice":"Nádražní"}},{"type":"Feature","geometry":{"type":"Point","coordinates":[15.859378,50.225647]},"properties":{"icz":"CZH00930","kodTypuZarizeni":"ZpracElektro","stav":"aktivni","addr_obec":"Hradec Králové","addr_ulice":"Vážní","addr_cp":"1190"}},{"type":"Feature","geometry":{"type":"Point","coordinates":[15.604139,50.258383]},"properties":{"icz":"CZH00649","kodTypuZarizeni":"Sberna","suggested_tag":"amenity=recycling + recycling_type=centre","stav":"aktivni","addr_obec":"Lodín","addr_castObce":"Lodín","addr_ulice":"Lodín 186"}},{"type":"Feature","geometry":{"type":"Point","coordinates":[16.461053,50.159731]},"properties":{"icz":"CZH00384","kodTypuZarizeni":"Sberna","suggested_tag":"amenity=recycling + recycling_type=centre","stav":"aktivni","addr_obec":"Rokytnice v Orlických horách","addr_ulice":"Školní"}},{"type":"Feature","geometry":{"type":"Point","coordinates":[15.624285,50.598598]},"properties":{"icz":"CZH00129","kodTypuZarizeni":"Sberna","suggested_tag":"amenity=recycling + recycling_type=centre","stav":"aktivni","addr_obec":"Vrchlabí","addr_castObce":"Vrchlabí","addr_ulice":"Lipová 19"}},{"type":"Feature","geometry":{"type":"Point","coordinates":[15.933962,50.340655]},"properties":{"icz":"CZH01078","kodTypuZarizeni":"Stac14201","stav":"aktivni","addr_obec":"Jaroměř","addr_ulice":"Bastion IV, Okružní"}},{"type":"Feature","geometry":{"type":"Point","coordinates":[16.234878,50.201594]},"properties":{"icz":"CZH00390","kodTypuZarizeni":"Sberna","suggested_tag":"amenity=recycling + recycling_type=centre","stav":"aktivni","addr_obec":"Solnice","addr_castObce":"Solnice","addr_ulice":"Poříčí 286"}},{"type":"Feature","geometry":{"type":"Point","coordinates":[15.855665,50.194401]},"properties":{"icz":"CZH00438","kodTypuZarizeni":"Sberna","suggested_tag":"amenity=recycling + recycling_type=centre","stav":"aktivni","addr_obec":"Hradec Králové","addr_castObce":"Hradec Králové","addr_ulice":"Na Brně 848"}},{"type":"Feature","geometry":{"type":"Point","coordinates":[16.169272,50.415528]},"properties":{"icz":"CZH00636","kodTypuZarizeni":"Sberna","suggested_tag":"amenity=recycling + recycling_type=centre","stav":"aktivni","addr_obec":"Náchod","addr_castObce":"Náchod","addr_ulice":"Husovo náměstí"}},{"type":"Feature","geometry":{"type":"Point","coordinates":[16.19132,50.469022]},"properties":{"icz":"CZH00863","kodTypuZarizeni":"Kompost","suggested_tag":"(no established tag)","stav":"aktivni","addr_obec":"Velké Poříčí","addr_castObce":"Velké Poříčí","addr_ulice":"Velké Poříčí"}},{"type":"Feature","geometry":{"type":"Point","coordinates":[16.288632,50.176905]},"properties":{"icz":"CZH00917","kodTypuZarizeni":"KompostMale","suggested_tag":"(no established tag)","stav":"aktivni","addr_obec":"Rychnov nad Kněžnou","addr_castObce":"Rychnov nad Kněžnou","addr_ulice":"Na Poustkách"}},{"type":"Feature","geometry":{"type":"Point","coordinates":[15.964633,50.551942]},"properties":{"icz":"CZH00443","kodTypuZarizeni":"Skladka","suggested_tag":"landuse=landfill","stav":"aktivni","addr_obec":"Trutnov","addr_ulice":"Starý Rokytník","addr_cp":"226"}},{"type":"Feature","geometry":{"type":"Point","coordinates":[16.178853,50.161964]},"properties":{"icz":"CZH00721","kodTypuZarizeni":"Sberna","suggested_tag":"amenity=recycling + recycling_type=centre","stav":"aktivni","addr_obec":"Hřibiny-Ledská","addr_ulice":"Velká Ledská"}},{"type":"Feature","geometry":{"type":"Point","coordinates":[15.813333,50.558611]},"properties":{"icz":"CZH01201","kodTypuZarizeni":"Bioplyn213","stav":"aktivni","addr_obec":"Vlčice","addr_cp":"75"}},{"type":"Feature","geometry":{"type":"Point","coordinates":[15.66045,50.242475]},"properties":{"icz":"CZH01023","kodTypuZarizeni":"ZpracVozidel","suggested_tag":"industrial=scrap_yard","stav":"aktivni","addr_obec":"Nechanice","addr_castObce":"Nechanice","addr_ulice":"Lubno 23"}},{"type":"Feature","geometry":{"type":"Point","coordinates":[15.359453,50.429758]},"properties":{"icz":"CZH00974","kodTypuZarizeni":"Sberna","suggested_tag":"amenity=recycling + recycling_type=centre","stav":"aktivni","addr_obec":"Jičín","addr_ulice":"Jungmannova 11"}},{"type":"Feature","geometry":{"type":"Point","coordinates":[16.179161,50.161726]},"properties":{"icz":"CZH01043","kodTypuZarizeni":"Stac14201","stav":"aktivni","addr_obec":"Hřibiny-Ledská","addr_ulice":"Hřibiny-Ledská"}},{"type":"Feature","geometry":{"type":"Point","coordinates":[16.1768,50.471981]},"properties":{"icz":"CZH00955","kodTypuZarizeni":"ZpracVozidel","suggested_tag":"industrial=scrap_yard","stav":"aktivni","addr_obec":"Hronov","addr_ulice":"Hronov 187"}},{"type":"Feature","geometry":{"type":"Point","coordinates":[15.806,50.431625]},"properties":{"icz":"CZH00003","kodTypuZarizeni":"Sberna","suggested_tag":"amenity=recycling + recycling_type=centre","stav":"aktivni","addr_obec":"Dvůr Králové nad Labem","addr_castObce":"Dvůr Králové nad Labem","addr_ulice":"Rokycanova 783"}},{"type":"Feature","geometry":{"type":"Point","coordinates":[15.886593,50.578039]},"properties":{"icz":"CZH01130","kodTypuZarizeni":"Sberna","suggested_tag":"amenity=recycling + recycling_type=centre","stav":"aktivni","addr_obec":"Trutnov","addr_castObce":"Trutnov","addr_ulice":"Mírová"}},{"type":"Feature","geometry":{"type":"Point","coordinates":[15.542205,50.369732]},"properties":{"icz":"CZH00139","kodTypuZarizeni":"Sberna","suggested_tag":"amenity=recycling + recycling_type=centre","stav":"aktivni","addr_obec":"Ostroměř","addr_castObce":"Ostroměř","addr_ulice":"Nádražní 285"}},{"type":"Feature","geometry":{"type":"Point","coordinates":[15.824178,50.221403]},"properties":{"icz":"CZH00436","kodTypuZarizeni":"Sberna","suggested_tag":"amenity=recycling + recycling_type=centre","stav":"aktivni","addr_obec":"Hradec Králové","addr_ulice":"Říční ulice"}},{"type":"Feature","geometry":{"type":"Point","coordinates":[16.19965,50.189289]},"properties":{"icz":"CZH01172","kodTypuZarizeni":"KompostMale","suggested_tag":"(no established tag)","stav":"aktivni","addr_obec":"Černíkovice"}},{"type":"Feature","geometry":{"type":"Point","coordinates":[15.941622,50.573272]},"properties":{"icz":"CZH00947","kodTypuZarizeni":"Sberna","suggested_tag":"amenity=recycling + recycling_type=centre","stav":"aktivni","addr_obec":"Trutnov","addr_ulice":"Ječná"}},{"type":"Feature","geometry":{"type":"Point","coordinates":[16.067092,50.156846]},"properties":{"icz":"CZH00699","kodTypuZarizeni":"Sberna","suggested_tag":"amenity=recycling + recycling_type=centre","stav":"aktivni","addr_obec":"Týniště nad Orlicí","addr_castObce":"Týniště nad Orlicí","addr_ulice":"Vrchlického ulice (Za hřbitovem)"}},{"type":"Feature","geometry":{"type":"Point","coordinates":[15.787364,50.242311]},"properties":{"icz":"CZH00819","kodTypuZarizeni":"ZpracVozidel","suggested_tag":"industrial=scrap_yard","stav":"aktivni","addr_obec":"Hradec Králové","addr_ulice":"Náchodská 731"}},{"type":"Feature","geometry":{"type":"Point","coordinates":[16.094872,50.09286]},"properties":{"icz":"CZH00885","kodTypuZarizeni":"Sberna","suggested_tag":"amenity=recycling + recycling_type=centre","stav":"aktivni","addr_obec":"Borohrádek","addr_castObce":"Borohrádek","addr_ulice":"Borohrádek"}},{"type":"Feature","geometry":{"type":"Point","coordinates":[16.240636,50.535797]},"properties":{"icz":"CZH00830","kodTypuZarizeni":"Sberna","suggested_tag":"amenity=recycling + recycling_type=centre","stav":"aktivni","addr_obec":"Police nad Metují","addr_castObce":"Police nad Metují","addr_ulice":"K Vodojemu 4"}},{"type":"Feature","geometry":{"type":"Point","coordinates":[16.02353,50.385838]},"properties":{"icz":"CZH01132","kodTypuZarizeni":"Sklad","stav":"aktivni","addr_obec":"Říkov","addr_castObce":"Říkov","addr_ulice":"Říkov"}},{"type":"Feature","geometry":{"type":"Point","coordinates":[15.766004,50.225565]},"properties":{"icz":"CZH00521","kodTypuZarizeni":"Recyklace","stav":"aktivni","addr_obec":"Hradec Králové","addr_castObce":"Hradec Králové","addr_ulice":"Svobodné Dvory"}},{"type":"Feature","geometry":{"type":"Point","coordinates":[16.159386,50.310736]},"properties":{"icz":"CZH01150","kodTypuZarizeni":"SkladkaRekult","stav":"aktivni","addr_obec":"Dobruška"}},{"type":"Feature","geometry":{"type":"Point","coordinates":[15.895033,50.575611]},"properties":{"icz":"CZH00820","kodTypuZarizeni":"Sberna","suggested_tag":"amenity=recycling + recycling_type=centre","stav":"aktivni","addr_obec":"Trutnov","addr_ulice":"Horská ulice"}},{"type":"Feature","geometry":{"type":"Point","coordinates":[15.83369,50.444649]},"properties":{"icz":"CZH00135","kodTypuZarizeni":"Prekladiste","suggested_tag":"amenity=waste_transfer_station","stav":"aktivni","addr_obec":"Dvůr Králové nad Labem","addr_castObce":"Dvůr Králové nad Labem","addr_ulice":"pozemek 3358/8 k.ú, Dvůr Králové"}},{"type":"Feature","geometry":{"type":"Point","coordinates":[15.919083,50.559078]},"properties":{"icz":"CZH01166","kodTypuZarizeni":"FyZChemProc","stav":"aktivni","addr_obec":"Trutnov"}},{"type":"Feature","geometry":{"type":"Point","coordinates":[15.678802,50.598126]},"properties":{"icz":"CZH00914","kodTypuZarizeni":"Kompost","suggested_tag":"(no established tag)","stav":"aktivni","addr_obec":"Dolní Lánov","addr_castObce":"Dolní Lánov","addr_ulice":"Dolní Lánov"}},{"type":"Feature","geometry":{"type":"Point","coordinates":[15.373217,50.431142]},"properties":{"icz":"CZH00377","kodTypuZarizeni":"TridDotrid","stav":"aktivni","addr_obec":"Jičín","addr_ulice":"Konecchlumského 981"}},{"type":"Feature","geometry":{"type":"Point","coordinates":[15.923022,50.240704]},"properties":{"icz":"CZH00494","kodTypuZarizeni":"Sberna","suggested_tag":"amenity=recycling + recycling_type=centre","stav":"aktivni","addr_obec":"Divec","addr_castObce":"Divec","addr_ulice":"99"}},{"type":"Feature","geometry":{"type":"Point","coordinates":[16.290828,50.200549]},"properties":{"icz":"CZH00506","kodTypuZarizeni":"Sberna","suggested_tag":"amenity=recycling + recycling_type=centre","stav":"aktivni","addr_obec":"Lukavice","addr_castObce":"Lukavice","addr_ulice":"Lukavice 80"}},{"type":"Feature","geometry":{"type":"Point","coordinates":[16.110667,50.134739]},"properties":{"icz":"CZH00416","kodTypuZarizeni":"Kompost","suggested_tag":"(no established tag)","stav":"aktivni","addr_obec":"Lípa nad Orlicí","addr_castObce":"Lípa nad Orlicí","addr_ulice":"U hlavní silnice na Kostelec nad Orlicí"}},{"type":"Feature","geometry":{"type":"Point","coordinates":[16.263333,50.128333]},"properties":{"icz":"CZH01176","kodTypuZarizeni":"ZasZemKam","stav":"aktivni","addr_obec":"Lupenice"}},{"type":"Feature","geometry":{"type":"Point","coordinates":[15.821992,50.261975]},"properties":{"icz":"CZH00793","kodTypuZarizeni":"Recyklace","stav":"aktivni","addr_obec":"Předměřice nad Labem","addr_castObce":"Předměřice nad Labem","addr_ulice":"U Panelárny"}},{"type":"Feature","geometry":{"type":"Point","coordinates":[15.811501,50.191277]},"properties":{"icz":"CZH00303","kodTypuZarizeni":"Stac01","stav":"aktivni","addr_obec":"Hradec Králové","addr_castObce":"Hradec Králové - DEKOS","addr_ulice":"Na Rybárně 51 - DEKOS"}},{"type":"Feature","geometry":{"type":"Point","coordinates":[15.625333,50.614668]},"properties":{"icz":"CZH00462","kodTypuZarizeni":"Sberna","suggested_tag":"amenity=recycling + recycling_type=centre","stav":"aktivni","addr_obec":"Vrchlabí","addr_castObce":"Vrchlabí","addr_ulice":"Na Bělidle 1463"}},{"type":"Feature","geometry":{"type":"Point","coordinates":[16.461553,50.167581]},"properties":{"icz":"CZH00358","kodTypuZarizeni":"Recyklace","stav":"aktivni","addr_obec":"Rokytnice v Orlických horách","addr_ulice":"Zahradní 25"}},{"type":"Feature","geometry":{"type":"Point","coordinates":[16.270941,50.158646]},"properties":{"icz":"CZH00728","kodTypuZarizeni":"Sberna","suggested_tag":"amenity=recycling + recycling_type=centre","stav":"aktivni","addr_obec":"Rychnov nad Kněžnou","addr_castObce":"Rychnov nad Kněžnou","addr_ulice":"Soukenická 1181"}},{"type":"Feature","geometry":{"type":"Point","coordinates":[15.623729,50.615833]},"properties":{"icz":"CZH00270","kodTypuZarizeni":"ZpracVozidel","suggested_tag":"industrial=scrap_yard","stav":"aktivni","addr_obec":"Vrchlabí","addr_castObce":"Vrchlabí","addr_ulice":"Na Bělidle 1463"}},{"type":"Feature","geometry":{"type":"Point","coordinates":[16.285894,50.080139]},"properties":{"icz":"CZH01195","kodTypuZarizeni":"SkladkaStavba","stav":"aktivni","addr_obec":"Potštejn"}},{"type":"Feature","geometry":{"type":"Point","coordinates":[16.474167,50.178056]},"properties":{"icz":"CZH01024","kodTypuZarizeni":"Stac14201","stav":"aktivni","addr_obec":"Rokytnice v Orlických horách"}},{"type":"Feature","geometry":{"type":"Point","coordinates":[15.969853,50.654902]},"properties":{"icz":"CZH01156","kodTypuZarizeni":"Bioplyn213","stav":"aktivni","addr_obec":"Bernartice","addr_cp":"321"}},{"type":"Feature","geometry":{"type":"Point","coordinates":[15.626372,50.620892]},"properties":{"icz":"CZH00764","kodTypuZarizeni":"Kompost","suggested_tag":"(no established tag)","stav":"aktivni","addr_obec":"Vrchlabí"}},{"type":"Feature","geometry":{"type":"Point","coordinates":[15.863534,50.225815]},"properties":{"icz":"CZH00130","kodTypuZarizeni":"SberVozidel","suggested_tag":"industrial=scrap_yard","stav":"aktivni","addr_obec":"Hradec Králové","addr_castObce":"Hradec Králové","addr_ulice":"Vážní 857"}},{"type":"Feature","geometry":{"type":"Point","coordinates":[16.280298,50.117685]},"properties":{"icz":"CZH01122","kodTypuZarizeni":"KompostMale","suggested_tag":"(no established tag)","stav":"aktivni","addr_obec":"Vamberk","addr_castObce":"Vamberk","addr_ulice":"Vamberk, Česko"}},{"type":"Feature","geometry":{"type":"Point","coordinates":[16.066496,50.516399]},"properties":{"icz":"CZH00464","kodTypuZarizeni":"Sberna","suggested_tag":"amenity=recycling + recycling_type=centre","stav":"aktivni","addr_obec":"Rtyně v Podkrkonoší","addr_castObce":"Rtyně v Podkrkonoší","addr_ulice":"Na Rovni 849"}},{"type":"Feature","geometry":{"type":"Point","coordinates":[15.391631,50.455894]},"properties":{"icz":"CZH00891","kodTypuZarizeni":"Sberna","suggested_tag":"amenity=recycling + recycling_type=centre","stav":"aktivni","addr_obec":"Valdice","addr_ulice":"Náměstí Míru 55"}},{"type":"Feature","geometry":{"type":"Point","coordinates":[15.964645,50.55193]},"properties":{"icz":"CZH01135","kodTypuZarizeni":"SkladkaRekult","stav":"aktivni","addr_obec":"Trutnov","addr_castObce":"Trutnov","addr_ulice":"Ke Skládce"}},{"type":"Feature","geometry":{"type":"Point","coordinates":[15.604483,50.258691]},"properties":{"icz":"CZH00782","kodTypuZarizeni":"Sberna","suggested_tag":"amenity=recycling + recycling_type=centre","stav":"aktivni","addr_obec":"Lodín","addr_castObce":"Lodín","addr_ulice":"Lodín"}},{"type":"Feature","geometry":{"type":"Point","coordinates":[16.188077,50.452211]},"properties":{"icz":"CZH00565","kodTypuZarizeni":"ZpracVozidel","suggested_tag":"industrial=scrap_yard","stav":"aktivni","addr_obec":"Velké Poříčí","addr_castObce":"Velké Poříčí","addr_ulice":"Náchodská 265"}},{"type":"Feature","geometry":{"type":"Point","coordinates":[16.188553,50.454267]},"properties":{"icz":"CZH00794","kodTypuZarizeni":"Recyklace","stav":"aktivni","addr_obec":"Velké Poříčí","addr_castObce":"Velké Poříčí"}},{"type":"Feature","geometry":{"type":"Point","coordinates":[15.170944,50.467419]},"properties":{"icz":"CZH00575","kodTypuZarizeni":"Sberna","suggested_tag":"amenity=recycling + recycling_type=centre","stav":"aktivni","addr_obec":"Sobotka","addr_castObce":"Sobotka","addr_ulice":"Březenská 244"}},{"type":"Feature","geometry":{"type":"Point","coordinates":[15.780851,50.685861]},"properties":{"icz":"CZH00015","kodTypuZarizeni":"Sberna","suggested_tag":"amenity=recycling + recycling_type=centre","stav":"aktivni","addr_obec":"Pec pod Sněžkou","addr_castObce":"Pec pod Sněžkou","addr_ulice":"Velká Úpa II"}},{"type":"Feature","geometry":{"type":"Point","coordinates":[15.885969,50.577764]},"properties":{"icz":"CZH01189","kodTypuZarizeni":"Sklad","stav":"aktivni","addr_obec":"Trutnov"}},{"type":"Feature","geometry":{"type":"Point","coordinates":[15.602186,50.257483]},"properties":{"icz":"CZH00448","kodTypuZarizeni":"FyZChemProc","stav":"aktivni","addr_obec":"Nechanice","addr_ulice":"Lodín"}},{"type":"Feature","geometry":{"type":"Point","coordinates":[16.201361,50.53665]},"properties":{"icz":"CZH01181","kodTypuZarizeni":"Kompost","suggested_tag":"(no established tag)","stav":"aktivni","addr_obec":"Žďár nad Metují"}},{"type":"Feature","geometry":{"type":"Point","coordinates":[15.899883,50.417886]},"properties":{"icz":"CZH00935","kodTypuZarizeni":"Kompost","suggested_tag":"(no established tag)","stav":"aktivni","addr_obec":"Vlčkovice v Podkrkonoší","addr_castObce":"Vlčkovice v Podkrkonoší","addr_ulice":"Vlčkovice v Podkrkonoší"}},{"type":"Feature","geometry":{"type":"Point","coordinates":[15.823389,50.261556]},"properties":{"icz":"CZH00769","kodTypuZarizeni":"TridDotrid","stav":"aktivni","addr_obec":"Předměřice nad Labem","addr_ulice":"U Panelárny 461"}},{"type":"Feature","geometry":{"type":"Point","coordinates":[16.109147,50.386336]},"properties":{"icz":"CZH00557","kodTypuZarizeni":"ZpracVozidel","suggested_tag":"industrial=scrap_yard","stav":"aktivni","addr_obec":"Provodov-Šonov","addr_ulice":"51"}},{"type":"Feature","geometry":{"type":"Point","coordinates":[15.427033,50.331278]},"properties":{"icz":"CZH01147","kodTypuZarizeni":"ZpracVozidel","suggested_tag":"industrial=scrap_yard","stav":"aktivni","addr_obec":"Vysoké Veselí","addr_ulice":"Prof. Seemana","addr_cp":"329"}},{"type":"Feature","geometry":{"type":"Point","coordinates":[15.491556,50.2519]},"properties":{"icz":"CZH00256","kodTypuZarizeni":"Sberna","suggested_tag":"amenity=recycling + recycling_type=centre","stav":"aktivni","addr_obec":"Nový Bydžov","addr_castObce":"Nový Bydžov","addr_ulice":"Třída Bedřicha Smetany"}},{"type":"Feature","geometry":{"type":"Point","coordinates":[15.393475,50.411939]},"properties":{"icz":"CZH00484","kodTypuZarizeni":"Skladka","suggested_tag":"landuse=landfill","stav":"aktivni","addr_obec":"Jičín","addr_ulice":"Popovice - Libec"}},{"type":"Feature","geometry":{"type":"Point","coordinates":[16.32045,50.589389]},"properties":{"icz":"CZH00684","kodTypuZarizeni":"Sberna","suggested_tag":"amenity=recycling + recycling_type=centre","stav":"aktivni","addr_obec":"Hejtmánkovice","addr_ulice":"Hejtmánkovice 19"}},{"type":"Feature","geometry":{"type":"Point","coordinates":[16.288361,50.17708]},"properties":{"icz":"CZH01121","kodTypuZarizeni":"KompostMale","suggested_tag":"(no established tag)","stav":"aktivni","addr_obec":"Rychnov nad Kněžnou","addr_castObce":"Rychnov nad Kněžnou","addr_ulice":"Rychnov nad Kněžnou, Česko"}},{"type":"Feature","geometry":{"type":"Point","coordinates":[15.791088,50.195931]},"properties":{"icz":"CZH00843","kodTypuZarizeni":"Sberna","suggested_tag":"amenity=recycling + recycling_type=centre","stav":"aktivni","addr_obec":"Hradec Králové","addr_castObce":"Hradec Králové","addr_ulice":"Temešvár, Plačice"}},{"type":"Feature","geometry":{"type":"Point","coordinates":[16.286686,50.080567]},"properties":{"icz":"CZH00430","kodTypuZarizeni":"Skladka","suggested_tag":"landuse=landfill","stav":"aktivni","addr_obec":"Potštejn","addr_castObce":"Potštejn"}},{"type":"Feature","geometry":{"type":"Point","coordinates":[15.964414,50.551772]},"properties":{"icz":"CZH00810","kodTypuZarizeni":"Sberna","suggested_tag":"amenity=recycling + recycling_type=centre","stav":"aktivni","addr_obec":"Trutnov","addr_castObce":"Trutnov","addr_ulice":"Starý Rokytník 226"}},{"type":"Feature","geometry":{"type":"Point","coordinates":[15.357317,50.431897]},"properties":{"icz":"CZH00896","kodTypuZarizeni":"VyrKov","stav":"aktivni","addr_obec":"Jičín","addr_castObce":"Jičín","addr_ulice":"Jungmannova 11"}},{"type":"Feature","geometry":{"type":"Point","coordinates":[16.006689,50.214608]},"properties":{"icz":"CZH00915","kodTypuZarizeni":"Kompost","suggested_tag":"(no established tag)","stav":"aktivni","addr_obec":"Jeníkovice","addr_castObce":"Jeníkovice","addr_ulice":"Jeníkovice"}},{"type":"Feature","geometry":{"type":"Point","coordinates":[15.766181,50.224928]},"properties":{"icz":"CZH00864","kodTypuZarizeni":"Kompost","suggested_tag":"(no established tag)","stav":"aktivni","addr_obec":"Hradec Králové","addr_castObce":"Hradec Králové","addr_ulice":"Svobodné Dvory"}},{"type":"Feature","geometry":{"type":"Point","coordinates":[15.930469,50.666186]},"properties":{"icz":"CZH00826","kodTypuZarizeni":"Sklad","stav":"aktivni","addr_obec":"Lampertice","addr_castObce":"Lampertice"}},{"type":"Feature","geometry":{"type":"Point","coordinates":[16.184653,50.139506]},"properties":{"icz":"CZH01204","kodTypuZarizeni":"Sberna","suggested_tag":"amenity=recycling + recycling_type=centre","stav":"aktivni","addr_obec":"Častolovice"}},{"type":"Feature","geometry":{"type":"Point","coordinates":[15.628963,50.355987]},"properties":{"icz":"CZH00106","kodTypuZarizeni":"ZpracVozidel","suggested_tag":"industrial=scrap_yard","stav":"aktivni","addr_obec":"Hořice","addr_castObce":"Hořice","addr_ulice":"Jeronýmova 2169"}},{"type":"Feature","geometry":{"type":"Point","coordinates":[15.4951,50.238902]},"properties":{"icz":"CZH00115","kodTypuZarizeni":"Sberna","suggested_tag":"amenity=recycling + recycling_type=centre","stav":"aktivni","addr_obec":"Nový Bydžov","addr_castObce":"Nový Bydžov","addr_ulice":"Na Staré Cidlině"}},{"type":"Feature","geometry":{"type":"Point","coordinates":[16.271247,50.168211]},"properties":{"icz":"CZH01059","kodTypuZarizeni":"Sberna","suggested_tag":"amenity=recycling + recycling_type=centre","stav":"aktivni","addr_obec":"Rychnov nad Kněžnou","addr_ulice":"Jiráskova"}},{"type":"Feature","geometry":{"type":"Point","coordinates":[16.076452,50.154836]},"properties":{"icz":"CZH01095","kodTypuZarizeni":"Sberna","suggested_tag":"amenity=recycling + recycling_type=centre","stav":"aktivni","addr_obec":"Týniště nad Orlicí","addr_castObce":"Týniště nad Orlicí","addr_ulice":"Za Drahou 979"}},{"type":"Feature","geometry":{"type":"Point","coordinates":[15.821419,50.618996]},"properties":{"icz":"CZH00592","kodTypuZarizeni":"ZpracVozidel","suggested_tag":"industrial=scrap_yard","stav":"aktivni","addr_obec":"Svoboda nad Úpou","addr_castObce":"Svoboda nad Úpou","addr_ulice":"Nádražní 529"}},{"type":"Feature","geometry":{"type":"Point","coordinates":[15.608922,50.585336]},"properties":{"icz":"CZH00485","kodTypuZarizeni":"Skladka","suggested_tag":"landuse=landfill","stav":"aktivni","addr_obec":"Dolní Branná","addr_castObce":"Dolní Branná"}},{"type":"Feature","geometry":{"type":"Point","coordinates":[15.878919,50.219406]},"properties":{"icz":"CZH00440","kodTypuZarizeni":"Sberna","suggested_tag":"amenity=recycling + recycling_type=centre","stav":"aktivni","addr_obec":"Hradec Králové","addr_ulice":"Bratří Štefanů 990"}},{"type":"Feature","geometry":{"type":"Point","coordinates":[15.986942,50.511322]},"properties":{"icz":"CZH00382","kodTypuZarizeni":"Sberna","suggested_tag":"amenity=recycling + recycling_type=centre","stav":"aktivni","addr_obec":"Úpice","addr_castObce":"Úpice","addr_ulice":"Radeč"}},{"type":"Feature","geometry":{"type":"Point","coordinates":[15.624035,50.367336]},"properties":{"icz":"CZH00713","kodTypuZarizeni":"Sberna","suggested_tag":"amenity=recycling + recycling_type=centre","stav":"aktivni","addr_obec":"Hořice","addr_castObce":"Hořice","addr_ulice":"Čelakovského 1457"}},{"type":"Feature","geometry":{"type":"Point","coordinates":[16.283089,50.119174]},"properties":{"icz":"CZH00380","kodTypuZarizeni":"Sberna","suggested_tag":"amenity=recycling + recycling_type=centre","stav":"aktivni","addr_obec":"Vamberk","addr_castObce":"Vamberk","addr_ulice":"Janáčkova 128"}},{"type":"Feature","geometry":{"type":"Point","coordinates":[15.668614,50.139072]},"properties":{"icz":"CZH00859","kodTypuZarizeni":"Kompost","suggested_tag":"(no established tag)","stav":"aktivni","addr_obec":"Osičky","addr_ulice":"Osičky"}},{"type":"Feature","geometry":{"type":"Point","coordinates":[15.624608,50.242327]},"properties":{"icz":"CZH00086","kodTypuZarizeni":"ZpracVozidel","suggested_tag":"industrial=scrap_yard","stav":"aktivni","addr_obec":"Nechanice","addr_castObce":"Nechanice","addr_ulice":"Staré Nechanice 109"}},{"type":"Feature","geometry":{"type":"Point","coordinates":[16.066315,50.516189]},"properties":{"icz":"CZH00963","kodTypuZarizeni":"Kompost","suggested_tag":"(no established tag)","stav":"aktivni","addr_obec":"Rtyně v Podkrkonoší","addr_castObce":"Rtyně v Podkrkonoší","addr_ulice":"Na Rovni 849"}},{"type":"Feature","geometry":{"type":"Point","coordinates":[15.216961,50.372819]},"properties":{"icz":"CZH00966","kodTypuZarizeni":"Sberna","suggested_tag":"amenity=recycling + recycling_type=centre","stav":"aktivni","addr_obec":"Libáň","addr_ulice":"za křižovatkou na Kopidlno doprava"}},{"type":"Feature","geometry":{"type":"Point","coordinates":[15.861,50.223708]},"properties":{"icz":"CZH00714","kodTypuZarizeni":"ZpracVozidel","suggested_tag":"industrial=scrap_yard","stav":"aktivni","addr_obec":"Hradec Králové","addr_castObce":"Hradec Králové","addr_ulice":"Vážní 1154"}},{"type":"Feature","geometry":{"type":"Point","coordinates":[15.926752,50.669155]},"properties":{"icz":"CZH00504","kodTypuZarizeni":"ZpracVozidel","suggested_tag":"industrial=scrap_yard","stav":"aktivni","addr_obec":"Lampertice","addr_castObce":"Lampertice","addr_ulice":"Důl Jan Šverma"}},{"type":"Feature","geometry":{"type":"Point","coordinates":[16.287099,50.080377]},"properties":{"icz":"CZH01123","kodTypuZarizeni":"KompostMale","suggested_tag":"(no established tag)","stav":"aktivni","addr_obec":"Potštejn","addr_castObce":"Potštejn","addr_ulice":"Potštejn, Česko"}},{"type":"Feature","geometry":{"type":"Point","coordinates":[16.002144,50.402825]},"properties":{"icz":"CZH00907","kodTypuZarizeni":"Stac14201","stav":"aktivni","addr_obec":"Velký Třebešov","addr_castObce":"Velký Třebešov","addr_ulice":"Miskolezy"}},{"type":"Feature","geometry":{"type":"Point","coordinates":[15.483706,50.213633]},"properties":{"icz":"CZH01209","kodTypuZarizeni":"TAP","stav":"aktivni","addr_obec":"Zachrašťany"}},{"type":"Feature","geometry":{"type":"Point","coordinates":[16.214794,50.118549]},"properties":{"icz":"CZH00277","kodTypuZarizeni":"ZpracVozidel","suggested_tag":"industrial=scrap_yard","stav":"aktivni","addr_obec":"Kostelec nad Orlicí","addr_castObce":"Kostelec nad Orlicí","addr_ulice":"Mánesova"}},{"type":"Feature","geometry":{"type":"Point","coordinates":[15.27057,50.340205]},"properties":{"icz":"CZH01110","kodTypuZarizeni":"VyrKov","stav":"aktivni","addr_obec":"Kopidlno","addr_castObce":"Kopidlno","addr_ulice":"U Cihelny"}},{"type":"Feature","geometry":{"type":"Point","coordinates":[15.859025,50.225558]},"properties":{"icz":"CZH00171","kodTypuZarizeni":"Sberna","suggested_tag":"amenity=recycling + recycling_type=centre","stav":"aktivni","addr_obec":"Hradec Králové","addr_ulice":"Vážní","addr_cp":"1190"}},{"type":"Feature","geometry":{"type":"Point","coordinates":[15.815242,50.195047]},"properties":{"icz":"CZH00243","kodTypuZarizeni":"Sberna","suggested_tag":"amenity=recycling + recycling_type=centre","stav":"aktivni","addr_obec":"Hradec Králové","addr_castObce":"Hradec Králové","addr_ulice":"Na Rybárně"}},{"type":"Feature","geometry":{"type":"Point","coordinates":[16.028589,50.381753]},"properties":{"icz":"CZH01112","kodTypuZarizeni":"Recyklace","stav":"aktivni","addr_obec":"Říkov","addr_ulice":"Říkov, Česko"}},{"type":"Feature","geometry":{"type":"Point","coordinates":[15.757604,50.582008]},"properties":{"icz":"CZH00740","kodTypuZarizeni":"ZpracVozidel","suggested_tag":"industrial=scrap_yard","stav":"aktivni","addr_obec":"Rudník","addr_castObce":"Rudník","addr_ulice":"476"}},{"type":"Feature","geometry":{"type":"Point","coordinates":[16.340503,50.586847]},"properties":{"icz":"CZH01072","kodTypuZarizeni":"Sberna","suggested_tag":"amenity=recycling + recycling_type=centre","stav":"aktivni","addr_obec":"Broumov","addr_ulice":"Husova 319"}},{"type":"Feature","geometry":{"type":"Point","coordinates":[16.151347,50.2905]},"properties":{"icz":"CZH00777","kodTypuZarizeni":"Sberna","suggested_tag":"amenity=recycling + recycling_type=centre","stav":"aktivni","addr_obec":"Dobruška","addr_castObce":"Dobruška","addr_ulice":"Nádražní"}},{"type":"Feature","geometry":{"type":"Point","coordinates":[16.314536,50.592474]},"properties":{"icz":"CZH00537","kodTypuZarizeni":"Recyklace","stav":"aktivni","addr_obec":"Hejtmánkovice","addr_castObce":"Hejtmánkovice","addr_ulice":"bývalá skládka odpadů"}},{"type":"Feature","geometry":{"type":"Point","coordinates":[16.322521,50.614838]},"properties":{"icz":"CZH00287","kodTypuZarizeni":"Prekladiste","suggested_tag":"amenity=waste_transfer_station","stav":"aktivni","addr_obec":"Heřmánkovice","addr_castObce":"Heřmánkovice","addr_ulice":"areál státního statku"}},{"type":"Feature","geometry":{"type":"Point","coordinates":[15.629692,50.355989]},"properties":{"icz":"CZH00939","kodTypuZarizeni":"Sberna","suggested_tag":"amenity=recycling + recycling_type=centre","stav":"aktivni","addr_obec":"Hořice","addr_castObce":"Hořice","addr_ulice":"Jeronýmova 2169"}},{"type":"Feature","geometry":{"type":"Point","coordinates":[16.159339,50.430062]},"properties":{"icz":"CZH00128","kodTypuZarizeni":"ZpracVozidel","suggested_tag":"industrial=scrap_yard","stav":"aktivni","addr_obec":"Dolní Radechová","addr_castObce":"Dolní Radechová","addr_ulice":"274"}},{"type":"Feature","geometry":{"type":"Point","coordinates":[15.967239,50.359828]},"properties":{"icz":"CZH00756","kodTypuZarizeni":"Sberna","suggested_tag":"amenity=recycling + recycling_type=centre","stav":"aktivni","addr_obec":"Rychnovek","addr_castObce":"Rychnovek","addr_ulice":"Rychnovek"}},{"type":"Feature","geometry":{"type":"Point","coordinates":[16.37,50.745556]},"properties":{"icz":"CZH01194","kodTypuZarizeni":"ZasZemKam","stav":"aktivni","addr_obec":"Hronov","addr_ulice":"Malá Čermná"}},{"type":"Feature","geometry":{"type":"Point","coordinates":[15.856269,50.225053]},"properties":{"icz":"CZH00905","kodTypuZarizeni":"Stac14201","stav":"aktivni","addr_obec":"Hradec Králové","addr_castObce":"Hradec Králové","addr_ulice":"Panelová 1136"}},{"type":"Feature","geometry":{"type":"Point","coordinates":[15.899198,50.571702]},"properties":{"icz":"CZH00170","kodTypuZarizeni":"Sberna","suggested_tag":"amenity=recycling + recycling_type=centre","stav":"aktivni","addr_obec":"Trutnov","addr_castObce":"Trutnov","addr_ulice":"K Náhonu"}},{"type":"Feature","geometry":{"type":"Point","coordinates":[15.841969,50.238792]},"properties":{"icz":"CZH00348","kodTypuZarizeni":"ZpracElektro","stav":"aktivni","addr_obec":"Hradec Králové","addr_ulice":"Piletická 535"}},{"type":"Feature","geometry":{"type":"Point","coordinates":[15.826936,50.200397]},"properties":{"icz":"CZH00163","kodTypuZarizeni":"Spalovani","stav":"aktivni","addr_obec":"Hradec Králové","addr_castObce":"Hradec Králové","addr_ulice":"Sokolská 581"}},{"type":"Feature","geometry":{"type":"Point","coordinates":[15.758242,50.581869]},"properties":{"icz":"CZH00124","kodTypuZarizeni":"Sberna","suggested_tag":"amenity=recycling + recycling_type=centre","stav":"aktivni","addr_obec":"Rudník","addr_castObce":"Rudník","addr_ulice":"476"}},{"type":"Feature","geometry":{"type":"Point","coordinates":[16.237664,50.5329]},"properties":{"icz":"CZH00441","kodTypuZarizeni":"Sberna","suggested_tag":"amenity=recycling + recycling_type=centre","stav":"aktivni","addr_obec":"Police nad Metují","addr_ulice":"V Domkách"}},{"type":"Feature","geometry":{"type":"Point","coordinates":[15.906621,50.549372]},"properties":{"icz":"CZH00526","kodTypuZarizeni":"Sberna","suggested_tag":"amenity=recycling + recycling_type=centre","stav":"aktivni","addr_obec":"Trutnov","addr_castObce":"Trutnov","addr_ulice":"V Aleji 131"}},{"type":"Feature","geometry":{"type":"Point","coordinates":[15.787175,50.1937]},"properties":{"icz":"CZH00065","kodTypuZarizeni":"Recyklace","stav":"aktivni","addr_obec":"Hradec Králové","addr_ulice":"Plačice"}},{"type":"Feature","geometry":{"type":"Point","coordinates":[16.177858,50.162122]},"properties":{"icz":"CZH00428","kodTypuZarizeni":"SkladkaRekult","stav":"aktivni","addr_obec":"Hřibiny-Ledská","addr_ulice":"Velká Ledská"}},{"type":"Feature","geometry":{"type":"Point","coordinates":[15.784934,50.242224]},"properties":{"icz":"CZH01061","kodTypuZarizeni":"Stac01","stav":"aktivni","addr_obec":"Hradec Králové","addr_ulice":"Plotiště nad Labem, Hradec Králové, okres..."}},{"type":"Feature","geometry":{"type":"Point","coordinates":[16.264325,50.130342]},"properties":{"icz":"CZH00975","kodTypuZarizeni":"VyrKov","stav":"aktivni","addr_obec":"Lupenice","addr_castObce":"Lupenice","addr_ulice":"Lupenice 10"}},{"type":"Feature","geometry":{"type":"Point","coordinates":[15.372107,50.417751]},"properties":{"icz":"CZH00873","kodTypuZarizeni":"Sberna","suggested_tag":"amenity=recycling + recycling_type=centre","stav":"aktivni","addr_obec":"Jičín","addr_castObce":"Jičín","addr_ulice":"Popovice 99"}},{"type":"Feature","geometry":{"type":"Point","coordinates":[16.260986,50.149972]},"properties":{"icz":"CZH00388","kodTypuZarizeni":"Prekladiste","suggested_tag":"amenity=waste_transfer_station","stav":"aktivni","addr_obec":"Rychnov nad Kněžnou","addr_ulice":"Centrální sběrný dvůr"}},{"type":"Feature","geometry":{"type":"Point","coordinates":[16.159953,50.310347]},"properties":{"icz":"CZH00450","kodTypuZarizeni":"Kompost","suggested_tag":"(no established tag)","stav":"aktivni","addr_obec":"Dobruška","addr_ulice":"Křovice"}},{"type":"Feature","geometry":{"type":"Point","coordinates":[16.167539,50.409517]},"properties":{"icz":"CZH00374","kodTypuZarizeni":"Sberna","suggested_tag":"amenity=recycling + recycling_type=centre","stav":"aktivni","addr_obec":"Náchod","addr_castObce":"Náchod","addr_ulice":"Purkyňova 446"}},{"type":"Feature","geometry":{"type":"Point","coordinates":[16.150842,50.291569]},"properties":{"icz":"CZH00276","kodTypuZarizeni":"ZpracVozidel","suggested_tag":"industrial=scrap_yard","stav":"aktivni","addr_obec":"Dobruška","addr_ulice":"Zd. Nejedlého"}},{"type":"Feature","geometry":{"type":"Point","coordinates":[16.23,50.448333]},"properties":{"icz":"CZH01074","kodTypuZarizeni":"ZasZemKam","stav":"aktivni","addr_obec":"Hronov","addr_castObce":"Hronov","addr_ulice":"Malá Čermná"}},{"type":"Feature","geometry":{"type":"Point","coordinates":[15.865997,50.3082]},"properties":{"icz":"CZH00477","kodTypuZarizeni":"ZpracVozidel","suggested_tag":"industrial=scrap_yard","stav":"aktivni","addr_obec":"Holohlavy","addr_ulice":"Ve Dvoře 3"}},{"type":"Feature","geometry":{"type":"Point","coordinates":[15.906653,50.549325]},"properties":{"icz":"CZH00768","kodTypuZarizeni":"Sberna","suggested_tag":"amenity=recycling + recycling_type=centre","stav":"aktivni","addr_obec":"Trutnov","addr_ulice":"V Aleji 131"}},{"type":"Feature","geometry":{"type":"Point","coordinates":[16.091311,50.277053]},"properties":{"icz":"CZH00882","kodTypuZarizeni":"Sberna","suggested_tag":"amenity=recycling + recycling_type=centre","stav":"aktivni","addr_obec":"Opočno","addr_ulice":"Nádražní"}},{"type":"Feature","geometry":{"type":"Point","coordinates":[16.177097,50.471272]},"properties":{"icz":"CZH00168","kodTypuZarizeni":"Sberna","suggested_tag":"amenity=recycling + recycling_type=centre","stav":"aktivni","addr_obec":"Hronov","addr_ulice":"Hronov 187"}},{"type":"Feature","geometry":{"type":"Point","coordinates":[15.822325,50.42275]},"properties":{"icz":"CZH00631","kodTypuZarizeni":"Kompost","suggested_tag":"(no established tag)","stav":"aktivni","addr_obec":"Dvůr Králové nad Labem"}},{"type":"Feature","geometry":{"type":"Point","coordinates":[15.324592,50.426603]},"properties":{"icz":"CZH00099","kodTypuZarizeni":"Sberna","suggested_tag":"amenity=recycling + recycling_type=centre","stav":"aktivni","addr_obec":"Podhradí","addr_castObce":"Podhradí","addr_ulice":"Vokšice 1"}},{"type":"Feature","geometry":{"type":"Point","coordinates":[15.695083,50.241311]},"properties":{"icz":"CZH00435","kodTypuZarizeni":"BioProcBiodeg","stav":"aktivni","addr_obec":"Dolní Přím"}},{"type":"Feature","geometry":{"type":"Point","coordinates":[15.846906,50.237767]},"properties":{"icz":"CZH00263","kodTypuZarizeni":"Kompost","suggested_tag":"(no established tag)","stav":"aktivni","addr_obec":"Hradec Králové","addr_ulice":"Piletická 422"}},{"type":"Feature","geometry":{"type":"Point","coordinates":[16.178526,50.161742]},"properties":{"icz":"CZH00925","kodTypuZarizeni":"KompostMale","suggested_tag":"(no established tag)","stav":"aktivni","addr_obec":"Hřibiny-Ledská","addr_castObce":"Hřibiny-Ledská","addr_ulice":"Ledská"}},{"type":"Feature","geometry":{"type":"Point","coordinates":[16.220333,50.127776]},"properties":{"icz":"CZH00894","kodTypuZarizeni":"Stac14201","stav":"aktivni","addr_obec":"Kostelec nad Orlicí","addr_castObce":"Kostelec nad Orlicí","addr_ulice":"Hálkova"}},{"type":"Feature","geometry":{"type":"Point","coordinates":[16.430199,50.154284]},"properties":{"icz":"CZH00786","kodTypuZarizeni":"Stac01","stav":"aktivni","addr_obec":"Pěčín","addr_castObce":"Pěčín"}},{"type":"Feature","geometry":{"type":"Point","coordinates":[16.156562,50.40578]},"properties":{"icz":"CZH00070","kodTypuZarizeni":"Sberna","suggested_tag":"amenity=recycling + recycling_type=centre","stav":"aktivni","addr_obec":"Náchod","addr_castObce":"Náchod","addr_ulice":"Bílkova 196"}},{"type":"Feature","geometry":{"type":"Point","coordinates":[16.279158,50.150136]},"properties":{"icz":"CZH00513","kodTypuZarizeni":"Recyklace","stav":"aktivni","addr_obec":"Rychnov nad Kněžnou","addr_castObce":"Jámy","addr_cp":"12"}},{"type":"Feature","geometry":{"type":"Point","coordinates":[16.297892,50.576511]},"properties":{"icz":"CZH00976","kodTypuZarizeni":"Kompost","suggested_tag":"(no established tag)","stav":"aktivni","addr_obec":"Křinice","addr_ulice":"Křinice"}},{"type":"Feature","geometry":{"type":"Point","coordinates":[15.518354,50.415883]},"properties":{"icz":"CZH00668","kodTypuZarizeni":"Sberna","suggested_tag":"amenity=recycling + recycling_type=centre","stav":"aktivni","addr_obec":"Mlázovice","addr_castObce":"Mlázovice","addr_ulice":"Mlázovice"}},{"type":"Feature","geometry":{"type":"Point","coordinates":[15.631614,50.355958]},"properties":{"icz":"CZH00315","kodTypuZarizeni":"Sberna","suggested_tag":"amenity=recycling + recycling_type=centre","stav":"aktivni","addr_obec":"Hořice","addr_castObce":"Hořice","addr_ulice":"Husova 2154"}},{"type":"Feature","geometry":{"type":"Point","coordinates":[15.809492,50.435464]},"properties":{"icz":"CZH00201","kodTypuZarizeni":"Sberna","suggested_tag":"amenity=recycling + recycling_type=centre","stav":"aktivni","addr_obec":"Dvůr Králové nad Labem","addr_ulice":"Slovany 3051"}},{"type":"Feature","geometry":{"type":"Point","coordinates":[16.246111,50.133889]},"properties":{"icz":"CZH01004","kodTypuZarizeni":"Stac142kal01","stav":"aktivni","addr_obec":"Tutleky","addr_castObce":"Tutleky","addr_ulice":"Tutleky"}},{"type":"Feature","geometry":{"type":"Point","coordinates":[16.237836,50.532522]},"properties":{"icz":"CZH01038","kodTypuZarizeni":"Kompost","suggested_tag":"(no established tag)","stav":"aktivni","addr_obec":"Police nad Metují","addr_castObce":"Police nad Metují","addr_ulice":"za areálem technických služeb"}},{"type":"Feature","geometry":{"type":"Point","coordinates":[15.521258,50.48855]},"properties":{"icz":"CZH00234","kodTypuZarizeni":"Sberna","suggested_tag":"amenity=recycling + recycling_type=centre","stav":"aktivni","addr_obec":"Nová Paka","addr_castObce":"Nová Paka","addr_ulice":"Pivovarská 167"}},{"type":"Feature","geometry":{"type":"Point","coordinates":[15.817051,50.250502]},"properties":{"icz":"CZH00296","kodTypuZarizeni":"Sberna","suggested_tag":"amenity=recycling + recycling_type=centre","stav":"aktivni","addr_obec":"Předměřice nad Labem","addr_castObce":"Předměřice nad Labem","addr_ulice":"Hradecká 225"}},{"type":"Feature","geometry":{"type":"Point","coordinates":[15.889675,50.350256]},"properties":{"icz":"CZH00415","kodTypuZarizeni":"Kompost","suggested_tag":"(no established tag)","stav":"aktivni","addr_obec":"Jaroměř","addr_castObce":"Jaroměř"}},{"type":"Feature","geometry":{"type":"Point","coordinates":[15.823384,50.209733]},"properties":{"icz":"CZH01142","kodTypuZarizeni":"Sberna","suggested_tag":"amenity=recycling + recycling_type=centre","stav":"aktivni","addr_obec":"Hradec Králové","addr_castObce":"Hradec Králové","addr_ulice":"Jeronýmova 750/1"}},{"type":"Feature","geometry":{"type":"Point","coordinates":[16.099844,50.291692]},"properties":{"icz":"CZH01051","kodTypuZarizeni":"Sberna","suggested_tag":"amenity=recycling + recycling_type=centre","stav":"aktivni","addr_obec":"Pohoří","addr_ulice":"za obecním úřadem"}},{"type":"Feature","geometry":{"type":"Point","coordinates":[15.496195,50.238241]},"properties":{"icz":"CZH00117","kodTypuZarizeni":"ZpracVozidel","suggested_tag":"industrial=scrap_yard","stav":"aktivni","addr_obec":"Nový Bydžov","addr_castObce":"Nový Bydžov","addr_ulice":"Na Staré Cidlině"}},{"type":"Feature","geometry":{"type":"Point","coordinates":[15.392597,50.412858]},"properties":{"icz":"CZH01173","kodTypuZarizeni":"SkladkaRekult","stav":"aktivni","addr_obec":"Jičín","addr_ulice":"Popovice - Libec"}},{"type":"Feature","geometry":{"type":"Point","coordinates":[16.260388,50.118068]},"properties":{"icz":"CZH00924","kodTypuZarizeni":"KompostMale","suggested_tag":"(no established tag)","stav":"aktivni","addr_obec":"Doudleby nad Orlicí","addr_castObce":"Doudleby nad Orlicí","addr_ulice":"p.p.č 3250 k.ú. Doudleby n.O."}},{"type":"Feature","geometry":{"type":"Point","coordinates":[16.146072,50.146119]},"properties":{"icz":"CZH00507","kodTypuZarizeni":"ZpracVozidel","suggested_tag":"industrial=scrap_yard","stav":"aktivni","addr_obec":"Olešnice","addr_ulice":"Olešnice"}}]}