{"type":"FeatureCollection","features":[{"type":"Feature","geometry":{"type":"Point","coordinates":[18.277742,49.850951]},"properties":{"station_id":"13361440","name":"MOAP-sad B. Němcové","short_name":"45100","is_virtual_station":false}},{"type":"Feature","geometry":{"type":"Point","coordinates":[18.287601,49.838788]},"properties":{"station_id":"13361455","name":"MOAP-Husův sad","short_name":"45101","is_virtual_station":false}},{"type":"Feature","geometry":{"type":"Point","coordinates":[18.300911,49.830886]},"properties":{"station_id":"13361473","name":"SL-Slezskoostravský hrad","short_name":"45102","is_virtual_station":false}},{"type":"Feature","geometry":{"type":"Point","coordinates":[18.29019,49.841623]},"properties":{"station_id":"13361487","name":"MOAP-Prokešovo náměstí -Moravskoslezská vědecká knihovna","short_name":"45103","is_virtual_station":false}},{"type":"Feature","geometry":{"type":"Point","coordinates":[18.267505,49.850876]},"properties":{"station_id":"13361512","name":"MOAP-Hlavní nádraží","short_name":"45104","is_virtual_station":false}},{"type":"Feature","geometry":{"type":"Point","coordinates":[18.287504,49.828513]},"properties":{"station_id":"13361525","name":"MOAP-Trojhalí","short_name":"45105","is_virtual_station":false}},{"type":"Feature","geometry":{"type":"Point","coordinates":[18.286777,49.831368]},"properties":{"station_id":"13361546","name":"MOAP-Nová Karolina","short_name":"45106","is_virtual_station":false}},{"type":"Feature","geometry":{"type":"Point","coordinates":[18.287611,49.835122]},"properties":{"station_id":"13361556","name":"MOAP-zastávka Elektra","short_name":"45107","is_virtual_station":false}},{"type":"Feature","geometry":{"type":"Point","coordinates":[18.287345,49.835981]},"properties":{"station_id":"13361767","name":"MOAP-Tyršova","short_name":"45108","is_virtual_station":false}},{"type":"Feature","geometry":{"type":"Point","coordinates":[18.291869,49.835196]},"properties":{"station_id":"13361783","name":"MOAP-Masarykovo náměstí","short_name":"45109","is_virtual_station":false}},{"type":"Feature","geometry":{"type":"Point","coordinates":[18.291248,49.833016]},"properties":{"station_id":"13361804","name":"MOAP-Výstaviště","short_name":"45110","is_virtual_station":false}},{"type":"Feature","geometry":{"type":"Point","coordinates":[18.28942,49.83597]},"properties":{"station_id":"13361820","name":"MOAP-nám. Msgre Šrámka","short_name":"45111","is_virtual_station":false}},{"type":"Feature","geometry":{"type":"Point","coordinates":[18.264121,49.866755]},"properties":{"station_id":"13361881","name":"PET-Landek","short_name":"45112","is_virtual_station":false}},{"type":"Feature","geometry":{"type":"Point","coordinates":[18.289307,49.844789]},"properties":{"station_id":"13361894","name":"MOAP-koupaliště Čapkárna","short_name":"45113","is_virtual_station":false}},{"type":"Feature","geometry":{"type":"Point","coordinates":[18.289475,49.848961]},"properties":{"station_id":"13361908","name":"MOAP-Komenského sady - vchod","short_name":"45114","is_virtual_station":false}},{"type":"Feature","geometry":{"type":"Point","coordinates":[18.2955,49.83725]},"properties":{"station_id":"13361926","name":"MOAP-Most Miloše Sýkory, knihovna","short_name":"45115","is_virtual_station":false}},{"type":"Feature","geometry":{"type":"Point","coordinates":[18.283739,49.851439]},"properties":{"station_id":"13361945","name":"MOAP-sportovní hala Sareza","short_name":"45116","is_virtual_station":false}},{"type":"Feature","geometry":{"type":"Point","coordinates":[18.278301,49.822057]},"properties":{"station_id":"13361960","name":"VIT-DOV ETÁŽ","short_name":"45117","is_virtual_station":false}},{"type":"Feature","geometry":{"type":"Point","coordinates":[18.281192,49.834605]},"properties":{"station_id":"13361974","name":"MOAP-Stodolní železniční zastávka","short_name":"45118","is_virtual_station":false}},{"type":"Feature","geometry":{"type":"Point","coordinates":[18.262184,49.832802]},"properties":{"station_id":"13361988","name":"MOAP-zastávka Futurum","short_name":"45119","is_virtual_station":false}},{"type":"Feature","geometry":{"type":"Point","coordinates":[18.276513,49.819044]},"properties":{"station_id":"13362004","name":"VIT-DOV Velín","short_name":"45120","is_virtual_station":false}},{"type":"Feature","geometry":{"type":"Point","coordinates":[18.280742,49.845202]},"properties":{"station_id":"13362019","name":"MOAP-Křižíkova","short_name":"45121","is_virtual_station":false}},{"type":"Feature","geometry":{"type":"Point","coordinates":[18.285678,49.846717]},"properties":{"station_id":"13362033","name":"MOAP-Partyzánské náměstí","short_name":"45122","is_virtual_station":false}},{"type":"Feature","geometry":{"type":"Point","coordinates":[18.293708,49.839928]},"properties":{"station_id":"13362063","name":"MOAP-Havlíčkovo nábřeží","short_name":"45124","is_virtual_station":false}},{"type":"Feature","geometry":{"type":"Point","coordinates":[18.28206,49.842562]},"properties":{"station_id":"13362073","name":"MOAP-Gorkého","short_name":"45125","is_virtual_station":false}},{"type":"Feature","geometry":{"type":"Point","coordinates":[18.274943,49.836406]},"properties":{"station_id":"13362159","name":"MOAP-křižovatka u pivovaru","short_name":"45126","is_virtual_station":false}},{"type":"Feature","geometry":{"type":"Point","coordinates":[18.265162,49.831389]},"properties":{"station_id":"13362167","name":"MOAP-Dům vodohospodářů","short_name":"45127","is_virtual_station":false}},{"type":"Feature","geometry":{"type":"Point","coordinates":[18.278529,49.830771]},"properties":{"station_id":"13362189","name":"MOAP-Tieto towers","short_name":"45129","is_virtual_station":false}},{"type":"Feature","geometry":{"type":"Point","coordinates":[18.277258,49.827763]},"properties":{"station_id":"13362197","name":"MOAP-Don Bosco","short_name":"45130","is_virtual_station":false}},{"type":"Feature","geometry":{"type":"Point","coordinates":[18.264035,49.828758]},"properties":{"station_id":"13362286","name":"MOAP-Dům Energetiky","short_name":"45131","is_virtual_station":false}},{"type":"Feature","geometry":{"type":"Point","coordinates":[18.269518,49.841496]},"properties":{"station_id":"13363184","name":"MOAP-Orchard Park Inn","short_name":"45132","is_virtual_station":false}},{"type":"Feature","geometry":{"type":"Point","coordinates":[18.262328,49.836726]},"properties":{"station_id":"13363203","name":"MOAP-Novinářská","short_name":"45133","is_virtual_station":false}},{"type":"Feature","geometry":{"type":"Point","coordinates":[18.266199,49.840458]},"properties":{"station_id":"13363263","name":"MOAP-Generála Píky","short_name":"45134","is_virtual_station":false}},{"type":"Feature","geometry":{"type":"Point","coordinates":[18.277164,49.833055]},"properties":{"station_id":"13363295","name":"MOAP-nemocnice Fifejdy","short_name":"45135","is_virtual_station":false}},{"type":"Feature","geometry":{"type":"Point","coordinates":[18.296655,49.839974]},"properties":{"station_id":"13363326","name":"SL-Gagarinovo náměstí","short_name":"45136","is_virtual_station":false}},{"type":"Feature","geometry":{"type":"Point","coordinates":[18.291408,49.83811]},"properties":{"station_id":"13363349","name":"MOAP-Česká televize","short_name":"45137","is_virtual_station":false}},{"type":"Feature","geometry":{"type":"Point","coordinates":[18.283568,49.839425]},"properties":{"station_id":"13363361","name":"MOAP-Úřad práce","short_name":"45138","is_virtual_station":false}},{"type":"Feature","geometry":{"type":"Point","coordinates":[18.291586,49.840167]},"properties":{"station_id":"13363378","name":"MOAP-Most Pionýrů (rapzzz)","short_name":"45139","is_virtual_station":false}},{"type":"Feature","geometry":{"type":"Point","coordinates":[18.292208,49.842494]},"properties":{"station_id":"13363387","name":"MOAP-Pyková dáma","short_name":"45140","is_virtual_station":false}},{"type":"Feature","geometry":{"type":"Point","coordinates":[18.298428,49.837194]},"properties":{"station_id":"13363404","name":"SL-radnice Slezská Ostrava","short_name":"45141","is_virtual_station":false}},{"type":"Feature","geometry":{"type":"Point","coordinates":[18.286877,49.836851]},"properties":{"station_id":"13363423","name":"MOAP-kino Vesmír","short_name":"45142","is_virtual_station":false}},{"type":"Feature","geometry":{"type":"Point","coordinates":[18.28686,49.83414]},"properties":{"station_id":"13363436","name":"MOAP-Dům Umění","short_name":"45143","is_virtual_station":false}},{"type":"Feature","geometry":{"type":"Point","coordinates":[18.27087,49.812664]},"properties":{"station_id":"13363955","name":"VIT-nám J. z Poděbrad","short_name":"45144","is_virtual_station":false}},{"type":"Feature","geometry":{"type":"Point","coordinates":[18.269051,49.811516]},"properties":{"station_id":"13363996","name":"VIT-Šalounova","short_name":"45146","is_virtual_station":false}},{"type":"Feature","geometry":{"type":"Point","coordinates":[18.272143,49.811804]},"properties":{"station_id":"13364010","name":"VIT-hřiště u nám. J. z Poděbrad","short_name":"45147","is_virtual_station":false}},{"type":"Feature","geometry":{"type":"Point","coordinates":[18.289033,49.837978]},"properties":{"station_id":"13364025","name":"MOAP-Poštovní","short_name":"45148","is_virtual_station":false}},{"type":"Feature","geometry":{"type":"Point","coordinates":[18.29384,49.835626]},"properties":{"station_id":"13364039","name":"MOAP-Minikino kavárna","short_name":"45149","is_virtual_station":false}},{"type":"Feature","geometry":{"type":"Point","coordinates":[18.280323,49.819198]},"properties":{"station_id":"13364055","name":"VIT-Gong","short_name":"45150","is_virtual_station":false}},{"type":"Feature","geometry":{"type":"Point","coordinates":[18.266447,49.815344]},"properties":{"station_id":"13364128","name":"VIT-radnice Vítkovice","short_name":"45151","is_virtual_station":false}},{"type":"Feature","geometry":{"type":"Point","coordinates":[18.293175,49.835941]},"properties":{"station_id":"13364168","name":"MOAP - Masarykovo náměstí (Radegastovna)","short_name":"45152","is_virtual_station":false}},{"type":"Feature","geometry":{"type":"Point","coordinates":[18.294205,49.832751]},"properties":{"station_id":"13364179","name":"MOAP- PAVILON","short_name":"45153","is_virtual_station":false}},{"type":"Feature","geometry":{"type":"Point","coordinates":[18.288789,49.834135]},"properties":{"station_id":"13364186","name":"MOAP-radnice Moravská Ostrava","short_name":"45154","is_virtual_station":false}},{"type":"Feature","geometry":{"type":"Point","coordinates":[18.29094,49.83459]},"properties":{"station_id":"13364192","name":"MOAP-pěší zóna 28. října","short_name":"45155","is_virtual_station":false}},{"type":"Feature","geometry":{"type":"Point","coordinates":[18.254626,49.836986]},"properties":{"station_id":"13364215","name":"MAR-Novoveská - Ostravské komunikace","short_name":"45156","is_virtual_station":false}},{"type":"Feature","geometry":{"type":"Point","coordinates":[18.272129,49.836505]},"properties":{"station_id":"13364229","name":"MOAP-MŠ Ostrava, Varenská","short_name":"45157","is_virtual_station":false}},{"type":"Feature","geometry":{"type":"Point","coordinates":[18.271435,49.828574]},"properties":{"station_id":"13364243","name":"MOAP-Zelená, VOŠ sociální","short_name":"45158","is_virtual_station":false}},{"type":"Feature","geometry":{"type":"Point","coordinates":[18.269795,49.827822]},"properties":{"station_id":"13364302","name":"MOAP-Zelená, sídliště","short_name":"45159","is_virtual_station":false}},{"type":"Feature","geometry":{"type":"Point","coordinates":[18.273668,49.826494]},"properties":{"station_id":"13364326","name":"MOAP-Dr. Malého, VŠB - TUO","short_name":"45160","is_virtual_station":false}},{"type":"Feature","geometry":{"type":"Point","coordinates":[18.270589,49.824686]},"properties":{"station_id":"13364341","name":"MOAP-Sportovní","short_name":"45161","is_virtual_station":false}},{"type":"Feature","geometry":{"type":"Point","coordinates":[18.273944,49.829077]},"properties":{"station_id":"13364351","name":"MOAP-Na Široké","short_name":"496056","is_virtual_station":false}},{"type":"Feature","geometry":{"type":"Point","coordinates":[18.269749,49.821564]},"properties":{"station_id":"13364366","name":"MOAP-Železárenská","short_name":"45163","is_virtual_station":false}},{"type":"Feature","geometry":{"type":"Point","coordinates":[18.269752,49.826426]},"properties":{"station_id":"13364385","name":"MOAP-Nedbalova, Hruška","short_name":"45164","is_virtual_station":false}},{"type":"Feature","geometry":{"type":"Point","coordinates":[18.270251,49.833657]},"properties":{"station_id":"13364397","name":"MOAP-SC Varenská","short_name":"45165","is_virtual_station":false}},{"type":"Feature","geometry":{"type":"Point","coordinates":[18.272041,49.835218]},"properties":{"station_id":"13364425","name":"MOAP-náměstíčko Fifejdy","short_name":"45166","is_virtual_station":false}},{"type":"Feature","geometry":{"type":"Point","coordinates":[18.27305,49.851703]},"properties":{"station_id":"13364442","name":"MOAP-Špálova","short_name":"45167","is_virtual_station":false}},{"type":"Feature","geometry":{"type":"Point","coordinates":[18.309119,49.839791]},"properties":{"station_id":"13364494","name":"SL-Na Bruni, halda Ema","short_name":"45170","is_virtual_station":false}},{"type":"Feature","geometry":{"type":"Point","coordinates":[18.299261,49.853766]},"properties":{"station_id":"13364501","name":"SL-Na Druhém, KD Muglinov","short_name":"45171","is_virtual_station":false}},{"type":"Feature","geometry":{"type":"Point","coordinates":[18.302877,49.851638]},"properties":{"station_id":"13364510","name":"SL-Švédská, COOP","short_name":"45172","is_virtual_station":false}},{"type":"Feature","geometry":{"type":"Point","coordinates":[18.302135,49.839535]},"properties":{"station_id":"13364534","name":"SL-Keltičkova, hřiště","short_name":"45173","is_virtual_station":false}},{"type":"Feature","geometry":{"type":"Point","coordinates":[18.3189,49.8434]},"properties":{"station_id":"13364548","name":"SL-ZOO Ostrava","short_name":"45174","is_virtual_station":false}},{"type":"Feature","geometry":{"type":"Point","coordinates":[18.30533,49.846336]},"properties":{"station_id":"13364568","name":"SL-Hladnovská, gymnázium","short_name":"45175","is_virtual_station":false}},{"type":"Feature","geometry":{"type":"Point","coordinates":[18.303848,49.843239]},"properties":{"station_id":"13364590","name":"SL-Nejedlého, Přír. fakulta OU","short_name":"45176","is_virtual_station":false}},{"type":"Feature","geometry":{"type":"Point","coordinates":[18.294918,49.843186]},"properties":{"station_id":"13364602","name":"SL-sídliště Kamenec","short_name":"45177","is_virtual_station":false}},{"type":"Feature","geometry":{"type":"Point","coordinates":[18.297442,49.832524]},"properties":{"station_id":"13364623","name":"SL-Loděnice","short_name":"45178","is_virtual_station":false}},{"type":"Feature","geometry":{"type":"Point","coordinates":[18.29678,49.837532]},"properties":{"station_id":"13364635","name":"SL-Most Miloše Sýkory, památník","short_name":"45179","is_virtual_station":false}},{"type":"Feature","geometry":{"type":"Point","coordinates":[18.31556,49.843911]},"properties":{"station_id":"13364642","name":"SL-Michálkovická, VŠ podnikání","short_name":"45180","is_virtual_station":false}},{"type":"Feature","geometry":{"type":"Point","coordinates":[18.262787,49.800851]},"properties":{"station_id":"13364679","name":"VIT-Vítkovice nádraží","short_name":"45182","is_virtual_station":false}},{"type":"Feature","geometry":{"type":"Point","coordinates":[18.268944,49.799114]},"properties":{"station_id":"13364859","name":"VIT-SS technická dopravní","short_name":"45183","is_virtual_station":false}},{"type":"Feature","geometry":{"type":"Point","coordinates":[18.31151,49.812794]},"properties":{"station_id":"13364875","name":"SL-HSF System","short_name":"45184","is_virtual_station":false}},{"type":"Feature","geometry":{"type":"Point","coordinates":[18.180415,49.824982]},"properties":{"station_id":"13364893","name":"P-Větrná","short_name":"45185","is_virtual_station":false}},{"type":"Feature","geometry":{"type":"Point","coordinates":[18.273887,49.809196]},"properties":{"station_id":"13365779","name":"VIT-SPŠ Výstavní","short_name":"45188","is_virtual_station":false}},{"type":"Feature","geometry":{"type":"Point","coordinates":[18.255796,49.802857]},"properties":{"station_id":"13365793","name":"VIT-Městský stadion","short_name":"45189","is_virtual_station":false}},{"type":"Feature","geometry":{"type":"Point","coordinates":[18.243357,49.813777]},"properties":{"station_id":"13365926","name":"VIT-In line areál (sever)","short_name":"45193","is_virtual_station":false}},{"type":"Feature","geometry":{"type":"Point","coordinates":[18.24497,49.81174]},"properties":{"station_id":"13366250","name":"VIT-In-line areál (jih)","short_name":"45195","is_virtual_station":false}},{"type":"Feature","geometry":{"type":"Point","coordinates":[18.255627,49.831474]},"properties":{"station_id":"13366271","name":"MAR-Stojanovo náměstí","short_name":"45196","is_virtual_station":false}},{"type":"Feature","geometry":{"type":"Point","coordinates":[18.25263,49.83204]},"properties":{"station_id":"13366286","name":"MAR-radnice Mariánské hory","short_name":"45197","is_virtual_station":false}},{"type":"Feature","geometry":{"type":"Point","coordinates":[18.251951,49.834659]},"properties":{"station_id":"13366303","name":"MAR-Novoveská","short_name":"45198","is_virtual_station":false}},{"type":"Feature","geometry":{"type":"Point","coordinates":[18.250106,49.829529]},"properties":{"station_id":"13366317","name":"MAR-OA a VOŠ sociální","short_name":"45199","is_virtual_station":false}},{"type":"Feature","geometry":{"type":"Point","coordinates":[18.249199,49.828021]},"properties":{"station_id":"13366344","name":"MAR-Mojmírovců – PRIGO","short_name":"45200","is_virtual_station":false}},{"type":"Feature","geometry":{"type":"Point","coordinates":[18.256198,49.827979]},"properties":{"station_id":"13366425","name":"MAR-28. října - KB","short_name":"45201","is_virtual_station":false}},{"type":"Feature","geometry":{"type":"Point","coordinates":[18.258444,49.830466]},"properties":{"station_id":"13366443","name":"MAR-Emila Filly","short_name":"45202","is_virtual_station":false}},{"type":"Feature","geometry":{"type":"Point","coordinates":[18.246452,49.827287]},"properties":{"station_id":"13366453","name":"MAR-Sokola Tůmy","short_name":"45203","is_virtual_station":false}},{"type":"Feature","geometry":{"type":"Point","coordinates":[18.244114,49.826317]},"properties":{"station_id":"13366483","name":"MAR-terminál Hulváky","short_name":"45205","is_virtual_station":false}},{"type":"Feature","geometry":{"type":"Point","coordinates":[18.118443,49.835492]},"properties":{"station_id":"13366502","name":"KP - obchod Budoucnost","short_name":"45206","is_virtual_station":false}},{"type":"Feature","geometry":{"type":"Point","coordinates":[18.261496,49.749111]},"properties":{"station_id":"13366520","name":"NB - Nová Bělá – MŠ","short_name":"45207","is_virtual_station":false}},{"type":"Feature","geometry":{"type":"Point","coordinates":[18.262232,49.827439]},"properties":{"station_id":"13366529","name":"MAR-Fráni Šrámka","short_name":"45208","is_virtual_station":false}},{"type":"Feature","geometry":{"type":"Point","coordinates":[18.2577,49.828405]},"properties":{"station_id":"13366543","name":"MAR-Mariánské náměstí","short_name":"45209","is_virtual_station":false}},{"type":"Feature","geometry":{"type":"Point","coordinates":[18.25063,49.82854]},"properties":{"station_id":"13366583","name":"MAR-Mojmírovců – parkoviště","short_name":"45210","is_virtual_station":false}},{"type":"Feature","geometry":{"type":"Point","coordinates":[18.255813,49.83019]},"properties":{"station_id":"13366598","name":"MAR-Závišova","short_name":"45211","is_virtual_station":false}},{"type":"Feature","geometry":{"type":"Point","coordinates":[18.264626,49.827185]},"properties":{"station_id":"13366613","name":"MAR-Hospodářská komora","short_name":"45212","is_virtual_station":false}},{"type":"Feature","geometry":{"type":"Point","coordinates":[18.260529,49.836191]},"properties":{"station_id":"13367618","name":"MAR-parkoviště Jiřího Trnky","short_name":"45217","is_virtual_station":false}},{"type":"Feature","geometry":{"type":"Point","coordinates":[18.259613,49.834182]},"properties":{"station_id":"13367709","name":"MAR-Jiřího Trnky - knihovna","short_name":"45218","is_virtual_station":false}},{"type":"Feature","geometry":{"type":"Point","coordinates":[18.158445,49.822305]},"properties":{"station_id":"13385346","name":"P-Vřesinská *(navíc 15min na odjezd)","short_name":"45219","is_virtual_station":false}},{"type":"Feature","geometry":{"type":"Point","coordinates":[18.166845,49.834546]},"properties":{"station_id":"13385361","name":"P-Slovan","short_name":"45220","is_virtual_station":false}},{"type":"Feature","geometry":{"type":"Point","coordinates":[18.175373,49.832365]},"properties":{"station_id":"13385372","name":"P-Poruba vozovna","short_name":"45221","is_virtual_station":false}},{"type":"Feature","geometry":{"type":"Point","coordinates":[18.18661,49.829589]},"properties":{"station_id":"13385412","name":"P-Telekomunikační škola","short_name":"45222","is_virtual_station":false}},{"type":"Feature","geometry":{"type":"Point","coordinates":[18.192601,49.828061]},"properties":{"station_id":"13385426","name":"P-Třebovická","short_name":"45223","is_virtual_station":false}},{"type":"Feature","geometry":{"type":"Point","coordinates":[18.181926,49.847444]},"properties":{"station_id":"13385442","name":"P-Dílny DP *(navíc 15min na odjezd)","short_name":"45224","is_virtual_station":false}},{"type":"Feature","geometry":{"type":"Point","coordinates":[18.182599,49.841578]},"properties":{"station_id":"13385563","name":"P-Bedřicha Nikodéma - Martinovská *(navíc 15min na odjezd)","short_name":"45225","is_virtual_station":false}},{"type":"Feature","geometry":{"type":"Point","coordinates":[18.187839,49.838944]},"properties":{"station_id":"13385592","name":"P-Čistírny *(navíc 15min na odjezd)","short_name":"45226","is_virtual_station":false}},{"type":"Feature","geometry":{"type":"Point","coordinates":[18.16905,49.844516]},"properties":{"station_id":"13385600","name":"P-Duha","short_name":"45227","is_virtual_station":false}},{"type":"Feature","geometry":{"type":"Point","coordinates":[18.157565,49.842628]},"properties":{"station_id":"13385611","name":"P-Nikodéma - Jeremiáše","short_name":"45228","is_virtual_station":false}},{"type":"Feature","geometry":{"type":"Point","coordinates":[18.169258,49.83195]},"properties":{"station_id":"13385670","name":"P-Havlíčkovo náměstí","short_name":"45229","is_virtual_station":false}},{"type":"Feature","geometry":{"type":"Point","coordinates":[18.181034,49.83617]},"properties":{"station_id":"13385686","name":"P-Bohemka/nám. Družby","short_name":"45230","is_virtual_station":false}},{"type":"Feature","geometry":{"type":"Point","coordinates":[18.166695,49.843983]},"properties":{"station_id":"13385706","name":"P-Duha - horní náměstí","short_name":"45231","is_virtual_station":false}},{"type":"Feature","geometry":{"type":"Point","coordinates":[18.16464,49.831107]},"properties":{"station_id":"13385720","name":"P-Hlavní třída - horní část","short_name":"45232","is_virtual_station":false}},{"type":"Feature","geometry":{"type":"Point","coordinates":[18.166733,49.830192]},"properties":{"station_id":"13385738","name":"P-Hlavní třída - Havanská","short_name":"45233","is_virtual_station":false}},{"type":"Feature","geometry":{"type":"Point","coordinates":[18.168898,49.830366]},"properties":{"station_id":"13387752","name":"P-Alšovo náměstí","short_name":"45234","is_virtual_station":false}},{"type":"Feature","geometry":{"type":"Point","coordinates":[18.170296,49.82928]},"properties":{"station_id":"13387762","name":"P-Hlavní třída - Bohuslava Martinů","short_name":"45235","is_virtual_station":false}},{"type":"Feature","geometry":{"type":"Point","coordinates":[18.174144,49.828439]},"properties":{"station_id":"13387788","name":"P-Hlavní třída - Rondl - středový pás","short_name":"45236","is_virtual_station":false}},{"type":"Feature","geometry":{"type":"Point","coordinates":[18.175735,49.827528]},"properties":{"station_id":"13387799","name":"P-Hlavní třída č.p. 51","short_name":"45237","is_virtual_station":false}},{"type":"Feature","geometry":{"type":"Point","coordinates":[18.163,49.841417]},"properties":{"station_id":"13387812","name":"PUS-radnice Pustkovec","short_name":"45238","is_virtual_station":false}},{"type":"Feature","geometry":{"type":"Point","coordinates":[18.179576,49.826941]},"properties":{"station_id":"13387831","name":"P-Hlavní třída - Nálepkova","short_name":"45239","is_virtual_station":false}},{"type":"Feature","geometry":{"type":"Point","coordinates":[18.184188,49.825761]},"properties":{"station_id":"13387886","name":"P-Hlavní třída - dolní část","short_name":"45240","is_virtual_station":false}},{"type":"Feature","geometry":{"type":"Point","coordinates":[18.21504,49.84696]},"properties":{"station_id":"13387935","name":"HOS-radnice Hošťálkovice","short_name":"45241","is_virtual_station":false}},{"type":"Feature","geometry":{"type":"Point","coordinates":[18.19069,49.820893]},"properties":{"station_id":"13388009","name":"P-Kaufland","short_name":"45242","is_virtual_station":false}},{"type":"Feature","geometry":{"type":"Point","coordinates":[18.155353,49.844635]},"properties":{"station_id":"13388021","name":"P-Ludvíka Podeště","short_name":"45243","is_virtual_station":false}},{"type":"Feature","geometry":{"type":"Point","coordinates":[18.157593,49.835953]},"properties":{"station_id":"13388035","name":"P-Koleje VŠB - vstup do lesoparku","short_name":"45244","is_virtual_station":false}},{"type":"Feature","geometry":{"type":"Point","coordinates":[18.180727,49.838642]},"properties":{"station_id":"13388043","name":"P-Komunitní centrum Všichni spolu","short_name":"45245","is_virtual_station":false}},{"type":"Feature","geometry":{"type":"Point","coordinates":[18.1453,49.82491]},"properties":{"station_id":"13388231","name":"P-Letní koupaliště Vřesina","short_name":"45246","is_virtual_station":false}},{"type":"Feature","geometry":{"type":"Point","coordinates":[18.167611,49.847031]},"properties":{"station_id":"13388251","name":"P-Arrows baseball","short_name":"45248","is_virtual_station":false}},{"type":"Feature","geometry":{"type":"Point","coordinates":[18.173919,49.842279]},"properties":{"station_id":"13388265","name":"P-Jana Šoupala","short_name":"45249","is_virtual_station":false}},{"type":"Feature","geometry":{"type":"Point","coordinates":[18.174782,49.829888]},"properties":{"station_id":"13388277","name":"P-Pošta Porubská","short_name":"45250","is_virtual_station":false}},{"type":"Feature","geometry":{"type":"Point","coordinates":[18.162921,49.838462]},"properties":{"station_id":"13388288","name":"P-Středisko Pavlouskova","short_name":"45031","is_virtual_station":false}},{"type":"Feature","geometry":{"type":"Point","coordinates":[18.168229,49.825748]},"properties":{"station_id":"13388303","name":"P-Wichterlovo gymnázium","short_name":"45252","is_virtual_station":false}},{"type":"Feature","geometry":{"type":"Point","coordinates":[18.191206,49.822445]},"properties":{"station_id":"13410565","name":"P-CVČ Vietnamská","short_name":"45253","is_virtual_station":false}},{"type":"Feature","geometry":{"type":"Point","coordinates":[18.178819,49.831438]},"properties":{"station_id":"13410573","name":"P-Mephacentrum","short_name":"45254","is_virtual_station":false}},{"type":"Feature","geometry":{"type":"Point","coordinates":[18.162449,49.828514]},"properties":{"station_id":"13410583","name":"P-Fakultní nemocnice","short_name":"45255","is_virtual_station":false}},{"type":"Feature","geometry":{"type":"Point","coordinates":[18.177828,49.840524]},"properties":{"station_id":"13410601","name":"P-Středisko Zuzana","short_name":"45256","is_virtual_station":false}},{"type":"Feature","geometry":{"type":"Point","coordinates":[18.172971,49.847674]},"properties":{"station_id":"13410627","name":"P-Průběžná-Majerové","short_name":"45257","is_virtual_station":false}},{"type":"Feature","geometry":{"type":"Point","coordinates":[18.16606,49.82261]},"properties":{"station_id":"13410656","name":"P-Vřesinská, Klimkovická","short_name":"45258","is_virtual_station":false}},{"type":"Feature","geometry":{"type":"Point","coordinates":[18.179551,49.834198]},"properties":{"station_id":"13410669","name":"P-Generála Sochora, radnice Poruba C","short_name":"45259","is_virtual_station":false}},{"type":"Feature","geometry":{"type":"Point","coordinates":[18.18099,49.830853]},"properties":{"station_id":"13410679","name":"P-Opavská, úřad práce","short_name":"45260","is_virtual_station":false}},{"type":"Feature","geometry":{"type":"Point","coordinates":[18.185454,49.827704]},"properties":{"station_id":"13410699","name":"P-U Soudu, Francouzská","short_name":"45261","is_virtual_station":false}},{"type":"Feature","geometry":{"type":"Point","coordinates":[18.153577,49.845683]},"properties":{"station_id":"13410707","name":"P-FAST, VŠB-TUO","short_name":"45262","is_virtual_station":false}},{"type":"Feature","geometry":{"type":"Point","coordinates":[18.161756,49.831907]},"properties":{"station_id":"13410718","name":"P-FEI, VŠB-TUO (navíc 15min na příjezd i odjezd)","short_name":"45263","is_virtual_station":false}},{"type":"Feature","geometry":{"type":"Point","coordinates":[18.164356,49.834027]},"properties":{"station_id":"13410727","name":"P-rektorát, VŠB-TUO(+15 minut zdarma na příjezd i odjezd)","short_name":"45264","is_virtual_station":false}},{"type":"Feature","geometry":{"type":"Point","coordinates":[18.158608,49.836662]},"properties":{"station_id":"13410745","name":"P-koleje VŠB","short_name":"45265","is_virtual_station":false}},{"type":"Feature","geometry":{"type":"Point","coordinates":[18.197832,49.839548]},"properties":{"station_id":"13410760","name":"TRE-5. května","short_name":"45266","is_virtual_station":false}},{"type":"Feature","geometry":{"type":"Point","coordinates":[18.154809,49.837865]},"properties":{"station_id":"13410769","name":"P-MSIC - Piano","short_name":"45267","is_virtual_station":false}},{"type":"Feature","geometry":{"type":"Point","coordinates":[18.154571,49.838789]},"properties":{"station_id":"13410779","name":"P-MSIC - Viva","short_name":"45268","is_virtual_station":false}},{"type":"Feature","geometry":{"type":"Point","coordinates":[18.198511,49.816023]},"properties":{"station_id":"13410788","name":"SV-radnice Svinov *(navíc 15min na odjezd)","short_name":"45269","is_virtual_station":false}},{"type":"Feature","geometry":{"type":"Point","coordinates":[18.196559,49.814955]},"properties":{"station_id":"13410800","name":"SV-Hruška Svinov *(navíc 15min na odjezd)","short_name":"45270","is_virtual_station":false}},{"type":"Feature","geometry":{"type":"Point","coordinates":[18.22479,49.773809]},"properties":{"station_id":"13410820","name":"JIH-Jičínská","short_name":"45271","is_virtual_station":false}},{"type":"Feature","geometry":{"type":"Point","coordinates":[18.22462,49.775828]},"properties":{"station_id":"13410827","name":"JIH-Srbská","short_name":"45272","is_virtual_station":false}},{"type":"Feature","geometry":{"type":"Point","coordinates":[18.233441,49.780964]},"properties":{"station_id":"13410835","name":"JIH-Svornosti (koliba)","short_name":"45273","is_virtual_station":false}},{"type":"Feature","geometry":{"type":"Point","coordinates":[18.217628,49.785386]},"properties":{"station_id":"13410844","name":"JIH-Husarova *(navíc 15min na odjezd)","short_name":"45274","is_virtual_station":false}},{"type":"Feature","geometry":{"type":"Point","coordinates":[18.235155,49.784009]},"properties":{"station_id":"13410853","name":"JIH-Svornosti (MHD)","short_name":"45275","is_virtual_station":false}},{"type":"Feature","geometry":{"type":"Point","coordinates":[18.238381,49.790121]},"properties":{"station_id":"13410871","name":"JIH-Svazácká","short_name":"45276","is_virtual_station":false}},{"type":"Feature","geometry":{"type":"Point","coordinates":[18.227954,49.793591]},"properties":{"station_id":"13410885","name":"JIH-Volgogradská","short_name":"45277","is_virtual_station":false}},{"type":"Feature","geometry":{"type":"Point","coordinates":[18.238017,49.799331]},"properties":{"station_id":"13410891","name":"JIH-Středoškolská","short_name":"45278","is_virtual_station":false}},{"type":"Feature","geometry":{"type":"Point","coordinates":[18.243779,49.801347]},"properties":{"station_id":"13410918","name":"JIH-Tylova x Rottrova","short_name":"45279","is_virtual_station":false}},{"type":"Feature","geometry":{"type":"Point","coordinates":[18.245731,49.801678]},"properties":{"station_id":"13410929","name":"JIH-podchod Plzeňská","short_name":"45280","is_virtual_station":false}},{"type":"Feature","geometry":{"type":"Point","coordinates":[18.248557,49.803758]},"properties":{"station_id":"13410944","name":"VIT-Ostravar aréna","short_name":"45281","is_virtual_station":false}},{"type":"Feature","geometry":{"type":"Point","coordinates":[18.240589,49.805637]},"properties":{"station_id":"13410953","name":"JIH-U Zámku","short_name":"45282","is_virtual_station":false}},{"type":"Feature","geometry":{"type":"Point","coordinates":[18.229952,49.809537]},"properties":{"station_id":"13410972","name":"JIH-U Hrůbků *(navíc 15min na odjezd)","short_name":"45283","is_virtual_station":false}},{"type":"Feature","geometry":{"type":"Point","coordinates":[18.259714,49.799209]},"properties":{"station_id":"13410992","name":"VIT-Česká x Chalupníkova","short_name":"45285","is_virtual_station":false}},{"type":"Feature","geometry":{"type":"Point","coordinates":[18.250865,49.79367]},"properties":{"station_id":"13411002","name":"JIH-Úmob Ostrava - Jih","short_name":"45286","is_virtual_station":false}},{"type":"Feature","geometry":{"type":"Point","coordinates":[18.2964,49.8366]},"properties":{"station_id":"13411012","name":"MOAP - DOCK","short_name":"45287","is_virtual_station":false}},{"type":"Feature","geometry":{"type":"Point","coordinates":[18.245824,49.791753]},"properties":{"station_id":"13411024","name":"JIH-hotel Vista","short_name":"45288","is_virtual_station":false}},{"type":"Feature","geometry":{"type":"Point","coordinates":[18.249396,49.783704]},"properties":{"station_id":"13411220","name":"JIH-Cholevova","short_name":"45289","is_virtual_station":false}},{"type":"Feature","geometry":{"type":"Point","coordinates":[18.263547,49.79162]},"properties":{"station_id":"13411230","name":"JIH-Slezská","short_name":"45290","is_virtual_station":false}},{"type":"Feature","geometry":{"type":"Point","coordinates":[18.271327,49.793743]},"properties":{"station_id":"13411244","name":"JIH-U Haldy","short_name":"45291","is_virtual_station":false}},{"type":"Feature","geometry":{"type":"Point","coordinates":[18.258968,49.78558]},"properties":{"station_id":"13411267","name":"JIH-Hrabůvka, poliklinika","short_name":"45293","is_virtual_station":false}},{"type":"Feature","geometry":{"type":"Point","coordinates":[18.25251,49.778795]},"properties":{"station_id":"13411506","name":"JIH-Ant. Poledníka","short_name":"45296","is_virtual_station":false}},{"type":"Feature","geometry":{"type":"Point","coordinates":[18.251113,49.779505]},"properties":{"station_id":"13411511","name":"JIH-Bohumíra Četyny","short_name":"45297","is_virtual_station":false}},{"type":"Feature","geometry":{"type":"Point","coordinates":[18.261236,49.784346]},"properties":{"station_id":"13411519","name":"JIH-K-Trio","short_name":"45298","is_virtual_station":false}},{"type":"Feature","geometry":{"type":"Point","coordinates":[18.2648,49.785188]},"properties":{"station_id":"13411532","name":"JIH-Hrabůvka, PČR","short_name":"45299","is_virtual_station":false}},{"type":"Feature","geometry":{"type":"Point","coordinates":[18.194404,49.835238]},"properties":{"station_id":"13411540","name":"TRE-Sladkovičovo náměstí *(navíc 15min na odjezd)","short_name":"45300","is_virtual_station":false}},{"type":"Feature","geometry":{"type":"Point","coordinates":[18.238769,49.791991]},"properties":{"station_id":"13411551","name":"JIH-Zábřeh, poliklinika","short_name":"45301","is_virtual_station":false}},{"type":"Feature","geometry":{"type":"Point","coordinates":[18.22654,49.78941]},"properties":{"station_id":"13411586","name":"JIH-Kotlářova","short_name":"45302","is_virtual_station":false}},{"type":"Feature","geometry":{"type":"Point","coordinates":[18.221096,49.778076]},"properties":{"station_id":"13411590","name":"JIH-Výškovice, poliklinika","short_name":"45303","capacity":10,"is_virtual_station":false}},{"type":"Feature","geometry":{"type":"Point","coordinates":[18.246917,49.777538]},"properties":{"station_id":"13411599","name":"JIH-Dubina, pumptrack","short_name":"45304","is_virtual_station":false}},{"type":"Feature","geometry":{"type":"Point","coordinates":[18.259013,49.790366]},"properties":{"station_id":"13411645","name":"Hrabůvka, ZŠ Provaznická","short_name":"45305","is_virtual_station":false}},{"type":"Feature","geometry":{"type":"Point","coordinates":[18.216606,49.843536]},"properties":{"station_id":"13411654","name":"HOS-Lipka","short_name":"45306","is_virtual_station":false}},{"type":"Feature","geometry":{"type":"Point","coordinates":[18.214439,49.855248]},"properties":{"station_id":"13411662","name":"HOS-horní zastávka Žleby","short_name":"45307","is_virtual_station":false}},{"type":"Feature","geometry":{"type":"Point","coordinates":[18.211026,49.847373]},"properties":{"station_id":"13411670","name":"HOS-sportovní areál u ZŠ","short_name":"45308","is_virtual_station":false}},{"type":"Feature","geometry":{"type":"Point","coordinates":[18.214436,49.849654]},"properties":{"station_id":"13411678","name":"HOS-Hošťálkovice točna autobusů","short_name":"45309","is_virtual_station":false}},{"type":"Feature","geometry":{"type":"Point","coordinates":[18.211301,49.844474]},"properties":{"station_id":"13411690","name":"HOS-Rozhledna","short_name":"45310","is_virtual_station":false}},{"type":"Feature","geometry":{"type":"Point","coordinates":[18.20981,49.822109]},"properties":{"station_id":"13411701","name":"SV-Svinov nádraží *(navíc 15min na odjezd)","short_name":"45311","is_virtual_station":false}},{"type":"Feature","geometry":{"type":"Point","coordinates":[18.13915,49.81933]},"properties":{"station_id":"14402984","name":"P-Skalka family park","short_name":"45312","is_virtual_station":false}},{"type":"Feature","geometry":{"type":"Point","coordinates":[18.23072,49.85384]},"properties":{"station_id":"14403073","name":"LHOT-Golf Park Lhotka","short_name":"45318","is_virtual_station":false}},{"type":"Feature","geometry":{"type":"Point","coordinates":[18.254996,49.859431]},"properties":{"station_id":"14403130","name":"MOAP-Outlet Arena Moravia","short_name":"45319","is_virtual_station":false}},{"type":"Feature","geometry":{"type":"Point","coordinates":[18.266898,49.774987]},"properties":{"station_id":"14403168","name":"HR-CTPark Žižkovská","short_name":"45321","is_virtual_station":false}},{"type":"Feature","geometry":{"type":"Point","coordinates":[18.26803,49.769835]},"properties":{"station_id":"14403211","name":"HR-CTPark sever","short_name":"45322","is_virtual_station":false}},{"type":"Feature","geometry":{"type":"Point","coordinates":[18.268425,49.763811]},"properties":{"station_id":"14403222","name":"HR-CTPark střed","short_name":"45323","is_virtual_station":false}},{"type":"Feature","geometry":{"type":"Point","coordinates":[18.268998,49.759137]},"properties":{"station_id":"14403231","name":"HR-CTPark jih","short_name":"45324","is_virtual_station":false}},{"type":"Feature","geometry":{"type":"Point","coordinates":[18.289374,49.767872]},"properties":{"station_id":"14403249","name":"HR-Mostní - kruhový objezd","short_name":"45327","is_virtual_station":false}},{"type":"Feature","geometry":{"type":"Point","coordinates":[18.275247,49.781117]},"properties":{"station_id":"14403255","name":"HR-Příborská","short_name":"45328","is_virtual_station":false}},{"type":"Feature","geometry":{"type":"Point","coordinates":[18.180984,49.823743]},"properties":{"station_id":"14403318","name":"P-stadion VOKD","short_name":"45332","is_virtual_station":false}},{"type":"Feature","geometry":{"type":"Point","coordinates":[18.174045,49.822369]},"properties":{"station_id":"14403325","name":"P-U Oblouku","short_name":"45333","is_virtual_station":false}},{"type":"Feature","geometry":{"type":"Point","coordinates":[18.295383,49.85542]},"properties":{"station_id":"14403347","name":"SL-ČPP aréna","short_name":"45334","is_virtual_station":false}},{"type":"Feature","geometry":{"type":"Point","coordinates":[18.144208,49.837538]},"properties":{"station_id":"14403363","name":"KP-Planetárium *(+15min zdarma na příjezd i odjezd)","short_name":"45335","is_virtual_station":false}},{"type":"Feature","geometry":{"type":"Point","coordinates":[18.182908,49.853428]},"properties":{"station_id":"14403377","name":"MTNV-Martinov - smyčka","short_name":"45337","is_virtual_station":false}},{"type":"Feature","geometry":{"type":"Point","coordinates":[18.17869,49.856242]},"properties":{"station_id":"14403393","name":"MTNV-Martinov - náměstí","short_name":"45338","is_virtual_station":false}},{"type":"Feature","geometry":{"type":"Point","coordinates":[18.169237,49.858876]},"properties":{"station_id":"14403409","name":"MTNV-Martinov - U Hůry","short_name":"45340","is_virtual_station":false}},{"type":"Feature","geometry":{"type":"Point","coordinates":[18.182375,49.819971]},"properties":{"station_id":"14403424","name":"P-Kofola","short_name":"45342","is_virtual_station":false}},{"type":"Feature","geometry":{"type":"Point","coordinates":[18.279195,49.774278]},"properties":{"station_id":"14403537","name":"HR-Domovská, kostelík","short_name":"45347","is_virtual_station":false}},{"type":"Feature","geometry":{"type":"Point","coordinates":[18.168774,49.837808]},"properties":{"station_id":"14403570","name":"P-Slavíkova - Lidl","short_name":"45348","is_virtual_station":false}},{"type":"Feature","geometry":{"type":"Point","coordinates":[18.190987,49.82411]},"properties":{"station_id":"27578638","name":"P-Ukrajinská","short_name":"45030","is_virtual_station":false}},{"type":"Feature","geometry":{"type":"Point","coordinates":[18.12143,49.84091]},"properties":{"station_id":"27578888","name":"KP - základní škola","short_name":"45033","is_virtual_station":false}},{"type":"Feature","geometry":{"type":"Point","coordinates":[18.123392,49.845266]},"properties":{"station_id":"27578902","name":"KP-Radnice Krásné Pole","short_name":"45034","is_virtual_station":false}},{"type":"Feature","geometry":{"type":"Point","coordinates":[18.12511,49.84889]},"properties":{"station_id":"27578912","name":"KP - hřbitov","short_name":"45035","is_virtual_station":false}},{"type":"Feature","geometry":{"type":"Point","coordinates":[18.271562,49.840291]},"properties":{"station_id":"27578940","name":"MOAP-Hornopolní - pivovar","short_name":"46038","is_virtual_station":false}},{"type":"Feature","geometry":{"type":"Point","coordinates":[18.270436,49.829906]},"properties":{"station_id":"27578952","name":"MOAP-Krajský úřad","short_name":"45038","is_virtual_station":false}},{"type":"Feature","geometry":{"type":"Point","coordinates":[18.271833,49.80075]},"properties":{"station_id":"27578978","name":"VIT-Kolonie Jeremenko","short_name":"45040","is_virtual_station":false}},{"type":"Feature","geometry":{"type":"Point","coordinates":[18.16847,49.840964]},"properties":{"station_id":"27579052","name":"PUS-Pustkovec - kostel","short_name":"45041","is_virtual_station":false}},{"type":"Feature","geometry":{"type":"Point","coordinates":[18.314506,49.905206]},"properties":{"station_id":"27579078","name":"SL-Antošovická - hasiči","short_name":"45042","is_virtual_station":false}},{"type":"Feature","geometry":{"type":"Point","coordinates":[18.313852,49.899196]},"properties":{"station_id":"27579108","name":"SL - Antošovická - U štěrkovny","short_name":"45043","is_virtual_station":false}},{"type":"Feature","geometry":{"type":"Point","coordinates":[18.289139,49.883871]},"properties":{"station_id":"27579134","name":"SL-Antošovická - U Nové šachty","short_name":"45044","is_virtual_station":false}},{"type":"Feature","geometry":{"type":"Point","coordinates":[18.329289,49.859519]},"properties":{"station_id":"27579136","name":"HER-KD Heřmanice","short_name":"45045","is_virtual_station":false}},{"type":"Feature","geometry":{"type":"Point","coordinates":[18.331129,49.854005]},"properties":{"station_id":"27579146","name":"HER-Na Strži","short_name":"45046","is_virtual_station":false}},{"type":"Feature","geometry":{"type":"Point","coordinates":[18.317599,49.824323]},"properties":{"station_id":"27579156","name":"SL-terminál Hranečník","short_name":"45047","is_virtual_station":false}},{"type":"Feature","geometry":{"type":"Point","coordinates":[18.146427,49.848036]},"properties":{"station_id":"27579168","name":"PLE-Globus - Ostrava","short_name":"45048","is_virtual_station":false}},{"type":"Feature","geometry":{"type":"Point","coordinates":[18.28815,49.791951]},"properties":{"station_id":"27579199","name":"SL-Kunčice - pošta","short_name":"45050","is_virtual_station":false}},{"type":"Feature","geometry":{"type":"Point","coordinates":[18.290352,49.790797]},"properties":{"station_id":"27579213","name":"SL-Kunčice - nádraží","short_name":"45051","is_virtual_station":false}},{"type":"Feature","geometry":{"type":"Point","coordinates":[18.216219,49.779307]},"properties":{"station_id":"27579218","name":"JIH-Charvátská, CDU","short_name":"45052","is_virtual_station":false}},{"type":"Feature","geometry":{"type":"Point","coordinates":[18.262221,49.780076]},"properties":{"station_id":"27579231","name":"JIH-Gymnázium, Krestova","short_name":"45053","is_virtual_station":false}},{"type":"Feature","geometry":{"type":"Point","coordinates":[18.245443,49.782962]},"properties":{"station_id":"27579244","name":"JIH-Dakota","short_name":"45054","is_virtual_station":false}},{"type":"Feature","geometry":{"type":"Point","coordinates":[18.251941,49.770918]},"properties":{"station_id":"27579334","name":"JIH-F. Formana","short_name":"45055","is_virtual_station":false}},{"type":"Feature","geometry":{"type":"Point","coordinates":[18.25707,49.777196]},"properties":{"station_id":"27579342","name":"JIH-ZŠ Václava Košaře","short_name":"45056","is_virtual_station":false}},{"type":"Feature","geometry":{"type":"Point","coordinates":[18.222758,49.780978]},"properties":{"station_id":"27579378","name":"JIH-Předškolní (U Racka)","short_name":"45058","is_virtual_station":false}},{"type":"Feature","geometry":{"type":"Point","coordinates":[18.232917,49.794466]},"properties":{"station_id":"27579394","name":"JIH-Zábřeh vodárna","short_name":"45059","is_virtual_station":false}},{"type":"Feature","geometry":{"type":"Point","coordinates":[18.232775,49.799916]},"properties":{"station_id":"27579524","name":"JIH-Obchodní centrum","short_name":"45061","is_virtual_station":false}},{"type":"Feature","geometry":{"type":"Point","coordinates":[18.246274,49.770094]},"properties":{"station_id":"27579539","name":"JIH-Terminál Dubina","short_name":"45062","is_virtual_station":false}},{"type":"Feature","geometry":{"type":"Point","coordinates":[18.261436,49.794333]},"properties":{"station_id":"27579548","name":"JIH-Jubilejní sever","short_name":"45063","is_virtual_station":false}},{"type":"Feature","geometry":{"type":"Point","coordinates":[18.188289,49.833596]},"properties":{"station_id":"27579659","name":"P-Sokolovská - Třebovice","short_name":"45072","is_virtual_station":false}},{"type":"Feature","geometry":{"type":"Point","coordinates":[18.233296,49.823837]},"properties":{"station_id":"27579698","name":"NV-U Vodárny","short_name":"45074","is_virtual_station":false}},{"type":"Feature","geometry":{"type":"Point","coordinates":[18.223286,49.822202]},"properties":{"station_id":"27579706","name":"NV-U Boříka","short_name":"45075","is_virtual_station":false}},{"type":"Feature","geometry":{"type":"Point","coordinates":[18.220558,49.816162]},"properties":{"station_id":"27579716","name":"NV-Paličkova","short_name":"45076","is_virtual_station":false}},{"type":"Feature","geometry":{"type":"Point","coordinates":[18.22706,49.827388]},"properties":{"station_id":"27579719","name":"NV-Na Lánech","short_name":"45077","is_virtual_station":false}},{"type":"Feature","geometry":{"type":"Point","coordinates":[18.227683,49.812502]},"properties":{"station_id":"27579726","name":"NV-Školní statek","short_name":"45078","is_virtual_station":false}},{"type":"Feature","geometry":{"type":"Point","coordinates":[18.151506,49.852016]},"properties":{"station_id":"27579803","name":"PLES-Plesná - hřiště","short_name":"45081","is_virtual_station":false}},{"type":"Feature","geometry":{"type":"Point","coordinates":[18.229962,49.833472]},"properties":{"station_id":"27579895","name":"MAR-Chemická - točna","short_name":"45090","is_virtual_station":false}},{"type":"Feature","geometry":{"type":"Point","coordinates":[18.302087,49.837412]},"properties":{"station_id":"27579909","name":"SL-Restaurace Stará kuželna","short_name":"45091","is_virtual_station":false}},{"type":"Feature","geometry":{"type":"Point","coordinates":[18.197824,49.826756]},"properties":{"station_id":"27579914","name":"P-Sjízdná x Opavská (+15 minut na odjezd)","short_name":"45092","is_virtual_station":false}},{"type":"Feature","geometry":{"type":"Point","coordinates":[18.22812,49.82481]},"properties":{"station_id":"27579933","name":"NV-radnice Nová Ves","short_name":"45095","is_virtual_station":false}},{"type":"Feature","geometry":{"type":"Point","coordinates":[18.25704,49.787069]},"properties":{"station_id":"27579943","name":"JIH-náměstí Horní - Ostrava Jih","short_name":"45096","is_virtual_station":false}},{"type":"Feature","geometry":{"type":"Point","coordinates":[18.14729,49.86224]},"properties":{"station_id":"27579950","name":"PLES-Plesná centrum","short_name":"45097","is_virtual_station":false}},{"type":"Feature","geometry":{"type":"Point","coordinates":[18.113472,49.833863]},"properties":{"station_id":"27579962","name":"KP - tramvajová zastávka","short_name":"45099","is_virtual_station":false}},{"type":"Feature","geometry":{"type":"Point","coordinates":[18.261124,49.857124]},"properties":{"station_id":"27582509","name":"MOAP-OZO Ostrava","short_name":"46033","capacity":10,"is_virtual_station":false}},{"type":"Feature","geometry":{"type":"Point","coordinates":[18.265141,49.773738]},"properties":{"station_id":"27582554","name":"HR-Tesco Hrabová","short_name":"46041","is_virtual_station":false}},{"type":"Feature","geometry":{"type":"Point","coordinates":[18.297075,49.771884]},"properties":{"station_id":"27582569","name":"HR-Mostní x Frýdecká","short_name":"46042","is_virtual_station":false}},{"type":"Feature","geometry":{"type":"Point","coordinates":[18.161503,49.84432]},"properties":{"station_id":"27582938","name":"P - Sídliště Oty Synka","short_name":"46083","capacity":5,"is_virtual_station":false}},{"type":"Feature","geometry":{"type":"Point","coordinates":[18.198031,49.754706]},"properties":{"station_id":"27582944","name":"PROS–víceúčelové hřiště","short_name":"46084","capacity":10,"is_virtual_station":false}},{"type":"Feature","geometry":{"type":"Point","coordinates":[18.150127,49.830777]},"properties":{"station_id":"27583397","name":"P-Myslivna","short_name":"46132","is_virtual_station":false}},{"type":"Feature","geometry":{"type":"Point","coordinates":[18.252519,49.82738]},"properties":{"station_id":"27604130","name":"MAR-Stanice Portáš","short_name":"46188","is_virtual_station":false}},{"type":"Feature","geometry":{"type":"Point","coordinates":[18.263818,49.819396]},"properties":{"station_id":"27604638","name":"MAR-Fitpark","short_name":"46259","is_virtual_station":false}},{"type":"Feature","geometry":{"type":"Point","coordinates":[18.284924,49.841585]},"properties":{"station_id":"28402114","name":"MOAP-Ostrčilova","short_name":"46636","is_virtual_station":false}},{"type":"Feature","geometry":{"type":"Point","coordinates":[18.282614,49.848754]},"properties":{"station_id":"30920811","name":"MOAP-Vozovna trolejbusů","short_name":"46688","is_virtual_station":false}},{"type":"Feature","geometry":{"type":"Point","coordinates":[18.289812,49.839782]},"properties":{"station_id":"34071102","name":"MOAP-Českobratrská","short_name":"46800","is_virtual_station":false}},{"type":"Feature","geometry":{"type":"Point","coordinates":[18.23119,49.801061]},"properties":{"station_id":"34572433","name":"JIH-AVION hlavní vchod","short_name":"46798","is_virtual_station":false}},{"type":"Feature","geometry":{"type":"Point","coordinates":[18.227067,49.799194]},"properties":{"station_id":"34572586","name":"JIH-IKEA","short_name":"46797","is_virtual_station":false}},{"type":"Feature","geometry":{"type":"Point","coordinates":[18.267273,49.832389]},"properties":{"station_id":"36120657","name":"MOAP-Parkáč","short_name":"46796","is_virtual_station":false}},{"type":"Feature","geometry":{"type":"Point","coordinates":[18.26528,49.7875]},"properties":{"station_id":"36876021","name":"JIH-Klegova - Hruška","short_name":"46795","is_virtual_station":false}},{"type":"Feature","geometry":{"type":"Point","coordinates":[18.259231,49.875392]},"properties":{"station_id":"41111358","name":"PET-Petřkovice náměstí","short_name":"46794","is_virtual_station":false}},{"type":"Feature","geometry":{"type":"Point","coordinates":[18.25569,49.866779]},"properties":{"station_id":"41111379","name":"PET-Pod Landekem","short_name":"46793","is_virtual_station":false}},{"type":"Feature","geometry":{"type":"Point","coordinates":[18.205513,49.763238]},"properties":{"station_id":"41111386","name":"STB-U Matěje","short_name":"46792","is_virtual_station":false}},{"type":"Feature","geometry":{"type":"Point","coordinates":[18.205531,49.768676]},"properties":{"station_id":"41111404","name":"STB-Jízdárna","short_name":"46791","is_virtual_station":false}},{"type":"Feature","geometry":{"type":"Point","coordinates":[18.217233,49.763444]},"properties":{"station_id":"41111415","name":"STB-U Lípy","short_name":"46790","is_virtual_station":false}},{"type":"Feature","geometry":{"type":"Point","coordinates":[18.193211,49.773711]},"properties":{"station_id":"41111420","name":"STB-Na Honculi","short_name":"46789","is_virtual_station":false}},{"type":"Feature","geometry":{"type":"Point","coordinates":[18.226557,49.761527]},"properties":{"station_id":"41111439","name":"STB-Potoky","short_name":"46788","is_virtual_station":false}},{"type":"Feature","geometry":{"type":"Point","coordinates":[18.236654,49.763001]},"properties":{"station_id":"41111450","name":"SB-Kostel","short_name":"46787","is_virtual_station":false}},{"type":"Feature","geometry":{"type":"Point","coordinates":[18.249958,49.755342]},"properties":{"station_id":"41111463","name":"NB-Parkoviště Krmelínská","short_name":"46786","is_virtual_station":false}},{"type":"Feature","geometry":{"type":"Point","coordinates":[18.25422,49.753424]},"properties":{"station_id":"41111471","name":"NB-radnice Nová Bělá","short_name":"46785","is_virtual_station":false}},{"type":"Feature","geometry":{"type":"Point","coordinates":[18.271412,49.746269]},"properties":{"station_id":"41111486","name":"NB-Mitrovice","short_name":"46784","is_virtual_station":false}},{"type":"Feature","geometry":{"type":"Point","coordinates":[18.232946,49.861975]},"properties":{"station_id":"41111524","name":"LHOT-Stará čtvrť","short_name":"46783","is_virtual_station":false}},{"type":"Feature","geometry":{"type":"Point","coordinates":[18.337402,49.834465]},"properties":{"station_id":"41111538","name":"SL-Lechova","short_name":"46781","is_virtual_station":false}},{"type":"Feature","geometry":{"type":"Point","coordinates":[18.345079,49.841937]},"properties":{"station_id":"41111546","name":"MICH-Michalské náměstí","short_name":"46780","is_virtual_station":false}},{"type":"Feature","geometry":{"type":"Point","coordinates":[18.350165,49.843242]},"properties":{"station_id":"41111553","name":"MICH-U Kříže","short_name":"46779","is_virtual_station":false}},{"type":"Feature","geometry":{"type":"Point","coordinates":[18.343998,49.846216]},"properties":{"station_id":"41111558","name":"MICH-Košická","short_name":"46778","is_virtual_station":false}},{"type":"Feature","geometry":{"type":"Point","coordinates":[18.336034,49.843147]},"properties":{"station_id":"41111567","name":"MICH-Františka Davida","short_name":"46777","is_virtual_station":false}},{"type":"Feature","geometry":{"type":"Point","coordinates":[18.358384,49.796671]},"properties":{"station_id":"41111571","name":"RAD-Ozdravné centrum Ještěrka","short_name":"46776","is_virtual_station":false}},{"type":"Feature","geometry":{"type":"Point","coordinates":[18.34925,49.801243]},"properties":{"station_id":"41111583","name":"RAD-Bartovická","short_name":"48775","is_virtual_station":false}},{"type":"Feature","geometry":{"type":"Point","coordinates":[18.347278,49.79]},"properties":{"station_id":"41111598","name":"RAD-U Statku","short_name":"46775","is_virtual_station":false}},{"type":"Feature","geometry":{"type":"Point","coordinates":[18.345443,49.776695]},"properties":{"station_id":"41111606","name":"RAD-U Důlňáku, Na Pasekách","short_name":"46774","is_virtual_station":false}},{"type":"Feature","geometry":{"type":"Point","coordinates":[18.341119,49.817507]},"properties":{"station_id":"41111625","name":"RAD-Radvanická, Čapkova","short_name":"46772","is_virtual_station":false}},{"type":"Feature","geometry":{"type":"Point","coordinates":[18.363847,49.815197]},"properties":{"station_id":"41111635","name":"RAD-Na Svahu","short_name":"46771","is_virtual_station":false}},{"type":"Feature","geometry":{"type":"Point","coordinates":[18.335754,49.815571]},"properties":{"station_id":"41111642","name":"RAD-Vrchlického","short_name":"46770","is_virtual_station":false}},{"type":"Feature","geometry":{"type":"Point","coordinates":[18.338694,49.819028]},"properties":{"station_id":"41111664","name":"RAD-Koupark","short_name":"46769","is_virtual_station":false}},{"type":"Feature","geometry":{"type":"Point","coordinates":[18.184324,49.779064]},"properties":{"station_id":"41111688","name":"PNO-U Machů","short_name":"46768","is_virtual_station":false}},{"type":"Feature","geometry":{"type":"Point","coordinates":[18.169814,49.777216]},"properties":{"station_id":"41111700","name":"PNO-Dělnický dům","short_name":"46767","is_virtual_station":false}},{"type":"Feature","geometry":{"type":"Point","coordinates":[18.162976,49.787507]},"properties":{"station_id":"41111714","name":"PNO-Hruška, 1. května","short_name":"46766","is_virtual_station":false}},{"type":"Feature","geometry":{"type":"Point","coordinates":[18.16873,49.791291]},"properties":{"station_id":"41111726","name":"PNO-sportovní hala Polanka","short_name":"46765","is_virtual_station":false}},{"type":"Feature","geometry":{"type":"Point","coordinates":[18.168738,49.805678]},"properties":{"station_id":"41111735","name":"PNO-zastávka Janová","short_name":"46764","is_virtual_station":false}},{"type":"Feature","geometry":{"type":"Point","coordinates":[18.161794,49.803118]},"properties":{"station_id":"41111744","name":"PNO-dětské hřiště, Janová","short_name":"46763","is_virtual_station":false}},{"type":"Feature","geometry":{"type":"Point","coordinates":[18.118921,49.840287]},"properties":{"station_id":"41111761","name":"KP - sportovní hala","short_name":"46762","is_virtual_station":false}},{"type":"Feature","geometry":{"type":"Point","coordinates":[18.186668,49.822942]},"properties":{"station_id":"41208801","name":"P-Kubánská","short_name":"46761","is_virtual_station":false}},{"type":"Feature","geometry":{"type":"Point","coordinates":[18.177438,49.83575]},"properties":{"station_id":"41208888","name":"P-Sokolovská","short_name":"46760","is_virtual_station":false}},{"type":"Feature","geometry":{"type":"Point","coordinates":[18.173543,49.833621]},"properties":{"station_id":"41208889","name":"P-Opavská","short_name":"46759","is_virtual_station":false}},{"type":"Feature","geometry":{"type":"Point","coordinates":[18.159098,49.848859]},"properties":{"station_id":"41208893","name":"P-Oty Synka","short_name":"46758","is_virtual_station":false}},{"type":"Feature","geometry":{"type":"Point","coordinates":[18.201678,49.818073]},"properties":{"station_id":"42906290","name":"SV-ZŠ Bílovecká 10","short_name":"46742","is_virtual_station":false}},{"type":"Feature","geometry":{"type":"Point","coordinates":[18.188495,49.819457]},"properties":{"station_id":"42906317","name":"SV-E. Rošického","short_name":"46741","is_virtual_station":false}},{"type":"Feature","geometry":{"type":"Point","coordinates":[18.29583,49.834799]},"properties":{"station_id":"43377637","name":"MOAP-Farská zahrada","short_name":"46740","is_virtual_station":false}},{"type":"Feature","geometry":{"type":"Point","coordinates":[18.199289,49.751214]},"properties":{"station_id":"43459138","name":"PROS-točna autobusů","short_name":"46739","is_virtual_station":false}},{"type":"Feature","geometry":{"type":"Point","coordinates":[18.192918,49.748763]},"properties":{"station_id":"43459155","name":"PROS-Kuňkaliště","short_name":"46738","is_virtual_station":false}},{"type":"Feature","geometry":{"type":"Point","coordinates":[18.202417,49.749507]},"properties":{"station_id":"43459169","name":"PROS-Sokolovna","short_name":"46737","is_virtual_station":false}},{"type":"Feature","geometry":{"type":"Point","coordinates":[18.272061,49.817992]},"properties":{"station_id":"44802908","name":"VIT-Třinecké železárny - u zámku","short_name":"48010","is_virtual_station":false}},{"type":"Feature","geometry":{"type":"Point","coordinates":[18.281093,49.821349]},"properties":{"station_id":"45120932","name":"VIT-Zemědělské muzeum","short_name":"48776","is_virtual_station":false}},{"type":"Feature","geometry":{"type":"Point","coordinates":[18.189416,49.816431]},"properties":{"station_id":"45667441","name":"SV- V Závětří","short_name":"48434","is_virtual_station":false}},{"type":"Feature","geometry":{"type":"Point","coordinates":[18.29015,49.84103]},"properties":{"station_id":"47320754","name":"MOAP-Prokešovo náměstí u kavárny","short_name":"46394","is_virtual_station":false}},{"type":"Feature","geometry":{"type":"Point","coordinates":[18.210516,49.823789]},"properties":{"station_id":"49120793","name":"SV-Svinov – mosty","short_name":"48777","is_virtual_station":false}},{"type":"Feature","geometry":{"type":"Point","coordinates":[18.17554,49.824519]},"properties":{"station_id":"51775920","name":"P-KD Harmonie","short_name":"49589","is_virtual_station":false}},{"type":"Feature","geometry":{"type":"Point","coordinates":[18.17804,49.828423]},"properties":{"station_id":"51775970","name":"P-Nezvalovo náměstí","short_name":"49590","is_virtual_station":false}},{"type":"Feature","geometry":{"type":"Point","coordinates":[18.167035,49.827471]},"properties":{"station_id":"57001927","name":"P- Dům kultury Poklad","short_name":"46126","is_virtual_station":false}},{"type":"Feature","geometry":{"type":"Point","coordinates":[18.171856,49.824511]},"properties":{"station_id":"57431076","name":"P-Gymnázium P. Tigrida","short_name":"49592","is_virtual_station":false}},{"type":"Feature","geometry":{"type":"Point","coordinates":[18.171536,49.845691]},"properties":{"station_id":"59534039","name":"P-Knihovna Podroužkova","short_name":"49593","is_virtual_station":false}},{"type":"Feature","geometry":{"type":"Point","coordinates":[18.244932,49.83341]},"properties":{"station_id":"65270825","name":"MAR-Švermova","short_name":"49594","is_virtual_station":false}},{"type":"Feature","geometry":{"type":"Point","coordinates":[18.156764,49.817134]},"properties":{"station_id":"82371100","name":"P-Logistics Park","short_name":"49595","is_virtual_station":false}},{"type":"Feature","geometry":{"type":"Point","coordinates":[18.265777,49.860516]},"properties":{"station_id":"82374110","name":"MOAP-Parkoviště P+R u tramvajové smyčky Hlučínská","short_name":"49596","is_virtual_station":false}},{"type":"Feature","geometry":{"type":"Point","coordinates":[18.2947,49.8464]},"properties":{"station_id":"89805272","name":"SL - DPS Kamenec","short_name":"49597","is_virtual_station":false}},{"type":"Feature","geometry":{"type":"Point","coordinates":[18.289898,49.867501]},"properties":{"station_id":"93552941","name":"SL - Contera","short_name":"49598","is_virtual_station":false}},{"type":"Feature","geometry":{"type":"Point","coordinates":[18.304081,49.831768]},"properties":{"station_id":"94944321","name":"SL - Těšínská","short_name":"495999","is_virtual_station":false}},{"type":"Feature","geometry":{"type":"Point","coordinates":[18.278048,49.831563]},"properties":{"station_id":"102151652","name":"MOAP-Náměstí Republiky (točna trolejbusů)","short_name":"496000","is_virtual_station":false}},{"type":"Feature","geometry":{"type":"Point","coordinates":[18.28254,49.82943]},"properties":{"station_id":"103880791","name":"MOAP-nádraží Ostrava střed","short_name":"496001","is_virtual_station":false}},{"type":"Feature","geometry":{"type":"Point","coordinates":[18.292199,49.841805]},"properties":{"station_id":"108153541","name":"MOAP-Radniční restaurace","short_name":"496002","is_virtual_station":false}},{"type":"Feature","geometry":{"type":"Point","coordinates":[18.279838,49.850217]},"properties":{"station_id":"110159155","name":"MOAP - Sad B. Němcové, stanoviště 4","short_name":"496004","is_virtual_station":false}},{"type":"Feature","geometry":{"type":"Point","coordinates":[18.14612,49.784071]},"properties":{"station_id":"118098547","name":"PNO-1. května-konečná MHD","short_name":"496005","is_virtual_station":false}},{"type":"Feature","geometry":{"type":"Point","coordinates":[18.15871,49.783238]},"properties":{"station_id":"118099106","name":"PNO-K Vydralinám (u kontejnerového stání)","short_name":"496006","is_virtual_station":false}},{"type":"Feature","geometry":{"type":"Point","coordinates":[18.22898,49.791539]},"properties":{"station_id":"122695989","name":"JIH-OC Kotva","short_name":"496007","is_virtual_station":false}},{"type":"Feature","geometry":{"type":"Point","coordinates":[18.319365,49.849628]},"properties":{"station_id":"133204106","name":"SL- ZŠ Chrustova","short_name":"496008","is_virtual_station":false}},{"type":"Feature","geometry":{"type":"Point","coordinates":[18.292348,49.831052]},"properties":{"station_id":"147547004","name":"MOAP-City Campus","short_name":"496009","is_virtual_station":false}},{"type":"Feature","geometry":{"type":"Point","coordinates":[18.27609,49.85529]},"properties":{"station_id":"150512151","name":"MOAP - OC Koksovna","short_name":"496010","is_virtual_station":false}},{"type":"Feature","geometry":{"type":"Point","coordinates":[18.229719,49.787758]},"properties":{"station_id":"154591373","name":"JIH - Kosmonautů (základní škola)","short_name":"496011","is_virtual_station":false}},{"type":"Feature","geometry":{"type":"Point","coordinates":[18.226061,49.786931]},"properties":{"station_id":"168301491","name":"JIH - MŠ Patrice Lumumby","short_name":"496012","is_virtual_station":false}},{"type":"Feature","geometry":{"type":"Point","coordinates":[18.221329,49.784974]},"properties":{"station_id":"171037106","name":"JIH - Řízkárna u Orla","short_name":"496014","is_virtual_station":false}},{"type":"Feature","geometry":{"type":"Point","coordinates":[18.25665,49.78338]},"properties":{"station_id":"171037827","name":"JIH - Josefa Kotase","short_name":"496015","is_virtual_station":false}},{"type":"Feature","geometry":{"type":"Point","coordinates":[18.253154,49.791319]},"properties":{"station_id":"176071655","name":"JIH - Odborářská","short_name":"496016","is_virtual_station":false}},{"type":"Feature","geometry":{"type":"Point","coordinates":[18.257172,49.788208]},"properties":{"station_id":"176105805","name":"JIH - Dr. Lukášové","short_name":"496017","is_virtual_station":false}},{"type":"Feature","geometry":{"type":"Point","coordinates":[18.212949,49.817978]},"properties":{"station_id":"176888761","name":"NV - PPL Depo","short_name":"496019","is_virtual_station":false}},{"type":"Feature","geometry":{"type":"Point","coordinates":[18.25349,49.782589]},"properties":{"station_id":"178991439","name":"JIH - Jiřího Herolda","short_name":"496020","is_virtual_station":false}},{"type":"Feature","geometry":{"type":"Point","coordinates":[18.249734,49.792324]},"properties":{"station_id":"180055071","name":"JIH - Horní","short_name":"496021","is_virtual_station":false}},{"type":"Feature","geometry":{"type":"Point","coordinates":[18.247235,49.789975]},"properties":{"station_id":"180193416","name":"JIH - U Lesa","short_name":"496022","is_virtual_station":false}},{"type":"Feature","geometry":{"type":"Point","coordinates":[18.222557,49.787648]},"properties":{"station_id":"180715445","name":"JIH - Volgogradská (Hruška)","short_name":"496023","is_virtual_station":false}},{"type":"Feature","geometry":{"type":"Point","coordinates":[18.234302,49.789763]},"properties":{"station_id":"183173603","name":"JIH - Svazácká 2","short_name":"496024","is_virtual_station":false}},{"type":"Feature","geometry":{"type":"Point","coordinates":[18.25318,49.77265]},"properties":{"station_id":"183174860","name":"JIH - Václava Jiřikovského","short_name":"496025","is_virtual_station":false}},{"type":"Feature","geometry":{"type":"Point","coordinates":[18.239085,49.808734]},"properties":{"station_id":"186561280","name":"JIH - Dolní","short_name":"496027","is_virtual_station":false}},{"type":"Feature","geometry":{"type":"Point","coordinates":[18.248216,49.795924]},"properties":{"station_id":"191150222","name":"JIH - Pavlova/Plzeňská podchod","short_name":"496028","is_virtual_station":false}},{"type":"Feature","geometry":{"type":"Point","coordinates":[18.248573,49.780964]},"properties":{"station_id":"196736653","name":"JIH - Bohumíra Dvorského","short_name":"496029","is_virtual_station":false}},{"type":"Feature","geometry":{"type":"Point","coordinates":[18.266631,49.785856]},"properties":{"station_id":"198706541","name":"JIH - Dr. Martínka","short_name":"496030","is_virtual_station":false}},{"type":"Feature","geometry":{"type":"Point","coordinates":[18.235433,49.805356]},"properties":{"station_id":"202413903","name":"JIH - Horymírova","short_name":"496039","is_virtual_station":false}},{"type":"Feature","geometry":{"type":"Point","coordinates":[18.228491,49.80555]},"properties":{"station_id":"202414259","name":"JIH - Markova","short_name":"496040","is_virtual_station":false}},{"type":"Feature","geometry":{"type":"Point","coordinates":[18.251703,49.775403]},"properties":{"station_id":"206332437","name":"JIH - Emanuela Podgorného","short_name":"496041","is_virtual_station":false}},{"type":"Feature","geometry":{"type":"Point","coordinates":[18.226249,49.783376]},"properties":{"station_id":"208607121","name":"JIH - Staňkova - Restaurace","short_name":"496042","is_virtual_station":false}},{"type":"Feature","geometry":{"type":"Point","coordinates":[18.213168,49.783706]},"properties":{"station_id":"208608441","name":"JIH - K Odře","short_name":"496043","is_virtual_station":false}},{"type":"Feature","geometry":{"type":"Point","coordinates":[18.222967,49.792262]},"properties":{"station_id":"208624999","name":"JIH - Volgogradká - Korýtko","short_name":"496044","is_virtual_station":false}},{"type":"Feature","geometry":{"type":"Point","coordinates":[18.258027,49.792788]},"properties":{"station_id":"217178663","name":"JIH - ul. Zlepšovatelů","short_name":"496045","is_virtual_station":false}},{"type":"Feature","geometry":{"type":"Point","coordinates":[18.240051,49.804878]},"properties":{"station_id":"223641925","name":"JIH - Karpatská","short_name":"496046","capacity":4,"is_virtual_station":false}},{"type":"Feature","geometry":{"type":"Point","coordinates":[18.257326,49.780231]},"properties":{"station_id":"237156620","name":"JIH - Alberta Kučery","short_name":"496047","capacity":4,"is_virtual_station":false}},{"type":"Feature","geometry":{"type":"Point","coordinates":[18.163286,49.859404]},"properties":{"station_id":"243554603","name":"PLES - Na Žižkově","short_name":"496048","capacity":4,"is_virtual_station":false}},{"type":"Feature","geometry":{"type":"Point","coordinates":[18.23397,49.809396]},"properties":{"station_id":"246207401","name":"JIH - Zimmlerova","short_name":"496049","capacity":2,"is_virtual_station":false}},{"type":"Feature","geometry":{"type":"Point","coordinates":[18.22686,49.77867]},"properties":{"station_id":"254726408","name":"JIH - knihovna Výškovice","short_name":"496050","capacity":2,"is_virtual_station":false}},{"type":"Feature","geometry":{"type":"Point","coordinates":[18.249892,49.805392]},"properties":{"station_id":"254736359","name":"JIH - Sport Arena","short_name":"496051","capacity":2,"is_virtual_station":false}},{"type":"Feature","geometry":{"type":"Point","coordinates":[18.235976,49.806738]},"properties":{"station_id":"260333870","name":"JIH - Břenkova","short_name":"496052","capacity":2,"is_virtual_station":false}},{"type":"Feature","geometry":{"type":"Point","coordinates":[18.265604,49.794027]},"properties":{"station_id":"267246328","name":"JIH - Závodní","short_name":"496053","is_virtual_station":false}},{"type":"Feature","geometry":{"type":"Point","coordinates":[18.265674,49.78096]},"properties":{"station_id":"276117558","name":"JIH - Krestova","short_name":"496054","capacity":2,"is_virtual_station":false}},{"type":"Feature","geometry":{"type":"Point","coordinates":[18.219035,49.783019]},"properties":{"station_id":"297884179","name":"JIH - Šeříková","short_name":"496055","capacity":2,"is_virtual_station":false}},{"type":"Feature","geometry":{"type":"Point","coordinates":[18.25124,49.78205]},"properties":{"station_id":"320919074","name":"JIH-Vlasty Vlasákové","short_name":"47274","capacity":4,"is_virtual_station":false}},{"type":"Feature","geometry":{"type":"Point","coordinates":[18.292934,49.831972]},"properties":{"station_id":"368565708","name":"MOAP- Fakulta umění","short_name":"46639","capacity":4,"is_virtual_station":false}},{"type":"Feature","geometry":{"type":"Point","coordinates":[18.27118,49.79175]},"properties":{"station_id":"391522877","name":"JIH-Dřevoprodej","short_name":"47273","capacity":4,"is_virtual_station":false}},{"type":"Feature","geometry":{"type":"Point","coordinates":[18.26028,49.78018]},"properties":{"station_id":"391523607","name":"JIH-Fr. Hajdy","short_name":"47272","capacity":4,"is_virtual_station":false}},{"type":"Feature","geometry":{"type":"Point","coordinates":[18.26214,49.77733]},"properties":{"station_id":"391524215","name":"JIH-Jana Maluchy","short_name":"47271","capacity":4,"is_virtual_station":false}},{"type":"Feature","geometry":{"type":"Point","coordinates":[18.2433,49.8035]},"properties":{"station_id":"391524741","name":"JIH- Jugoslávská LIDL","short_name":"47270","capacity":4,"is_virtual_station":false}},{"type":"Feature","geometry":{"type":"Point","coordinates":[18.17951,49.82025]},"properties":{"station_id":"394367680","name":"P-Hangar Ostrava","short_name":"47269","capacity":4,"is_virtual_station":false}},{"type":"Feature","geometry":{"type":"Point","coordinates":[18.223365,49.783018]},"properties":{"station_id":"401007087","name":"JIH - Výškovická","short_name":"47275","capacity":4,"is_virtual_station":false}},{"type":"Feature","geometry":{"type":"Point","coordinates":[18.251669,49.807816]},"properties":{"station_id":"402739616","name":"VIT-Ředitelství Vítkovic","short_name":"46689","capacity":20,"is_virtual_station":false}},{"type":"Feature","geometry":{"type":"Point","coordinates":[18.284134,49.845802]},"properties":{"station_id":"404529764","name":"MOAP - Slavíčkova","short_name":"49352","capacity":2,"is_virtual_station":false}},{"type":"Feature","geometry":{"type":"Point","coordinates":[18.258285,49.816324]},"properties":{"station_id":"448747666","name":"Vítkovice Steel 2 (+30 min zdarma na příjezd i odjezd)","short_name":"496058","is_virtual_station":false}},{"type":"Feature","geometry":{"type":"Point","coordinates":[18.23889,49.82011]},"properties":{"station_id":"448747697","name":"Vítkovice Steel 1 (+30 min zdarma na příjezd i odjezd)","short_name":"496057","is_virtual_station":false}},{"type":"Feature","geometry":{"type":"Point","coordinates":[18.306175,49.851444]},"properties":{"station_id":"517934155","name":"SL - Podolí","short_name":"496026","is_virtual_station":false}},{"type":"Feature","geometry":{"type":"Point","coordinates":[18.318058,49.836083]},"properties":{"station_id":"518280747","name":"SL-Důl Cingr","short_name":"46648","capacity":4,"is_virtual_station":false}},{"type":"Feature","geometry":{"type":"Point","coordinates":[18.319911,49.830837]},"properties":{"station_id":"518281042","name":"SL - Zvěřina","short_name":"46649","capacity":4,"is_virtual_station":false}},{"type":"Feature","geometry":{"type":"Point","coordinates":[18.207022,49.774934]},"properties":{"station_id":"520911330","name":"JIH - Rybníky Pod Hurou","short_name":"46807","capacity":5,"is_virtual_station":false}},{"type":"Feature","geometry":{"type":"Point","coordinates":[18.19798,49.82606]},"properties":{"station_id":"522520101","name":"SV - Sjízdná, Lidl","short_name":"46808","capacity":4,"is_virtual_station":false}},{"type":"Feature","geometry":{"type":"Point","coordinates":[18.227718,49.803178]},"properties":{"station_id":"524484661","name":"JIH - AVION, vstup od dětského hřiště","short_name":"46809","capacity":5,"is_virtual_station":false}},{"type":"Feature","geometry":{"type":"Point","coordinates":[18.24536,49.77521]},"properties":{"station_id":"524486145","name":"JIH-Lidl, Plzeňská","short_name":"46806","capacity":5,"is_virtual_station":false}},{"type":"Feature","geometry":{"type":"Point","coordinates":[18.24896,49.836034]},"properties":{"station_id":"524487052","name":"MAR-Kaufland, Grmelova","short_name":"46805","capacity":5,"is_virtual_station":false}},{"type":"Feature","geometry":{"type":"Point","coordinates":[18.293347,49.843245]},"properties":{"station_id":"529205794","name":"SL - U lávky","short_name":"49766","capacity":2,"is_virtual_station":false}},{"type":"Feature","geometry":{"type":"Point","coordinates":[18.201608,49.827128]},"properties":{"station_id":"529206336","name":"P-OC Shopland","short_name":"49767","capacity":2,"is_virtual_station":false}},{"type":"Feature","geometry":{"type":"Point","coordinates":[18.319983,49.850389]},"properties":{"station_id":"529206503","name":"SL-Sionkova","short_name":"49768","capacity":2,"is_virtual_station":false}},{"type":"Feature","geometry":{"type":"Point","coordinates":[18.17849,49.83919]},"properties":{"station_id":"529511559","name":"PUS-Pustkovecká","short_name":"49769","capacity":6,"is_virtual_station":false}},{"type":"Feature","geometry":{"type":"Point","coordinates":[18.25131,49.781275]},"properties":{"station_id":"534994697","name":"JIH-Vlasty Vlasákové 2","short_name":"48774","capacity":4,"is_virtual_station":false}},{"type":"Feature","geometry":{"type":"Point","coordinates":[18.23223,49.81072]},"properties":{"station_id":"534995813","name":"JIH-Chaloupeckého","short_name":"48773","capacity":4,"is_virtual_station":false}},{"type":"Feature","geometry":{"type":"Point","coordinates":[18.18487,49.81855]},"properties":{"station_id":"535884962","name":"SV - Lidl, Nad Porubkou","short_name":"49765","capacity":2,"is_virtual_station":false}},{"type":"Feature","geometry":{"type":"Point","coordinates":[18.160862,49.826079]},"properties":{"station_id":"535885256","name":"P-Domov sester","short_name":"49764","capacity":2,"is_virtual_station":false}},{"type":"Feature","geometry":{"type":"Point","coordinates":[18.16249,49.82762]},"properties":{"station_id":"535885350","name":"P-Fakultní nemocnice, bus","short_name":"49763","capacity":2,"is_virtual_station":false}},{"type":"Feature","geometry":{"type":"Point","coordinates":[18.17272,49.82836]},"properties":{"station_id":"535886261","name":"P-Hlavní třída - Rondl - Porubská","short_name":"49762","capacity":2,"is_virtual_station":false}},{"type":"Feature","geometry":{"type":"Point","coordinates":[18.25641,49.7971]},"properties":{"station_id":"542916820","name":"JIH-Bastlova/Mozartova","short_name":"49761","capacity":2,"is_virtual_station":false}},{"type":"Feature","geometry":{"type":"Point","coordinates":[18.23768,49.79514]},"properties":{"station_id":"542917428","name":"JIH-Rodimcevova/Abramovova","short_name":"49760","capacity":2,"is_virtual_station":false}},{"type":"Feature","geometry":{"type":"Point","coordinates":[18.274943,49.823659]},"properties":{"station_id":"548740045","name":"MOAP - TJ Unie Hlubina","short_name":"46036","is_virtual_station":false}},{"type":"Feature","geometry":{"type":"Point","coordinates":[18.1445,49.82353]},"properties":{"station_id":"574604743","name":"P-Vřesinská, parkoviště","short_name":"48772","capacity":4,"is_virtual_station":false}},{"type":"Feature","geometry":{"type":"Point","coordinates":[18.255155,49.810915]},"properties":{"station_id":"579143958","name":"VIT-PORG","short_name":"49774","is_virtual_station":false}},{"type":"Feature","geometry":{"type":"Point","coordinates":[18.17564,49.84621]},"properties":{"station_id":"580390533","name":"P-Na Robinsonce","short_name":"48771","capacity":4,"is_virtual_station":false}},{"type":"Feature","geometry":{"type":"Point","coordinates":[18.17877,49.83759]},"properties":{"station_id":"580390893","name":"P-ZŠ Karla Pokorného","short_name":"48770","capacity":4,"is_virtual_station":false}},{"type":"Feature","geometry":{"type":"Point","coordinates":[18.18825,49.82672]},"properties":{"station_id":"580391484","name":"P-Bulharská","short_name":"49775","capacity":4,"is_virtual_station":false}},{"type":"Feature","geometry":{"type":"Point","coordinates":[18.17943,49.8422]},"properties":{"station_id":"580842580","name":"P-Heyrovského","short_name":"49776","capacity":4,"is_virtual_station":false}},{"type":"Feature","geometry":{"type":"Point","coordinates":[18.1845,49.83781]},"properties":{"station_id":"581580943","name":"P-1. čs. armádního sboru","short_name":"49777","capacity":4,"is_virtual_station":false}},{"type":"Feature","geometry":{"type":"Point","coordinates":[18.26186,49.83998]},"properties":{"station_id":"581591382","name":"MOAP-Lechowiczova","short_name":"49778","capacity":4,"is_virtual_station":false}},{"type":"Feature","geometry":{"type":"Point","coordinates":[18.19517,49.82276]},"properties":{"station_id":"581595533","name":"P-Mongolská","short_name":"47999","is_virtual_station":false}},{"type":"Feature","geometry":{"type":"Point","coordinates":[18.18249,49.830678]},"properties":{"station_id":"608494936","name":"P-Concept House","short_name":"495998","is_virtual_station":false}},{"type":"Feature","geometry":{"type":"Point","coordinates":[18.18283,49.833696]},"properties":{"station_id":"613549044","name":"P-Krytý bazén - Gen. Sochora","short_name":"45247","is_virtual_station":false}},{"type":"Feature","geometry":{"type":"Point","coordinates":[18.24386,49.829415]},"properties":{"station_id":"616055687","name":"MAR-Novoveská/Sokola Tůmy","short_name":"496031","is_virtual_station":false}},{"type":"Feature","geometry":{"type":"Point","coordinates":[18.175876,49.842492]},"properties":{"station_id":"625608942","name":"JIH-ZŠ J.Šoupala 1609","short_name":"46733","is_virtual_station":false}},{"type":"Feature","geometry":{"type":"Point","coordinates":[18.24878,49.773779]},"properties":{"station_id":"626884507","name":"JIH-Dubina, sportovní hala","short_name":"45295","is_virtual_station":false}},{"type":"Feature","geometry":{"type":"Point","coordinates":[18.236237,49.80903]},"properties":{"station_id":"629582033","name":"Poznej Ostravu (Zimmlerova)","short_name":"495888","capacity":6,"is_virtual_station":false}},{"type":"Feature","geometry":{"type":"Point","coordinates":[18.234724,49.824612]},"properties":{"station_id":"639998777","name":"NV-U Vodárny II","short_name":"47990","is_virtual_station":false}},{"type":"Feature","geometry":{"type":"Point","coordinates":[18.187194,49.896444]},"properties":{"station_id":"27579593","name":"HLUČÍN- Mírové náměstí","short_name":"45065","is_virtual_station":false}},{"type":"Feature","geometry":{"type":"Point","coordinates":[18.193526,49.900809]},"properties":{"station_id":"27579613","name":"Hlučín - Vlakové nádraží","short_name":"45066","is_virtual_station":false}},{"type":"Feature","geometry":{"type":"Point","coordinates":[18.191889,49.903639]},"properties":{"station_id":"27579622","name":"Hlučín - OKD","short_name":"45067","is_virtual_station":false}},{"type":"Feature","geometry":{"type":"Point","coordinates":[18.194306,49.893778]},"properties":{"station_id":"27579629","name":"HLUČÍN– Rovniny","short_name":"45068","is_virtual_station":false}},{"type":"Feature","geometry":{"type":"Point","coordinates":[18.179031,49.891856]},"properties":{"station_id":"27579634","name":"HLUČÍN-Hlučínské jezero","short_name":"45069","is_virtual_station":false}},{"type":"Feature","geometry":{"type":"Point","coordinates":[18.203646,49.892722]},"properties":{"station_id":"42063925","name":"HLUČÍN-Staré rovniny - u vodárny","short_name":"46751","is_virtual_station":false}},{"type":"Feature","geometry":{"type":"Point","coordinates":[18.209944,49.873]},"properties":{"station_id":"42064102","name":"Hlučín - Bobrovníky Točna","short_name":"46750","is_virtual_station":false}},{"type":"Feature","geometry":{"type":"Point","coordinates":[18.202487,49.920327]},"properties":{"station_id":"42064506","name":"HLUČÍN-Darkovičky u školy","short_name":"46749","is_virtual_station":false}},{"type":"Feature","geometry":{"type":"Point","coordinates":[18.193381,49.890076]},"properties":{"station_id":"67261718","name":"HLUČÍN-Točna 34","short_name":"46955","is_virtual_station":false}},{"type":"Feature","geometry":{"type":"Point","coordinates":[18.20918,49.91959]},"properties":{"station_id":"375538582","name":"HLUČÍN - Darkovičky - fotbalové hřiště","short_name":"46954","is_virtual_station":false}},{"type":"Feature","geometry":{"type":"Point","coordinates":[18.20883,49.88793]},"properties":{"station_id":"375540400","name":"HLUČÍN - Staré Rovniny - u bývalé školky","short_name":"46953","is_virtual_station":false}},{"type":"Feature","geometry":{"type":"Point","coordinates":[18.18572,49.89743]},"properties":{"station_id":"521276945","name":"Autobusové nádraží Hlučín","short_name":"45064","is_virtual_station":false}},{"type":"Feature","geometry":{"type":"Point","coordinates":[18.240157,49.890702]},"properties":{"station_id":"200499903","name":"Ludgeřovice, kostel","short_name":"496033","is_virtual_station":false}},{"type":"Feature","geometry":{"type":"Point","coordinates":[18.249274,49.883312]},"properties":{"station_id":"200500028","name":"Ludgeřovice, hřiště","short_name":"496034","is_virtual_station":false}},{"type":"Feature","geometry":{"type":"Point","coordinates":[18.254031,49.878481]},"properties":{"station_id":"200500122","name":"Ludgeřovice, Motel Taxi","short_name":"496035","is_virtual_station":false}},{"type":"Feature","geometry":{"type":"Point","coordinates":[18.243692,49.881214]},"properties":{"station_id":"200500269","name":"Ludgeřovice, Vrablovecká/Lipová","short_name":"496036","is_virtual_station":false}},{"type":"Feature","geometry":{"type":"Point","coordinates":[18.223341,49.884535]},"properties":{"station_id":"200500426","name":"Ludgeřovice, Vrablovec","short_name":"496037","is_virtual_station":false}},{"type":"Feature","geometry":{"type":"Point","coordinates":[18.23647,49.89674]},"properties":{"station_id":"378552172","name":"Ludgeřovice, Markvartovická","short_name":"496038","is_virtual_station":false}}]}