{"type":"FeatureCollection","features":[{"type":"Feature","geometry":{"type":"Point","coordinates":[13.757208,49.2969]},"properties":{"sigla":"STG505","name":"Místní lidová knihovna Střelské Hoštice","TYP":"obecní knihovna","addr":"Střelské Hoštice 83","obec":"Střelské Hoštice","website":"https://knihovnastrelskehostice.estranky.cz/","opening_hours":"Mo 08:00-11:00,13:00-17:30; We 07:30-12:00,13:00-16:00; Th 07:30-12:00,13:00-14:30; Fr 08:00-12:00,13:00-16:00","AKT":"20250204"}},{"type":"Feature","geometry":{"type":"Point","coordinates":[13.931973,49.316211]},"properties":{"sigla":"STG506","name":"Místní lidová knihovna Radomyšl","TYP":"obecní knihovna","addr":"Maltézské nám. 82","obec":"Radomyšl","website":"https://www.radomysl.net/knihovna.php","opening_hours":"Mo 09:00-11:00; We 07:00-11:00,14:00-18:00; Fr 09:00-11:00","AKT":"20260722"}},{"type":"Feature","geometry":{"type":"Point","coordinates":[14.173894,49.160575]},"properties":{"sigla":"STC501","name":"Akademická knihovna Jihočeské univerzity v Českých Budějovicích","TYP":"vysokoškolská knihovna","addr":"Zátiší 728/II","obec":"Vodňany","website":"https://minas.jcu.cz/F/?&pds_handle=GUEST","opening_hours":"Tu 08:00-12:00,13:00-16:00; We 13:00-16:00; Th 08:00-12:00,13:00-16:00; Fr 08:00-12:00","AKT":"20260707"}},{"type":"Feature","geometry":{"type":"Point","coordinates":[13.906789,49.265567]},"properties":{"sigla":"STE201","name":"Nemocnice Strakonice, a.s.","TYP":"lékařská knihovna","addr":"Radomyšlská 336","obec":"Strakonice","website":"http://www.nemocnice-st.cz/index.php/zdravotnik/knihovna","AKT":"20260428"}},{"type":"Feature","geometry":{"type":"Point","coordinates":[13.902061,49.258458]},"properties":{"sigla":"STE301","name":"Muzeum středního Pootaví Strakonice","TYP":"knihovna kulturní instituce - muzeum","addr":"Zámek 1","obec":"Strakonice II","website":"https://muzeum-st.cz/","opening_hours":"Mo 13:00-15:00","AKT":"20250520"}},{"type":"Feature","geometry":{"type":"Point","coordinates":[13.902075,49.258481]},"properties":{"sigla":"STG001","name":"Šmidingerova knihovna Strakonice","TYP":"městská knihovna","addr":"Zámek 1","obec":"Strakonice","website":"https://katalog.knih-st.cz/","opening_hours":"Mo 08:00-18:00; We 08:00-18:00; Th 08:00-18:00; Fr 08:00-18:00; Sa 08:00-12:00","AKT":"20250730"}},{"type":"Feature","geometry":{"type":"Point","coordinates":[13.886519,49.1657]},"properties":{"sigla":"STG501","name":"Městská knihovna ve Volyni","TYP":"městská knihovna","addr":"náměstí Svobody 39","obec":"Volyně","website":"https://volyne.tritius.cz/","AKT":"20260519"}},{"type":"Feature","geometry":{"type":"Point","coordinates":[13.828239,49.274511]},"properties":{"sigla":"STG502","name":"Kolářova knihovna Katovice","TYP":"obecní knihovna","addr":"Husovo nám. 5","obec":"Katovice","website":"https://knihovnakatovice.cz/","opening_hours":"Mo 08:00-11:00,12:00-16:00; We 08:00-11:00,12:00-17:00; Th 08:00-11:00,12:00-15:00; Fr 08:00-11:00,12:00-15:00","AKT":"20260519"}},{"type":"Feature","geometry":{"type":"Point","coordinates":[13.881694,49.424544]},"properties":{"sigla":"STG503","name":"Městská knihovna Blatná","TYP":"městská knihovna","addr":"nám. Míru 212","obec":"Blatná","website":"https://blatna.tritius.cz/","opening_hours":"Mo 09:00-12:00,13:00-18:00; We 09:00-12:00,13:00-18:00; Th 09:00-12:00,13:00-18:00; Fr 12:00-16:00","AKT":"20260521"}},{"type":"Feature","geometry":{"type":"Point","coordinates":[14.172269,49.147572]},"properties":{"sigla":"STG504","name":"Knihovna Gelasta Vodňanského","TYP":"městská knihovna","addr":"Bavorovská 83/II","obec":"Vodňany","website":"https://katalog.knihovna-vodnany.cz/","AKT":"20250204"}},{"type":"Feature","geometry":{"type":"Point","coordinates":[13.786297,49.457389]},"properties":{"sigla":"STG507","name":"Místní knihovna Lnáře","TYP":"obecní knihovna","addr":"Lnáře 17","obec":"Lnáře","website":"https://jck.tritius.cz/library/lnare","opening_hours":"Mo 13:00-17:00; We 13:00-17:00; Th 09:00-12:00","AKT":"20260520"}},{"type":"Feature","geometry":{"type":"Point","coordinates":[14.078346,49.122656]},"properties":{"sigla":"STG509","name":"Městská knihovna v Bavorově","TYP":"obecní knihovna","addr":"Dr. Mareše 370","obec":"Bavorov","website":"https://bavorov.katalog.knih-st.cz/","opening_hours":"Mo 08:00-12:00,13:00-16:00; We 08:00-12:00,13:00-16:00; Fr 12:00-17:30","AKT":"20260615"}},{"type":"Feature","geometry":{"type":"Point","coordinates":[13.879369,49.502375]},"properties":{"sigla":"STG508","name":"Místní lidová knihovna Bělčice","TYP":"obecní knihovna","addr":"Nádražní 259","obec":"Bělčice","website":"https://www.belcice.cz/kultura/mistni-lidova-knihovna/","opening_hours":"Mo 08:00-12:00,13:00-16:00; We 08:00-12:00,13:00-16:00; Fr 08:00-12:00","AKT":"20260128"}},{"type":"Feature","geometry":{"type":"Point","coordinates":[13.80379,49.166543]},"properties":{"sigla":"STG510","name":"Místní lidová knihovna Čestice","TYP":"obecní knihovna","addr":"Čestice 1","obec":"Čestice","website":"https://knihovnacestice.estranky.cz/clanky/on-line-katalog.html","opening_hours":"Mo 12:00-17:00; We 13:00-18:00","AKT":"20260107"}},{"type":"Feature","geometry":{"type":"Point","coordinates":[14.008433,49.267469]},"properties":{"sigla":"STG511","name":"Místní knihovna Štěkeň","TYP":"obecní knihovna","addr":"Na Městečku 52","obec":"Štěkeň","website":"https://knihovnasteken.estranky.cz/","opening_hours":"We 14:00-17:00","AKT":"20250724"}},{"type":"Feature","geometry":{"type":"Point","coordinates":[13.905183,49.26585]},"properties":{"sigla":"STE302","name":"Statní oblastní archiv v Třeboni","TYP":"knihovna státní správy","addr":"Smetanova 351","obec":"Strakonice","website":"https://www.ceskearchivy.cz/statni-okresni-archivy/strakonice/soka-strakonice-uvod","AKT":"20260623"}},{"type":"Feature","geometry":{"type":"Point","coordinates":[13.939324,49.375906]},"properties":{"sigla":"STG512","name":"Městská knihovna Sedlice","TYP":"městská knihovna","addr":"nám. T.G. Masaryka 28","obec":"Sedlice","website":"https://sedlice.katalog.knih-st.cz/","opening_hours":"Mo 09:00-11:00,14:00-16:00; We 14:00-17:00","AKT":"20250724"}},{"type":"Feature","geometry":{"type":"Point","coordinates":[13.864411,49.188678]},"properties":{"sigla":"STG513","name":"Obecní knihovna v Nihošovicích","TYP":"obecní knihovna","addr":"Nihošovice","obec":"Volyně","website":"https://nihosovice.katalog.knih-st.cz/","opening_hours":"Mo 16:00-17:00","AKT":"20260723"}},{"type":"Feature","geometry":{"type":"Point","coordinates":[14.020489,49.2527]},"properties":{"sigla":"STG002","name":"Místní knihovna Čejetice","TYP":"obecní knihovna","addr":"Čejetice 106","obec":"Strakonice","website":"https://cejetice.katalog.knih-st.cz/","opening_hours":"Mo 16:30-18:00","AKT":"20260525"}},{"type":"Feature","geometry":{"type":"Point","coordinates":[14.052094,49.230114]},"properties":{"sigla":"STG003","name":"Místní knihovna Mladějovice","TYP":"obecní knihovna","addr":"Mladějovice 91","obec":"Strakonice","website":"https://mladejovice.katalog.knih-st.cz/","opening_hours":"Th 17:00-19:00","AKT":"20260722"}},{"type":"Feature","geometry":{"type":"Point","coordinates":[13.882281,49.444169]},"properties":{"sigla":"STG514","name":"Místní lidová knihovna Bezdědovice","TYP":"obecní knihovna","addr":"Bezdědovice 109","obec":"Blatná","website":"https://bezdedovice.katalog.knih-st.cz/","opening_hours":"Fr 16:30-18:30","AKT":"20260520"}},{"type":"Feature","geometry":{"type":"Point","coordinates":[14.029361,49.215081]},"properties":{"sigla":"STG515","name":"Obecní knihovna Cehnice","TYP":"obecní knihovna","addr":"Cehnice 76","obec":"Cehnice","website":"https://cehnice.katalog.knih-st.cz/","opening_hours":"Th 10:00-12:00,13:00-18:00","AKT":"20260521"}},{"type":"Feature","geometry":{"type":"Point","coordinates":[13.775061,49.403431]},"properties":{"sigla":"STG516","name":"Obecní knihovna v Kadově","TYP":"obecní knihovna","addr":"Kadov 2","obec":"Blatná","website":"https://kadov.katalog.knih-st.cz/","opening_hours":"Tu 15:00-17:00","AKT":"20260716"}},{"type":"Feature","geometry":{"type":"Point","coordinates":[13.779479,49.415592]},"properties":{"sigla":"STG517","name":"Obecní knihovna v Poli","TYP":"obecní knihovna","addr":"Pole","obec":"Blatná","website":"https://pole.katalog.knih-st.cz/","opening_hours":"Mo 16:00-18:00","AKT":"20260723"}},{"type":"Feature","geometry":{"type":"Point","coordinates":[13.809621,49.334439]},"properties":{"sigla":"STG518","name":"Místní lidová knihovna Hlupín","TYP":"obecní knihovna","addr":"Hlupín 54","obec":"Strakonice","website":"https://hlupin.katalog.knih-st.cz/","opening_hours":"Sa 17:00-18:00","AKT":"20260703"}},{"type":"Feature","geometry":{"type":"Point","coordinates":[13.868204,49.231846]},"properties":{"sigla":"STG004","name":"Místní lidová knihovna v Sousedovicích","TYP":"obecní knihovna","addr":"Sousedovice 23","obec":"Strakonice","website":"https://sousedovice.katalog.knih-st.cz/","opening_hours":"Th 17:00-19:00","AKT":"20260726"}},{"type":"Feature","geometry":{"type":"Point","coordinates":[13.834494,49.446933]},"properties":{"sigla":"STG519","name":"Obecní knihovna Hajany","TYP":"obecní knihovna","addr":"Hajany 73","obec":"Blatná","website":"https://hajany.katalog.knih-st.cz/","opening_hours":"Fr 19:00-20:00","AKT":"20260610"}},{"type":"Feature","geometry":{"type":"Point","coordinates":[13.963014,49.318561]},"properties":{"sigla":"STG005","name":"Místní lidová knihovna Osek","TYP":"obecní knihovna","addr":"Osek 77","obec":"Strakonice","website":"https://osek.katalog.knih-st.cz/","opening_hours":"Mo 13:00-15:00; Tu 13:00-15:00; We 13:00-15:00; Th 13:00-15:00; Fr 13:00-15:00","AKT":"20260723"}},{"type":"Feature","geometry":{"type":"Point","coordinates":[13.743775,49.167714]},"properties":{"sigla":"STG520","name":"Obecní knihovna v Drážově","TYP":"obecní knihovna","addr":"Drážov 41","obec":"Čestice","website":"https://drazov.katalog.knih-st.cz/","opening_hours":"We 16:00-17:00","AKT":"20260529"}},{"type":"Feature","geometry":{"type":"Point","coordinates":[13.729611,49.202689]},"properties":{"sigla":"STG521","name":"Obecní knihovna Strašice","TYP":"obecní knihovna","addr":"Strašice 8","obec":"Volenice","website":"https://strasice.katalog.knih-st.cz/","opening_hours":"Fr 18:00-19:00","AKT":"20260726"}},{"type":"Feature","geometry":{"type":"Point","coordinates":[13.830927,49.305041]},"properties":{"sigla":"STG522","name":"Místní lidová knihovna Mnichov","TYP":"obecní knihovna","addr":"Mnichov 73","obec":"Strakonice","website":"https://mnichov.katalog.knih-st.cz/","opening_hours":"Th 16:00-17:00","AKT":"20260722"}},{"type":"Feature","geometry":{"type":"Point","coordinates":[14.060176,49.158977]},"properties":{"sigla":"STG523","name":"Místní lidová knihovna v Bílsku","TYP":"obecní knihovna","addr":"Bílsko 1","obec":"Bavorov","website":"https://bilsko.katalog.knih-st.cz/","opening_hours":"Fr 15:30-16:30","AKT":"20260520"}},{"type":"Feature","geometry":{"type":"Point","coordinates":[13.747767,49.252408]},"properties":{"sigla":"STG524","name":"Místní knihovna Volenice","TYP":"obecní knihovna","addr":"Volenice 3","obec":"Volenice","website":"https://volenice.katalog.knih-st.cz/","opening_hours":"Tu 15:00-18:00","AKT":"20260727"}},{"type":"Feature","geometry":{"type":"Point","coordinates":[13.850169,49.258004]},"properties":{"sigla":"STG525","name":"Místní lidová knihovna Pracejovice","TYP":"obecní knihovna","addr":"Pracejovice 21","obec":"Strakonice","website":"https://pracejovice.katalog.knih-st.cz/","opening_hours":"Mo 16:30-18:30; Fr 16:30-18:30","AKT":"20260723"}},{"type":"Feature","geometry":{"type":"Point","coordinates":[13.841379,49.481885]},"properties":{"sigla":"STG526","name":"Místní lidová knihovna Hornosín","TYP":"obecní knihovna","addr":"Hornosín 43","obec":"Blatná","website":"https://hornosin.katalog.knih-st.cz/","opening_hours":"Mo 17:00-18:00; We 17:00-18:00; Sa 14:00-16:00; Su 14:00-16:00","AKT":"20260703"}},{"type":"Feature","geometry":{"type":"Point","coordinates":[14.193175,49.114494]},"properties":{"sigla":"STG527","name":"Obecní knihovna Libějovice","TYP":"obecní knihovna","addr":"Libějovice 26","obec":"Libějovice","website":"https://libejovice.katalog.knih-st.cz/","opening_hours":"Fr 16:00-17:00","AKT":"20260721"}},{"type":"Feature","geometry":{"type":"Point","coordinates":[13.861591,49.332367]},"properties":{"sigla":"STG528","name":"Místní lidová knihovna Třebohostice","TYP":"obecní knihovna","addr":"Třebohostice 20","obec":"Strakonice","website":"https://www.obectrebohostice.cz/obecni-knihovna/","opening_hours":"Tu 18:00-19:00","AKT":"20260727"}},{"type":"Feature","geometry":{"type":"Point","coordinates":[13.882753,49.12457]},"properties":{"sigla":"STG530","name":"Obecní knihovna v Malenicích","TYP":"obecní knihovna","addr":"Archiváře Teplého1","obec":"Malenice","website":"https://knihovna-malenice.webnode.cz/","opening_hours":"We 16:00-17:00","AKT":"20260721"}},{"type":"Feature","geometry":{"type":"Point","coordinates":[13.911004,49.193691]},"properties":{"sigla":"STG531","name":"Místní veřejná knihovna Hoštice","TYP":"obecní knihovna","addr":"Hoštice 29","obec":"Volyně","website":"https://hostice.katalog.knih-st.cz/","opening_hours":"Th 16:00-18:00","AKT":"20260713"}},{"type":"Feature","geometry":{"type":"Point","coordinates":[13.797166,49.507425]},"properties":{"sigla":"STG532","name":"Místní lidová knihovna v Březí","TYP":"obecní knihovna","addr":"Březí 2","obec":"Rožmitál pod Třemšínem","website":"https://brezi.katalog.knih-st.cz/","opening_hours":"We 14:30-15:30","AKT":"20260520"}},{"type":"Feature","geometry":{"type":"Point","coordinates":[13.829411,49.464917]},"properties":{"sigla":"STG533","name":"Obecní knihovna Kocelovice","TYP":"obecní knihovna","addr":"Kocelovice 32","obec":"Lnáře","website":"https://kocelovice.katalog.knih-st.cz/","opening_hours":"We 17:00-18:30","AKT":"20250722"}},{"type":"Feature","geometry":{"type":"Point","coordinates":[13.957644,49.220458]},"properties":{"sigla":"STG534","name":"Obecní knihovna Miloňovice","TYP":"obecní knihovna","addr":"Miloňovice 1","obec":"Strakonice","website":"https://milonovice.katalog.knih-st.cz/","opening_hours":"Mo 17:00-19:00","AKT":"20260721"}},{"type":"Feature","geometry":{"type":"Point","coordinates":[13.77037,49.489398]},"properties":{"sigla":"STG535","name":"Místní lidová knihovna v Předmíři","TYP":"obecní knihovna","addr":"Předmíř 43","obec":"Lnáře","website":"https://predmir.katalog.knih-st.cz/","opening_hours":"We 17:00-18:00","AKT":"20260723"}},{"type":"Feature","geometry":{"type":"Point","coordinates":[14.132946,49.167047]},"properties":{"sigla":"STG536","name":"Místní lidová knihovna Krašlovice","TYP":"obecní knihovna","addr":"Krašlovice 42","obec":"Vodňany","website":"https://kraslovice.katalog.knih-st.cz/","opening_hours":"Mo 15:30-17:00","AKT":"20260720"}},{"type":"Feature","geometry":{"type":"Point","coordinates":[13.839361,49.200878]},"properties":{"sigla":"STG537","name":"Obecní knihovna Úlehle","TYP":"obecní knihovna","addr":"Úlehle 28","obec":"Čestice","website":"https://ulehle.katalog.knih-st.cz/","opening_hours":"Fr 17:00-18:00","AKT":"20260727"}},{"type":"Feature","geometry":{"type":"Point","coordinates":[13.851478,49.446022]},"properties":{"sigla":"STG538","name":"Obecní knihovna Chlum","TYP":"obecní knihovna","addr":"Chlum 43","obec":"Blatná","website":"https://chlum.katalog.knih-st.cz/","opening_hours":"Tu 18:00-19:30; Fr 18:00-19:30","AKT":"20260713"}},{"type":"Feature","geometry":{"type":"Point","coordinates":[13.840283,49.241525]},"properties":{"sigla":"STG006","name":"Obecní knihovna Drachkov","TYP":"obecní knihovna","addr":"Drachkov 34","obec":"Strakonice","website":"https://drachkov.katalog.knih-st.cz/","opening_hours":"Tu 16:00-19:00","AKT":"20260529"}},{"type":"Feature","geometry":{"type":"Point","coordinates":[13.974654,49.15567]},"properties":{"sigla":"STG539","name":"Místní knihovna Čepřovice","TYP":"obecní knihovna","addr":"Čepřovice 58","obec":"Čepřovice","website":"https://ceprovice.katalog.knih-st.cz/","opening_hours":"Th 15:30-17:30","AKT":"20260525"}},{"type":"Feature","geometry":{"type":"Point","coordinates":[14.073405,49.199426]},"properties":{"sigla":"STG540","name":"Obecní knihovna Drahonice","TYP":"obecní knihovna","addr":"Drahonice 100","obec":"Vodňany","website":"https://drahonice.katalog.knih-st.cz/","opening_hours":"Mo 17:00-18:00","AKT":"20260529"}},{"type":"Feature","geometry":{"type":"Point","coordinates":[13.948599,49.402342]},"properties":{"sigla":"STG541","name":"Místní lidová knihovna Škvořetice","TYP":"obecní knihovna","addr":"Škvořetice","obec":"Blatná","website":"https://skvoretice.katalog.knih-st.cz/","opening_hours":"Fr 19:00-21:00","AKT":"20260726"}},{"type":"Feature","geometry":{"type":"Point","coordinates":[13.789437,49.285959]},"properties":{"sigla":"STG008","name":"Obecní knihovna Horní Poříčí","TYP":"obecní knihovna","addr":"Dolní Poříčí 100, Horní Poříčí","obec":"Strakonice","website":"https://www.horniporici.cz/obecni-knihovna/ds-1068/p1=1754","opening_hours":"Mo 15:00-17:00","AKT":"20260703"}},{"type":"Feature","geometry":{"type":"Point","coordinates":[13.989758,49.410675]},"properties":{"sigla":"STG542","name":"Obecní knihovna Lom","TYP":"obecní knihovna","addr":"Lom 9","obec":"Blatná","website":"https://lom.katalog.knih-st.cz/","opening_hours":"Th 17:00-20:00","AKT":"20260721"}},{"type":"Feature","geometry":{"type":"Point","coordinates":[13.935171,49.131986]},"properties":{"sigla":"STG543","name":"Místní lidová knihovna Předslavice","TYP":"obecní knihovna","addr":"Předslavice 15","obec":"Volyně","website":"https://predslavice.katalog.knih-st.cz/","opening_hours":"Mo 17:00-18:30; Th 17:00-18:30","AKT":"20260723"}},{"type":"Feature","geometry":{"type":"Point","coordinates":[13.953953,49.286336]},"properties":{"sigla":"STG009","name":"Obecní knihovna Rovná","TYP":"obecní knihovna","addr":"Rovná 4","obec":"Strakonice","website":"https://rovna.katalog.knih-st.cz/","opening_hours":"Tu 16:30-18:00","AKT":"20260724"}},{"type":"Feature","geometry":{"type":"Point","coordinates":[14.105178,49.185209]},"properties":{"sigla":"STG544","name":"Obecní knihovna ve Skočicích","TYP":"obecní knihovna","addr":"Skočice 44","obec":"Skočice","website":"https://skocice.katalog.knih-st.cz/","opening_hours":"Tu 15:00-17:00","AKT":"20260726"}},{"type":"Feature","geometry":{"type":"Point","coordinates":[13.89965,49.332325]},"properties":{"sigla":"STG010","name":"Místní lidová knihovna Chrášťovice","TYP":"obecní knihovna","addr":"Chrášťovice 75","obec":"Strakonice","website":"https://chrastovice.katalog.knih-st.cz/","opening_hours":"Th 17:00-18:00","AKT":"20260715"}},{"type":"Feature","geometry":{"type":"Point","coordinates":[13.957878,49.340583]},"properties":{"sigla":"STG011","name":"Husova knihovna Velká Turná","TYP":"obecní knihovna","addr":"Velká Turná 41","obec":"Strakonice","website":"https://www.velkaturna.cz/","opening_hours":"Th 16:00-18:00","AKT":"20260727"}},{"type":"Feature","geometry":{"type":"Point","coordinates":[13.8108,49.348194]},"properties":{"sigla":"STG545","name":"Místní knihovna Mečichov","TYP":"obecní knihovna","addr":"Mečichov 3","obec":"Mečichov","website":"https://mecichov.katalog.knih-st.cz/","opening_hours":"Sa 13:00-15:00","AKT":"20260721"}},{"type":"Feature","geometry":{"type":"Point","coordinates":[13.927183,49.421975]},"properties":{"sigla":"STG546","name":"Obecní knihovna Buzice","TYP":"obecní knihovna","addr":"Buzice 79","obec":"Blatná","website":"https://buzice.katalog.knih-st.cz/","opening_hours":"We 17:30-18:30","AKT":"20260521"}},{"type":"Feature","geometry":{"type":"Point","coordinates":[13.84912,49.291231]},"properties":{"sigla":"STG012","name":"Místní lidová knihovna Krty-Hradec","TYP":"obecní knihovna","addr":"Krty-Hradec 73","obec":"Strakonice","website":"https://www.knihovnystrakonicka.strakonice.eu/knihovna/mistni-lidova-knihovna-krty-hradec","opening_hours":"Su 10:00-12:00","AKT":"20250728"}},{"type":"Feature","geometry":{"type":"Point","coordinates":[13.763519,49.268525]},"properties":{"sigla":"STG547","name":"Místní lidová knihovna Kladruby","TYP":"obecní knihovna","addr":"Kladruby 1","obec":"Volenice","website":"https://kladruby.katalog.knih-st.cz/","opening_hours":"Fr 18:00-19:30","AKT":"20260716"}},{"type":"Feature","geometry":{"type":"Point","coordinates":[13.933436,49.280506]},"properties":{"sigla":"STG013","name":"Obecní knihovna v Řepici","TYP":"obecní knihovna","addr":"Řepice 1","obec":"Strakonice","website":"https://repice.katalog.knih-st.cz/","opening_hours":"Tu 17:00-18:00; Fr 17:00-18:00","AKT":"20260726"}},{"type":"Feature","geometry":{"type":"Point","coordinates":[14.170004,49.121883]},"properties":{"sigla":"STG548","name":"Knihovna Petra Chelčického","TYP":"obecní knihovna","addr":"Chelčice 1","obec":"Vodňany","website":"https://www.chelcice.cz/spolky/knihovna/","opening_hours":"Mo 16:30-18:30","AKT":"20260713"}},{"type":"Feature","geometry":{"type":"Point","coordinates":[13.775664,49.160884]},"properties":{"sigla":"STG549","name":"Obecní knihovna Dřešín","TYP":"obecní knihovna","addr":"Dřešín 24","obec":"Čestice","website":"https://dresin.katalog.knih-st.cz/","opening_hours":"Tu 18:00-19:00","AKT":"20260609"}},{"type":"Feature","geometry":{"type":"Point","coordinates":[13.765372,49.256419]},"properties":{"sigla":"STG550","name":"Obecní knihovna Štěchovice","TYP":"obecní knihovna","addr":"Štěchovice 64","obec":"Volenice","website":"https://stechovice.katalog.knih-st.cz/","opening_hours":"We 17:00-19:00","AKT":"20260726"}},{"type":"Feature","geometry":{"type":"Point","coordinates":[13.974053,49.277478]},"properties":{"sigla":"STG014","name":"Obecní knihovna Přešťovice","TYP":"obecní knihovna","addr":"Přešťovice 36","obec":"Strakonice","website":"https://prestovice.katalog.knih-st.cz/","opening_hours":"We 15:00-17:00","AKT":"20260724"}},{"type":"Feature","geometry":{"type":"Point","coordinates":[13.897986,49.288375]},"properties":{"sigla":"STG015","name":"Obecní knihovna Droužetice","TYP":"obecní knihovna","addr":"Droužetice 13","obec":"Strakonice","website":"https://drouzetice.katalog.knih-st.cz/","opening_hours":"Mo 17:00-18:00","AKT":"20260609"}},{"type":"Feature","geometry":{"type":"Point","coordinates":[13.962014,49.238431]},"properties":{"sigla":"STG016","name":"Obecní knihovna Nebřehovice","TYP":"obecní knihovna","addr":"Nebřehovice 35","obec":"Strakonice","website":"https://nebrehovice.katalog.knih-st.cz/","opening_hours":"Th 17:00-18:00","AKT":"20260722"}},{"type":"Feature","geometry":{"type":"Point","coordinates":[13.801464,49.1917]},"properties":{"sigla":"STG551","name":"Obecní knihovna Němčice","TYP":"obecní knihovna","addr":"Němčice 44","obec":"Čestice","website":"https://nemcice.katalog.knih-st.cz/","opening_hours":"Fr 17:00-18:00","AKT":"20260722"}},{"type":"Feature","geometry":{"type":"Point","coordinates":[14.002716,49.188036]},"properties":{"sigla":"STG017","name":"Obecní knihovna Kváskovice","TYP":"obecní knihovna","addr":"Kváskovice 1","obec":"Strakonice","website":"https://kvaskovice.katalog.knih-st.cz/","AKT":"20260227"}},{"type":"Feature","geometry":{"type":"Point","coordinates":[13.994931,49.199906]},"properties":{"sigla":"STG018","name":"Obecní knihovna Paračov","TYP":"obecní knihovna","addr":"Paračov 18","obec":"Strakonice","website":"https://paracov.katalog.knih-st.cz/","opening_hours":"We 17:00-18:00; Fr 17:00-18:00","AKT":"20260723"}},{"type":"Feature","geometry":{"type":"Point","coordinates":[13.804664,49.228697]},"properties":{"sigla":"STG553","name":"Obecní knihovna Kraselov","TYP":"obecní knihovna","addr":"Kraselov 53","obec":"Volenice","website":"https://kraselov.katalog.knih-st.cz/","opening_hours":"Fr 17:00-18:00","AKT":"20260720"}},{"type":"Feature","geometry":{"type":"Point","coordinates":[13.817248,49.209186]},"properties":{"sigla":"STG554","name":"Obecní knihovna Zahorčice","TYP":"obecní knihovna","addr":"Zahorčice 4","obec":"Čestice","website":"https://www.obeczahorcice.cz/","AKT":"20260727"}},{"type":"Feature","geometry":{"type":"Point","coordinates":[14.230153,49.154655]},"properties":{"sigla":"STG555","name":"Obecní knihovna Číčenice","TYP":"obecní knihovna","addr":"Číčenice 12","obec":"Číčenice","website":"https://cicenice.katalog.knih-st.cz/","opening_hours":"Mo 16:00-18:00; Tu 16:00-18:00","AKT":"20260526"}},{"type":"Feature","geometry":{"type":"Point","coordinates":[13.793617,49.373817]},"properties":{"sigla":"STG556","name":"Obecní knihovna Čečelovice","TYP":"obecní knihovna","addr":"Čečelovice 32","obec":"Blatná","website":"https://cecelovice.katalog.knih-st.cz/","opening_hours":"Fr 16:00-18:00","AKT":"20260522"}},{"type":"Feature","geometry":{"type":"Point","coordinates":[14.088138,49.099276]},"properties":{"sigla":"STG557","name":"Místní lidová knihovna v Čichticích","TYP":"obecní knihovna","addr":"Čichtice 10","obec":"Bavorov","website":"https://www.mestobavorov.cz/spolky-a-organizace/knihovna-cichtice/","opening_hours":"Su 12:30-14:30","AKT":"20260526"}},{"type":"Feature","geometry":{"type":"Point","coordinates":[13.748393,49.29836]},"properties":{"sigla":"STG558","name":"Místní lidová knihovna Kozlov","TYP":"obecní knihovna","addr":"Kozlov 40","obec":"Střelské Hoštice","website":"https://www.knihovnystrakonicka.strakonice.eu/knihovna/mistni-lidova-knihovna-kozlov","opening_hours":"Tu 18:00-21:00","AKT":"20260720"}},{"type":"Feature","geometry":{"type":"Point","coordinates":[13.881611,49.4235]},"properties":{"sigla":"STE801","name":"Knihovna Městského muzea Blatná","TYP":"knihovna kulturní instituce - muzeum","addr":"nám. Míru 212","obec":"Blatná","website":"https://muzeum.tritius.cz/library/blatna/","opening_hours":"We 09:00-15:00; Th 09:00-15:00","AKT":"20250815"}},{"type":"Feature","geometry":{"type":"Point","coordinates":[13.885857,49.167423]},"properties":{"sigla":"STE802","name":"Městské muzeum ve Volyni","TYP":"knihovna kulturní instituce - muzeum","addr":"Školní ul. 744","obec":"Volyně","website":"https://muzeum-volyne.cz/","AKT":"20251015"}},{"type":"Feature","geometry":{"type":"Point","coordinates":[14.17654,49.148099]},"properties":{"sigla":"STE803","name":"Městské muzeum a galerie Vodňany","TYP":"knihovna kulturní instituce - muzeum","addr":"nám. Svobody 18","obec":"Vodňany","website":"http://www.muzeumvodnany.cz/muzeum-a-galerie/knihovna/on-line","AKT":"20260604"}},{"type":"Feature","geometry":{"type":"Point","coordinates":[13.798398,49.260593]},"properties":{"sigla":"STG559","name":"Místní knihovna Novosedly","TYP":"obecní knihovna","addr":"Novosedly 56","obec":"Volenice","website":"https://novosedly.katalog.knih-st.cz/","opening_hours":"We 17:00-18:00","AKT":"20260723"}},{"type":"Feature","geometry":{"type":"Point","coordinates":[13.931399,49.188078]},"properties":{"sigla":"STG560","name":"Obecní knihovna Milejovice","TYP":"obecní knihovna","addr":"Milejovice","obec":"Volyně","website":"https://www.milejovice.cz/obec/obecni-knihovna-milejovice/","opening_hours":"We 16:00-17:00","AKT":"20260721"}},{"type":"Feature","geometry":{"type":"Point","coordinates":[13.897679,49.154572]},"properties":{"sigla":"STG561","name":"Knihovna obce Nišovice","TYP":"obecní knihovna","addr":"Nišovice 18","obec":"Volyně","website":"https://nisovice.katalog.knih-st.cz/","opening_hours":"We 15:00-17:00","AKT":"20260723"}},{"type":"Feature","geometry":{"type":"Point","coordinates":[14.158874,49.10505]},"properties":{"sigla":"STG562","name":"Obecní knihovna v Truskovicích","TYP":"obecní knihovna","addr":"Truskovice 69","obec":"Truskovice","website":"https://truskovice.katalog.knih-st.cz/","opening_hours":"Th 17:00-19:00","AKT":"20260727"}}]}