{"type":"FeatureCollection","features":[{"type":"Feature","geometry":{"type":"Point","coordinates":[15.455746,49.179529]},"properties":{"ref:npu":"1000121707","heritage":"3","heritage:operator":"npu","name":"socha sv. Máří Magdalény","typOchranyKod":"KP","rejstrikoveCisloUSKP":"12943/7-5305","prStavId":"121707","adresa":"Na Dlážkách"}},{"type":"Feature","geometry":{"type":"Point","coordinates":[15.451301,49.185374]},"properties":{"heritage":"2","heritage:operator":"npu","name":"zámek Telč","typOchranyKod":"NKP","rejstrikoveCisloUSKP":"218","prStavId":"84141","KodStavObjRUIAN":"12352071","adresa":"náměstí Zachariáše z Hradce; Slavatovská 1"}},{"type":"Feature","geometry":{"type":"Point","coordinates":[15.451301,49.185374]},"properties":{"ref:npu":"1000125911","heritage":"3","heritage:operator":"npu","name":"zámek Telč","typOchranyKod":"KP","rejstrikoveCisloUSKP":"15430/7-5249","prStavId":"125911","KodStavObjRUIAN":"12352071","adresa":"náměstí Zachariáše z Hradce; Slavatovská 1"}},{"type":"Feature","geometry":{"type":"Point","coordinates":[15.457632,49.184023]},"properties":{"ref:npu":"1000126378","heritage":"3","heritage:operator":"npu","name":"hřbitovní kostel sv. Anny","typOchranyKod":"KP","rejstrikoveCisloUSKP":"15861/7-5258","prStavId":"126378","adresa":"Svatoanenská"}},{"type":"Feature","geometry":{"type":"Point","coordinates":[15.45396,49.184142]},"properties":{"ref:npu":"1000126604","heritage":"3","heritage:operator":"npu","name":"kašna se sochou sv. Markéty","typOchranyKod":"KP","rejstrikoveCisloUSKP":"16080/7-5249","prStavId":"126604","adresa":"náměstí Zachariáše z Hradce"}},{"type":"Feature","geometry":{"type":"Point","coordinates":[15.458769,49.177345]},"properties":{"ref:npu":"1000127021","heritage":"3","heritage:operator":"npu","name":"venkovská usedlost","typOchranyKod":"KP","rejstrikoveCisloUSKP":"16467/7-5270","prStavId":"127021","KodStavObjRUIAN":"12362212","adresa":"Na Dlážkách 126"}},{"type":"Feature","geometry":{"type":"Point","coordinates":[15.454714,49.180399]},"properties":{"ref:npu":"1000127973","heritage":"3","heritage:operator":"npu","name":"socha sv. Jana Nepomuckého","typOchranyKod":"KP","rejstrikoveCisloUSKP":"17349/7-5304","prStavId":"127973","adresa":"Na Dlážkách"}},{"type":"Feature","geometry":{"type":"Point","coordinates":[15.457613,49.187309]},"properties":{"ref:npu":"1000129437","heritage":"3","heritage:operator":"npu","name":"kaple Panny Marie s křížem","typOchranyKod":"KP","rejstrikoveCisloUSKP":"18715/7-5250","prStavId":"129437","adresa":"Oldřichovo náměstí"}},{"type":"Feature","geometry":{"type":"Point","coordinates":[15.454681,49.183818]},"properties":{"ref:npu":"1000130426","heritage":"3","heritage:operator":"npu","name":"kašna se sochou Siléna","typOchranyKod":"KP","rejstrikoveCisloUSKP":"19647/7-5249","prStavId":"130426","adresa":"náměstí Zachariáše z Hradce"}},{"type":"Feature","geometry":{"type":"Point","coordinates":[15.455501,49.183099]},"properties":{"ref:npu":"1000131597","heritage":"3","heritage:operator":"npu","name":"silniční most","typOchranyKod":"KP","rejstrikoveCisloUSKP":"20753/7-5249","prStavId":"131597","adresa":"Na Můstku"}},{"type":"Feature","geometry":{"type":"Point","coordinates":[15.456819,49.177434]},"properties":{"ref:npu":"1000135647","heritage":"3","heritage:operator":"npu","name":"venkovská usedlost","typOchranyKod":"KP","rejstrikoveCisloUSKP":"24578/7-5285","prStavId":"135647","KodStavObjRUIAN":"12361518","adresa":"Zachariášova 52"}},{"type":"Feature","geometry":{"type":"Point","coordinates":[15.453127,49.184207]},"properties":{"ref:npu":"1000136146","heritage":"3","heritage:operator":"npu","name":"měšťanský dům","typOchranyKod":"KP","rejstrikoveCisloUSKP":"25053/7-5249","prStavId":"136146","KodStavObjRUIAN":"12352187","adresa":"náměstí Zachariáše z Hradce 12"}},{"type":"Feature","geometry":{"type":"Point","coordinates":[15.453532,49.181732]},"properties":{"ref:npu":"1000136253","heritage":"3","heritage:operator":"npu","name":"socha sv. Jana Nepomuckého","typOchranyKod":"KP","rejstrikoveCisloUSKP":"25153/7-5307","prStavId":"136253","adresa":"Na Hrázi"}},{"type":"Feature","geometry":{"type":"Point","coordinates":[15.45844,49.176054]},"properties":{"ref:npu":"1000136928","heritage":"3","heritage:operator":"npu","name":"špitál s dvorními křídly","typOchranyKod":"KP","rejstrikoveCisloUSKP":"25792/7-5277","prStavId":"136928","KodStavObjRUIAN":"12361437","adresa":"Špitální 44"}},{"type":"Feature","geometry":{"type":"Point","coordinates":[15.450438,49.182198]},"properties":{"ref:npu":"1000136481","heritage":"3","heritage:operator":"npu","name":"Lannerův dům","typOchranyKod":"KP","rejstrikoveCisloUSKP":"25373/7-5268","prStavId":"136481","KodStavObjRUIAN":"12361101","adresa":"Hradecká 6"}},{"type":"Feature","geometry":{"type":"Point","coordinates":[15.454599,49.182706]},"properties":{"ref:npu":"1000137460","heritage":"3","heritage:operator":"npu","name":"silniční most","typOchranyKod":"KP","rejstrikoveCisloUSKP":"26294/7-5249","prStavId":"137460","adresa":"Palackého"}},{"type":"Feature","geometry":{"type":"Point","coordinates":[15.454254,49.181842]},"properties":{"ref:npu":"1000138583","heritage":"3","heritage:operator":"npu","name":"socha sv. Anděla strážce","typOchranyKod":"KP","rejstrikoveCisloUSKP":"27346/7-5300","prStavId":"138583","adresa":"Na Dlážkách"}},{"type":"Feature","geometry":{"type":"Point","coordinates":[15.458615,49.177421]},"properties":{"ref:npu":"1000138929","heritage":"3","heritage:operator":"npu","name":"socha sv. Jana Křtitele","typOchranyKod":"KP","rejstrikoveCisloUSKP":"27670/7-5303","prStavId":"138929","adresa":"Na Dlážkách"}},{"type":"Feature","geometry":{"type":"Point","coordinates":[15.453743,49.181384]},"properties":{"ref:npu":"1000140023","heritage":"3","heritage:operator":"npu","name":"socha archanděla Michaela","typOchranyKod":"KP","rejstrikoveCisloUSKP":"28697/7-5301","prStavId":"140023","adresa":"Na Dlážkách"}},{"type":"Feature","geometry":{"type":"Point","coordinates":[15.456727,49.178531]},"properties":{"ref:npu":"1000140932","heritage":"3","heritage:operator":"npu","name":"socha sv. Vendelína","typOchranyKod":"KP","rejstrikoveCisloUSKP":"29551/7-5306","prStavId":"140932","adresa":"Na Dlážkách"}},{"type":"Feature","geometry":{"type":"Point","coordinates":[15.453347,49.184083]},"properties":{"ref:npu":"1000142275","heritage":"3","heritage:operator":"npu","name":"měšťanský dům","typOchranyKod":"KP","rejstrikoveCisloUSKP":"30801/7-5249","prStavId":"142275","KodStavObjRUIAN":"12352217","adresa":"náměstí Zachariáše z Hradce 15"}},{"type":"Feature","geometry":{"type":"Point","coordinates":[15.45318,49.184902]},"properties":{"ref:npu":"1000143291","heritage":"3","heritage:operator":"npu","name":"měšťanský dům","typOchranyKod":"KP","rejstrikoveCisloUSKP":"31753/7-5249","prStavId":"143291","KodStavObjRUIAN":"12352748","adresa":"náměstí Zachariáše z Hradce 68"}},{"type":"Feature","geometry":{"type":"Point","coordinates":[15.454611,49.183022]},"properties":{"ref:npu":"1000143412","heritage":"3","heritage:operator":"npu","name":"kostel sv. Ducha s věží","typOchranyKod":"KP","rejstrikoveCisloUSKP":"31867/7-5249","prStavId":"143412","KodStavObjRUIAN":"12352985","adresa":"Palackého 93"}},{"type":"Feature","geometry":{"type":"Point","coordinates":[15.453726,49.184582]},"properties":{"ref:npu":"1000144049","heritage":"3","heritage:operator":"npu","name":"měšťanský dům","typOchranyKod":"KP","rejstrikoveCisloUSKP":"32467/7-5249","prStavId":"144049","KodStavObjRUIAN":"12352683","adresa":"náměstí Zachariáše z Hradce 62"}},{"type":"Feature","geometry":{"type":"Point","coordinates":[15.45326,49.18486]},"properties":{"ref:npu":"1000144417","heritage":"3","heritage:operator":"npu","name":"měšťanský dům","typOchranyKod":"KP","rejstrikoveCisloUSKP":"32813/7-5249","prStavId":"144417","KodStavObjRUIAN":"12352730","adresa":"náměstí Zachariáše z Hradce 67"}},{"type":"Feature","geometry":{"type":"Point","coordinates":[15.460844,49.17394]},"properties":{"ref:npu":"1000147484","heritage":"3","heritage:operator":"npu","name":"parní mlýn s hrází se splavy a mosty","typOchranyKod":"KP","rejstrikoveCisloUSKP":"35681/7-5329","prStavId":"147484","KodStavObjRUIAN":"12361879","adresa":"Radkovská 91"}},{"type":"Feature","geometry":{"type":"Point","coordinates":[15.453926,49.18449]},"properties":{"ref:npu":"1000149206","heritage":"3","heritage:operator":"npu","name":"měšťanský dům","typOchranyKod":"KP","rejstrikoveCisloUSKP":"37296/7-5249","prStavId":"149206","KodStavObjRUIAN":"12352667","adresa":"náměstí Zachariáše z Hradce 60"}},{"type":"Feature","geometry":{"type":"Point","coordinates":[15.454435,49.183927]},"properties":{"ref:npu":"1000149806","heritage":"3","heritage:operator":"npu","name":"mariánský morový sloup","typOchranyKod":"KP","rejstrikoveCisloUSKP":"37868/7-5249","prStavId":"149806","adresa":"náměstí Zachariáše z Hradce"}},{"type":"Feature","geometry":{"type":"Point","coordinates":[15.458895,49.176508]},"properties":{"ref:npu":"1000152421","heritage":"3","heritage:operator":"npu","name":"hřbitovní kostel Matky Boží","typOchranyKod":"KP","rejstrikoveCisloUSKP":"40360/7-5252","prStavId":"152421","adresa":"U Matky Boží"}},{"type":"Feature","geometry":{"type":"Point","coordinates":[15.453826,49.184534]},"properties":{"ref:npu":"1000157724","heritage":"3","heritage:operator":"npu","name":"měšťanský dům","typOchranyKod":"KP","rejstrikoveCisloUSKP":"45290/7-5249","prStavId":"157724","KodStavObjRUIAN":"12352675","adresa":"náměstí Zachariáše z Hradce 61"}},{"type":"Feature","geometry":{"type":"Point","coordinates":[15.461315,49.174579]},"properties":{"ref:npu":"1000125832","heritage":"3","heritage:operator":"npu","name":"socha sv. Jana Nepomuckého","typOchranyKod":"KP","rejstrikoveCisloUSKP":"15358/7-5309","prStavId":"125832"}},{"type":"Feature","geometry":{"type":"Point","coordinates":[15.464216,49.177419]},"properties":{"ref:npu":"1000145953","heritage":"3","heritage:operator":"npu","name":"kříž","typOchranyKod":"KP","rejstrikoveCisloUSKP":"34248/7-5325","prStavId":"145953"}},{"type":"Feature","geometry":{"type":"Point","coordinates":[15.455117,49.183548]},"properties":{"ref:npu":"1000121921","heritage":"3","heritage:operator":"npu","name":"měšťanský dům","typOchranyKod":"KP","rejstrikoveCisloUSKP":"13012/7-5249","prStavId":"121921","KodStavObjRUIAN":"12352462","adresa":"náměstí Zachariáše z Hradce 40"}},{"type":"Feature","geometry":{"type":"Point","coordinates":[15.452794,49.18437]},"properties":{"ref:npu":"1000124314","heritage":"3","heritage:operator":"npu","name":"měšťanský dům","typOchranyKod":"KP","rejstrikoveCisloUSKP":"13983/7-5249","prStavId":"124314","KodStavObjRUIAN":"12352152","adresa":"náměstí Zachariáše z Hradce 9"}},{"type":"Feature","geometry":{"type":"Point","coordinates":[15.45364,49.184646]},"properties":{"ref:npu":"1000125901","heritage":"3","heritage:operator":"npu","name":"měšťanský dům","typOchranyKod":"KP","rejstrikoveCisloUSKP":"15420/7-5249","prStavId":"125901","KodStavObjRUIAN":"12352691","adresa":"náměstí Zachariáše z Hradce 63"}},{"type":"Feature","geometry":{"type":"Point","coordinates":[15.454626,49.184203]},"properties":{"ref:npu":"1000125935","heritage":"3","heritage:operator":"npu","name":"měšťanský dům","typOchranyKod":"KP","rejstrikoveCisloUSKP":"15451/7-5249","prStavId":"125935","KodStavObjRUIAN":"12352594","adresa":"náměstí Zachariáše z Hradce 53"}},{"type":"Feature","geometry":{"type":"Point","coordinates":[15.453185,49.184168]},"properties":{"ref:npu":"1000126146","heritage":"3","heritage:operator":"npu","name":"měšťanský dům","typOchranyKod":"KP","rejstrikoveCisloUSKP":"15650/7-5249","prStavId":"126146","KodStavObjRUIAN":"12352195","adresa":"náměstí Zachariáše z Hradce 13"}},{"type":"Feature","geometry":{"type":"Point","coordinates":[15.453075,49.184232]},"properties":{"ref:npu":"1000127612","heritage":"3","heritage:operator":"npu","name":"měšťanský dům","typOchranyKod":"KP","rejstrikoveCisloUSKP":"17008/7-5249","prStavId":"127612","KodStavObjRUIAN":"12352179","adresa":"náměstí Zachariáše z Hradce 11"}},{"type":"Feature","geometry":{"type":"Point","coordinates":[15.453438,49.184731]},"properties":{"ref:npu":"1000128401","heritage":"3","heritage:operator":"npu","name":"měšťanský dům","typOchranyKod":"KP","rejstrikoveCisloUSKP":"17738/7-5249","prStavId":"128401","KodStavObjRUIAN":"12352713","adresa":"náměstí Zachariáše z Hradce 65"}},{"type":"Feature","geometry":{"type":"Point","coordinates":[15.45402,49.184442]},"properties":{"ref:npu":"1000128968","heritage":"3","heritage:operator":"npu","name":"měšťanský dům","typOchranyKod":"KP","rejstrikoveCisloUSKP":"18270/7-5249","prStavId":"128968","KodStavObjRUIAN":"12352659","adresa":"náměstí Zachariáše z Hradce 59"}},{"type":"Feature","geometry":{"type":"Point","coordinates":[15.455309,49.183896]},"properties":{"ref:npu":"1000130466","heritage":"3","heritage:operator":"npu","name":"měšťanský dům","typOchranyKod":"KP","rejstrikoveCisloUSKP":"19685/7-5249","prStavId":"130466","KodStavObjRUIAN":"12352527","adresa":"náměstí Zachariáše z Hradce 46"}},{"type":"Feature","geometry":{"type":"Point","coordinates":[15.454312,49.184328]},"properties":{"ref:npu":"1000129248","heritage":"3","heritage:operator":"npu","name":"měšťanský dům","typOchranyKod":"KP","rejstrikoveCisloUSKP":"18534/7-5249","prStavId":"129248","KodStavObjRUIAN":"12352624","adresa":"náměstí Zachariáše z Hradce 56"}},{"type":"Feature","geometry":{"type":"Point","coordinates":[15.453738,49.183546]},"properties":{"ref:npu":"1000132721","heritage":"3","heritage:operator":"npu","name":"měšťanský dům","typOchranyKod":"KP","rejstrikoveCisloUSKP":"21802/7-5249","prStavId":"132721","KodStavObjRUIAN":"12352276","adresa":"náměstí Zachariáše z Hradce 21"}},{"type":"Feature","geometry":{"type":"Point","coordinates":[15.452318,49.184592]},"properties":{"ref:npu":"1000132894","heritage":"3","heritage:operator":"npu","name":"měšťanský dům","typOchranyKod":"KP","rejstrikoveCisloUSKP":"21971/7-5249","prStavId":"132894","KodStavObjRUIAN":"12352110","adresa":"náměstí Zachariáše z Hradce 5"}},{"type":"Feature","geometry":{"type":"Point","coordinates":[15.453637,49.183769]},"properties":{"ref:npu":"1000132916","heritage":"3","heritage:operator":"npu","name":"měšťanský dům","typOchranyKod":"KP","rejstrikoveCisloUSKP":"21992/7-5249","prStavId":"132916","KodStavObjRUIAN":"12352241","adresa":"náměstí Zachariáše z Hradce 18"}},{"type":"Feature","geometry":{"type":"Point","coordinates":[15.453683,49.183694]},"properties":{"ref:npu":"1000133719","heritage":"3","heritage:operator":"npu","name":"měšťanský dům","typOchranyKod":"KP","rejstrikoveCisloUSKP":"22748/7-5249","prStavId":"133719","KodStavObjRUIAN":"12352250","adresa":"náměstí Zachariáše z Hradce 19"}},{"type":"Feature","geometry":{"type":"Point","coordinates":[15.451762,49.184865]},"properties":{"ref:npu":"1000134240","heritage":"3","heritage:operator":"npu","name":"kostel Jména Ježíš","typOchranyKod":"KP","rejstrikoveCisloUSKP":"23246/7-5249","prStavId":"134240","adresa":"náměstí Zachariáše z Hradce"}},{"type":"Feature","geometry":{"type":"Point","coordinates":[15.453711,49.18362]},"properties":{"ref:npu":"1000138960","heritage":"3","heritage:operator":"npu","name":"měšťanský dům","typOchranyKod":"KP","rejstrikoveCisloUSKP":"27700/7-5249","prStavId":"138960","KodStavObjRUIAN":"12352268","adresa":"náměstí Zachariáše z Hradce 20"}},{"type":"Feature","geometry":{"type":"Point","coordinates":[15.454823,49.184117]},"properties":{"ref:npu":"1000141484","heritage":"3","heritage:operator":"npu","name":"měšťanský dům","typOchranyKod":"KP","rejstrikoveCisloUSKP":"30070/7-5249","prStavId":"141484","KodStavObjRUIAN":"12352578","adresa":"náměstí Zachariáše z Hradce 51"}},{"type":"Feature","geometry":{"type":"Point","coordinates":[15.455211,49.183944]},"properties":{"ref:npu":"1000141536","heritage":"3","heritage:operator":"npu","name":"měšťanský dům","typOchranyKod":"KP","rejstrikoveCisloUSKP":"30117/7-5249","prStavId":"141536","KodStavObjRUIAN":"12352535","adresa":"náměstí Zachariáše z Hradce 47"}},{"type":"Feature","geometry":{"type":"Point","coordinates":[15.455017,49.184032]},"properties":{"ref:npu":"1000141643","heritage":"3","heritage:operator":"npu","name":"měšťanský dům","typOchranyKod":"KP","rejstrikoveCisloUSKP":"30214/7-5249","prStavId":"141643","KodStavObjRUIAN":"12352551","adresa":"náměstí Zachariáše z Hradce 49"}},{"type":"Feature","geometry":{"type":"Point","coordinates":[15.453539,49.183908]},"properties":{"ref:npu":"1000141886","heritage":"3","heritage:operator":"npu","name":"měšťanský dům","typOchranyKod":"KP","rejstrikoveCisloUSKP":"30439/7-5249","prStavId":"141886","KodStavObjRUIAN":"12352225","adresa":"náměstí Zachariáše z Hradce 16"}},{"type":"Feature","geometry":{"type":"Point","coordinates":[15.454116,49.18441]},"properties":{"ref:npu":"1000142773","heritage":"3","heritage:operator":"npu","name":"měšťanský dům","typOchranyKod":"KP","rejstrikoveCisloUSKP":"31269/7-5249","prStavId":"142773","KodStavObjRUIAN":"12352641","adresa":"náměstí Zachariáše z Hradce 58"}},{"type":"Feature","geometry":{"type":"Point","coordinates":[15.452419,49.184542]},"properties":{"ref:npu":"1000143808","heritage":"3","heritage:operator":"npu","name":"měšťanský dům","typOchranyKod":"KP","rejstrikoveCisloUSKP":"32250/7-5249","prStavId":"143808","KodStavObjRUIAN":"12352128","adresa":"náměstí Zachariáše z Hradce 6"}},{"type":"Feature","geometry":{"type":"Point","coordinates":[15.452704,49.184412]},"properties":{"ref:npu":"1000144225","heritage":"3","heritage:operator":"npu","name":"měšťanský dům","typOchranyKod":"KP","rejstrikoveCisloUSKP":"32631/7-5249","prStavId":"144225","KodStavObjRUIAN":"12352144","adresa":"náměstí Zachariáše z Hradce 8"}},{"type":"Feature","geometry":{"type":"Point","coordinates":[15.455294,49.183684]},"properties":{"ref:npu":"1000145191","heritage":"3","heritage:operator":"npu","name":"měšťanský dům","typOchranyKod":"KP","rejstrikoveCisloUSKP":"33541/7-5249","prStavId":"145191","KodStavObjRUIAN":"12352489","adresa":"náměstí Zachariáše z Hradce 42"}},{"type":"Feature","geometry":{"type":"Point","coordinates":[15.455192,49.183622]},"properties":{"ref:npu":"1000146776","heritage":"3","heritage:operator":"npu","name":"měšťanský dům","typOchranyKod":"KP","rejstrikoveCisloUSKP":"35029/7-5249","prStavId":"146776","KodStavObjRUIAN":"12352471","adresa":"náměstí Zachariáše z Hradce 41"}},{"type":"Feature","geometry":{"type":"Point","coordinates":[15.454424,49.18429]},"properties":{"ref:npu":"1000146962","heritage":"3","heritage:operator":"npu","name":"měšťanský dům","typOchranyKod":"KP","rejstrikoveCisloUSKP":"35198/7-5249","prStavId":"146962","KodStavObjRUIAN":"12352616","adresa":"náměstí Zachariáše z Hradce 55"}},{"type":"Feature","geometry":{"type":"Point","coordinates":[15.452566,49.184486]},"properties":{"ref:npu":"1000147046","heritage":"3","heritage:operator":"npu","name":"měšťanský dům","typOchranyKod":"KP","rejstrikoveCisloUSKP":"35277/7-5249","prStavId":"147046","KodStavObjRUIAN":"12352136","adresa":"náměstí Zachariáše z Hradce 7"}},{"type":"Feature","geometry":{"type":"Point","coordinates":[15.45512,49.183993]},"properties":{"ref:npu":"1000149041","heritage":"3","heritage:operator":"npu","name":"měšťanský dům","typOchranyKod":"KP","rejstrikoveCisloUSKP":"37139/7-5249","prStavId":"149041","KodStavObjRUIAN":"12352543","adresa":"náměstí Zachariáše z Hradce 48"}},{"type":"Feature","geometry":{"type":"Point","coordinates":[15.454716,49.184158]},"properties":{"ref:npu":"1000149479","heritage":"3","heritage:operator":"npu","name":"měšťanský dům","typOchranyKod":"KP","rejstrikoveCisloUSKP":"37558/7-5249","prStavId":"149479","KodStavObjRUIAN":"12352586","adresa":"náměstí Zachariáše z Hradce 52"}},{"type":"Feature","geometry":{"type":"Point","coordinates":[15.455388,49.183856]},"properties":{"ref:npu":"1000149620","heritage":"3","heritage:operator":"npu","name":"měšťanský dům","typOchranyKod":"KP","rejstrikoveCisloUSKP":"37693/7-5249","prStavId":"149620","KodStavObjRUIAN":"12352519","adresa":"náměstí Zachariáše z Hradce 45"}},{"type":"Feature","geometry":{"type":"Point","coordinates":[15.454529,49.184245]},"properties":{"ref:npu":"1000149850","heritage":"3","heritage:operator":"npu","name":"měšťanský dům","typOchranyKod":"KP","rejstrikoveCisloUSKP":"37910/7-5249","prStavId":"149850","KodStavObjRUIAN":"12352608","adresa":"náměstí Zachariáše z Hradce 54"}},{"type":"Feature","geometry":{"type":"Point","coordinates":[15.454926,49.184071]},"properties":{"ref:npu":"1000150021","heritage":"3","heritage:operator":"npu","name":"měšťanský dům","typOchranyKod":"KP","rejstrikoveCisloUSKP":"38064/7-5249","prStavId":"150021","KodStavObjRUIAN":"12352560","adresa":"náměstí Zachariáše z Hradce 50"}},{"type":"Feature","geometry":{"type":"Point","coordinates":[15.455444,49.183807]},"properties":{"ref:npu":"1000152789","heritage":"3","heritage:operator":"npu","name":"měšťanský dům","typOchranyKod":"KP","rejstrikoveCisloUSKP":"40708/7-5249","prStavId":"152789","KodStavObjRUIAN":"12352501","adresa":"náměstí Zachariáše z Hradce 44"}},{"type":"Feature","geometry":{"type":"Point","coordinates":[15.453249,49.184127]},"properties":{"ref:npu":"1000151967","heritage":"3","heritage:operator":"npu","name":"měšťanský dům","typOchranyKod":"KP","rejstrikoveCisloUSKP":"39921/7-5249","prStavId":"151967","KodStavObjRUIAN":"12352209","adresa":"náměstí Zachariáše z Hradce 14"}},{"type":"Feature","geometry":{"type":"Point","coordinates":[15.453336,49.184787]},"properties":{"ref:npu":"1000152359","heritage":"3","heritage:operator":"npu","name":"měšťanský dům","typOchranyKod":"KP","rejstrikoveCisloUSKP":"40300/7-5249","prStavId":"152359","KodStavObjRUIAN":"12352721","adresa":"náměstí Zachariáše z Hradce 66"}},{"type":"Feature","geometry":{"type":"Point","coordinates":[15.455488,49.183723]},"properties":{"ref:npu":"1000157177","heritage":"3","heritage:operator":"npu","name":"měšťanský dům","typOchranyKod":"KP","rejstrikoveCisloUSKP":"44784/7-5249","prStavId":"157177","KodStavObjRUIAN":"12352497","adresa":"náměstí Zachariáše z Hradce 43"}},{"type":"Feature","geometry":{"type":"Point","coordinates":[15.453532,49.184699]},"properties":{"ref:npu":"1000157453","heritage":"3","heritage:operator":"npu","name":"měšťanský dům","typOchranyKod":"KP","rejstrikoveCisloUSKP":"45042/7-5249","prStavId":"157453","KodStavObjRUIAN":"12352705","adresa":"náměstí Zachariáše z Hradce 64"}},{"type":"Feature","geometry":{"type":"Point","coordinates":[15.453582,49.183833]},"properties":{"ref:npu":"1000158358","heritage":"3","heritage:operator":"npu","name":"měšťanský dům","typOchranyKod":"KP","rejstrikoveCisloUSKP":"45888/7-5249","prStavId":"158358","KodStavObjRUIAN":"12352233","adresa":"náměstí Zachariáše z Hradce 17"}},{"type":"Feature","geometry":{"type":"Point","coordinates":[15.454206,49.184371]},"properties":{"ref:npu":"1000158498","heritage":"3","heritage:operator":"npu","name":"měšťanský dům","typOchranyKod":"KP","rejstrikoveCisloUSKP":"46019/7-5249","prStavId":"158498","KodStavObjRUIAN":"12352632","adresa":"náměstí Zachariáše z Hradce 57"}},{"type":"Feature","geometry":{"type":"Point","coordinates":[15.454202,49.177814]},"properties":{"ref:npu":"1000159193","heritage":"3","heritage:operator":"npu","name":"venkovská usedlost","typOchranyKod":"KP","rejstrikoveCisloUSKP":"46673/7-5288","prStavId":"159193","KodStavObjRUIAN":"12361933","adresa":"Zachariášova 97"}},{"type":"Feature","geometry":{"type":"Point","coordinates":[15.452391,49.164736]},"properties":{"ref:npu":"1000126198","heritage":"3","heritage:operator":"npu","name":"kříž","typOchranyKod":"KP","rejstrikoveCisloUSKP":"52333/7-5326","prStavId":"126198"}},{"type":"Feature","geometry":{"type":"Point","coordinates":[15.448285,49.186539]},"properties":{"ref:npu":"1548976872","heritage":"3","heritage:operator":"npu","name":"poklona s obrazem sv. Barbory","typOchranyKod":"KP","rejstrikoveCisloUSKP":"85853/7-5313","prStavId":"548976872"}},{"type":"Feature","geometry":{"type":"Point","coordinates":[15.450468,49.18482]},"properties":{"ref:npu":"1000124761","heritage":"3","heritage:operator":"npu","name":"jezuitský seminář","typOchranyKod":"KP","rejstrikoveCisloUSKP":"14409/7-5249","prStavId":"124761","KodStavObjRUIAN":"12352802","adresa":"náměstí Jana Kypty 74"}},{"type":"Feature","geometry":{"type":"Point","coordinates":[15.452235,49.186348]},"properties":{"ref:npu":"1000148248","heritage":"3","heritage:operator":"npu","name":"vodní mlýn","typOchranyKod":"KP","rejstrikoveCisloUSKP":"36394/7-5249","prStavId":"148248","KodStavObjRUIAN":"12357723","adresa":"Na Baště 102"}},{"type":"Feature","geometry":{"type":"Point","coordinates":[15.454963,49.183305]},"properties":{"ref:npu":"1000143225","heritage":"3","heritage:operator":"npu","name":"měšťanský dům","typOchranyKod":"KP","rejstrikoveCisloUSKP":"31691/7-5249","prStavId":"143225","KodStavObjRUIAN":"12352438","adresa":"Na Můstku 37"}},{"type":"Feature","geometry":{"type":"Point","coordinates":[15.454013,49.183306]},"properties":{"ref:npu":"1000158397","heritage":"3","heritage:operator":"npu","name":"měšťanský dům","typOchranyKod":"KP","rejstrikoveCisloUSKP":"45924/7-5249","prStavId":"158397","KodStavObjRUIAN":"12352306","adresa":"Palackého 24"}},{"type":"Feature","geometry":{"type":"Point","coordinates":[15.454084,49.183196]},"properties":{"ref:npu":"1000129405","heritage":"3","heritage:operator":"npu","name":"měšťanský dům","typOchranyKod":"KP","rejstrikoveCisloUSKP":"18684/7-5249","prStavId":"129405","KodStavObjRUIAN":"12352314","adresa":"Palackého 25"}},{"type":"Feature","geometry":{"type":"Point","coordinates":[15.454679,49.182908]},"properties":{"ref:npu":"1000148688","heritage":"3","heritage:operator":"npu","name":"měšťanský dům","typOchranyKod":"KP","rejstrikoveCisloUSKP":"36804/7-5249","prStavId":"148688","KodStavObjRUIAN":"12352349","adresa":"Palackého 28"}},{"type":"Feature","geometry":{"type":"Point","coordinates":[15.447525,49.186413]},"properties":{"ref:npu":"1000145910","heritage":"3","heritage:operator":"npu","name":"předměstský dům se zahradou a oplocením","typOchranyKod":"KP","rejstrikoveCisloUSKP":"34208/7-5267","prStavId":"145910","KodStavObjRUIAN":"12357634","adresa":"Slavatovská 93"}},{"type":"Feature","geometry":{"type":"Point","coordinates":[15.454499,49.183147]},"properties":{"ref:npu":"1000127278","heritage":"3","heritage:operator":"npu","name":"měšťanský dům","typOchranyKod":"KP","rejstrikoveCisloUSKP":"16699/7-5249","prStavId":"127278","KodStavObjRUIAN":"12352357","adresa":"Palackého 29"}},{"type":"Feature","geometry":{"type":"Point","coordinates":[15.454298,49.183366]},"properties":{"ref:npu":"1000140269","heritage":"3","heritage:operator":"npu","name":"měšťanský dům","typOchranyKod":"KP","rejstrikoveCisloUSKP":"28933/7-5249","prStavId":"140269","KodStavObjRUIAN":"12352365","adresa":"Palackého 30"}},{"type":"Feature","geometry":{"type":"Point","coordinates":[15.454226,49.183068]},"properties":{"ref:npu":"1000136327","heritage":"3","heritage:operator":"npu","name":"městský dům","typOchranyKod":"KP","rejstrikoveCisloUSKP":"25224/7-5249","prStavId":"136327","KodStavObjRUIAN":"12352322","adresa":"Hradební 26"}},{"type":"Feature","geometry":{"type":"Point","coordinates":[15.456615,49.177456]},"properties":{"ref:npu":"1000119548","heritage":"3","heritage:operator":"npu","name":"venkovská usedlost","typOchranyKod":"KP","rejstrikoveCisloUSKP":"10600/7-8621","prStavId":"119548","KodStavObjRUIAN":"12361526","adresa":"Zachariášova 53"}},{"type":"Feature","geometry":{"type":"Point","coordinates":[15.45258,49.184174]},"properties":{"ref:npu":"1000121533","heritage":"3","heritage:operator":"npu","name":"smírčí kříž","typOchranyKod":"KP","rejstrikoveCisloUSKP":"10264/7-8577","prStavId":"121533"}},{"type":"Feature","geometry":{"type":"Point","coordinates":[15.458786,49.176989]},"properties":{"ref:npu":"1000126094","heritage":"3","heritage:operator":"npu","name":"venkovská usedlost","typOchranyKod":"KP","rejstrikoveCisloUSKP":"15601/7-5282","prStavId":"126094","KodStavObjRUIAN":"12362310","adresa":"U Matky Boží 141"}},{"type":"Feature","geometry":{"type":"Point","coordinates":[15.448728,49.223925]},"properties":{"ref:npu":"1000126418","heritage":"3","heritage:operator":"npu","name":"boží muka","typOchranyKod":"KP","rejstrikoveCisloUSKP":"15900/7-5242","prStavId":"126418"}},{"type":"Feature","geometry":{"type":"Point","coordinates":[15.449054,49.189928]},"properties":{"ref:npu":"1000127579","heritage":"3","heritage:operator":"npu","name":"panská sýpka s ohradními zdmi, bránou a holubníkem","typOchranyKod":"KP","rejstrikoveCisloUSKP":"16978/7-5290","prStavId":"127579"}},{"type":"Feature","geometry":{"type":"Point","coordinates":[15.450381,49.186791]},"properties":{"ref:npu":"1000131244","heritage":"3","heritage:operator":"npu","name":"předměstský dům","typOchranyKod":"KP","rejstrikoveCisloUSKP":"20414/7-5266","prStavId":"131244","KodStavObjRUIAN":"12357669","adresa":"Slavatovská 96"}},{"type":"Feature","geometry":{"type":"Point","coordinates":[15.452452,49.186284]},"properties":{"ref:npu":"1000133286","heritage":"3","heritage:operator":"npu","name":"socha sv. Prokopa","typOchranyKod":"KP","rejstrikoveCisloUSKP":"22348/7-5308","prStavId":"133286"}},{"type":"Feature","geometry":{"type":"Point","coordinates":[15.460033,49.183157]},"properties":{"ref:npu":"1000133893","heritage":"3","heritage:operator":"npu","name":"vila","typOchranyKod":"KP","rejstrikoveCisloUSKP":"22913/7-5273","prStavId":"133893","KodStavObjRUIAN":"12353841","adresa":"Masarykova 58"}},{"type":"Feature","geometry":{"type":"Point","coordinates":[15.454673,49.182409]},"properties":{"ref:npu":"1000135763","heritage":"3","heritage:operator":"npu","name":"městské opevnění","typOchranyKod":"KP","rejstrikoveCisloUSKP":"24688/7-5249","prStavId":"135763","KodStavObjRUIAN":"12353141","adresa":"Palackého 114"}},{"type":"Feature","geometry":{"type":"Point","coordinates":[15.455677,49.175188]},"properties":{"ref:npu":"1000136220","heritage":"3","heritage:operator":"npu","name":"boží muka","typOchranyKod":"KP","rejstrikoveCisloUSKP":"25121/7-5319","prStavId":"136220"}},{"type":"Feature","geometry":{"type":"Point","coordinates":[15.470387,49.153107]},"properties":{"ref:npu":"1000136851","heritage":"3","heritage:operator":"npu","name":"boží muka","typOchranyKod":"KP","rejstrikoveCisloUSKP":"25721/7-5171","prStavId":"136851"}},{"type":"Feature","geometry":{"type":"Point","coordinates":[15.452939,49.184298]},"properties":{"ref:npu":"1000137449","heritage":"3","heritage:operator":"npu","name":"radnice","typOchranyKod":"KP","rejstrikoveCisloUSKP":"26284/7-5249","prStavId":"137449","KodStavObjRUIAN":"12352161","adresa":"náměstí Zachariáše z Hradce; Seminářská 10"}},{"type":"Feature","geometry":{"type":"Point","coordinates":[15.457598,49.183471]},"properties":{"ref:npu":"1000143443","heritage":"3","heritage:operator":"npu","name":"předměstský dům","typOchranyKod":"KP","rejstrikoveCisloUSKP":"31896/7-5274","prStavId":"143443","KodStavObjRUIAN":"12354431","adresa":"Svatoanenská 126"}},{"type":"Feature","geometry":{"type":"Point","coordinates":[15.455655,49.177694]},"properties":{"ref:npu":"1000143836","heritage":"3","heritage:operator":"npu","name":"venkovská usedlost","typOchranyKod":"KP","rejstrikoveCisloUSKP":"32276/7-5284","prStavId":"143836","KodStavObjRUIAN":"12361542","adresa":"Zachariášova 55"}},{"type":"Feature","geometry":{"type":"Point","coordinates":[15.452994,49.20257]},"properties":{"ref:npu":"1000143974","heritage":"3","heritage:operator":"npu","name":"kříž","typOchranyKod":"KP","rejstrikoveCisloUSKP":"32403/7-5324","prStavId":"143974"}},{"type":"Feature","geometry":{"type":"Point","coordinates":[15.457549,49.177883]},"properties":{"ref:npu":"1000144957","heritage":"3","heritage:operator":"npu","name":"socha archanděla Rafaela","typOchranyKod":"KP","rejstrikoveCisloUSKP":"33318/7-5302","prStavId":"144957"}},{"type":"Feature","geometry":{"type":"Point","coordinates":[15.45898,49.177005]},"properties":{"ref:npu":"1000150840","heritage":"3","heritage:operator":"npu","name":"venkovská usedlost","typOchranyKod":"KP","rejstrikoveCisloUSKP":"38834/7-5272","prStavId":"150840","KodStavObjRUIAN":"12361470","adresa":"Na Dlážkách 48"}},{"type":"Feature","geometry":{"type":"Point","coordinates":[15.45911,49.176852]},"properties":{"ref:npu":"1000151447","heritage":"3","heritage:operator":"npu","name":"venkovská usedlost","typOchranyKod":"KP","rejstrikoveCisloUSKP":"39420/7-5283","prStavId":"151447","KodStavObjRUIAN":"12361461","adresa":"U Matky Boží 47"}},{"type":"Feature","geometry":{"type":"Point","coordinates":[15.454749,49.186816]},"properties":{"ref:npu":"1000153991","heritage":"3","heritage:operator":"npu","name":"měšťanský dům","typOchranyKod":"KP","rejstrikoveCisloUSKP":"41861/7-5279","prStavId":"153991","KodStavObjRUIAN":"12356883","adresa":"Štěpnická 13"}},{"type":"Feature","geometry":{"type":"Point","coordinates":[15.46859,49.161197]},"properties":{"ref:npu":"1000158709","heritage":"3","heritage:operator":"npu","name":"boží muka","typOchranyKod":"KP","rejstrikoveCisloUSKP":"46217/7-5323","prStavId":"158709"}},{"type":"Feature","geometry":{"type":"Point","coordinates":[15.455128,49.186805]},"properties":{"ref:npu":"1000158945","heritage":"3","heritage:operator":"npu","name":"venkovská usedlost","typOchranyKod":"KP","rejstrikoveCisloUSKP":"46439/7-5280","prStavId":"158945","KodStavObjRUIAN":"12357782","adresa":"Štěpnická 108"}},{"type":"Feature","geometry":{"type":"Point","coordinates":[15.452513,49.181541]},"properties":{"ref:npu":"1016035947","heritage":"3","heritage:operator":"npu","name":"boží muka","typOchranyKod":"KP","rejstrikoveCisloUSKP":"20146/7-5317","prStavId":"16035947"}},{"type":"Feature","geometry":{"type":"Point","coordinates":[15.459602,49.171707]},"properties":{"ref:npu":"1038569712","heritage":"3","heritage:operator":"npu","name":"poklona","typOchranyKod":"KP","rejstrikoveCisloUSKP":"85856/7-5316","prStavId":"38569712"}},{"type":"Feature","geometry":{"type":"Point","coordinates":[15.437238,49.183762]},"properties":{"ref:npu":"1577045077","heritage":"3","heritage:operator":"npu","name":"poklona se soškou sv. Jana Nepomuckého","typOchranyKod":"KP","rejstrikoveCisloUSKP":"85854/7-5314","prStavId":"577045077"}},{"type":"Feature","geometry":{"type":"Point","coordinates":[15.449604,49.191001]},"properties":{"ref:npu":"1000124806","heritage":"3","heritage:operator":"npu","name":"vodní mlýn Kotnov","typOchranyKod":"KP","rejstrikoveCisloUSKP":"14452/7-5328","prStavId":"124806","KodStavObjRUIAN":"12357499","adresa":"Na Kotnově 79"}},{"type":"Feature","geometry":{"type":"Point","coordinates":[15.440065,49.184303]},"properties":{"ref:npu":"1000129604","heritage":"3","heritage:operator":"npu","name":"socha sv. Jana Nepomuckého","typOchranyKod":"KP","rejstrikoveCisloUSKP":"18874/7-5310","prStavId":"129604"}},{"type":"Feature","geometry":{"type":"Point","coordinates":[15.457331,49.176971]},"properties":{"ref:npu":"1000132068","heritage":"3","heritage:operator":"npu","name":"venkovská usedlost","typOchranyKod":"KP","rejstrikoveCisloUSKP":"21198/7-5287","prStavId":"132068","KodStavObjRUIAN":"12361399","adresa":"Zachariášova 39"}},{"type":"Feature","geometry":{"type":"Point","coordinates":[15.456137,49.177348]},"properties":{"ref:npu":"1000136412","heritage":"3","heritage:operator":"npu","name":"venkovská usedlost","typOchranyKod":"KP","rejstrikoveCisloUSKP":"25306/7-5286","prStavId":"136412","KodStavObjRUIAN":"12361348","adresa":"Zachariášova 34"}},{"type":"Feature","geometry":{"type":"Point","coordinates":[15.452617,49.185802]},"properties":{"ref:npu":"1000148045","heritage":"3","heritage:operator":"npu","name":"výklenkové kapličky","typOchranyKod":"KP","rejstrikoveCisloUSKP":"36204/7-5311","prStavId":"148045"}},{"type":"Feature","geometry":{"type":"Point","coordinates":[15.450759,49.185119]},"properties":{"ref:npu":"1000159414","heritage":"3","heritage:operator":"npu","name":"kostel sv. Jakuba Staršího s věží a křížovou chodbou","typOchranyKod":"KP","rejstrikoveCisloUSKP":"46883/7-5249","prStavId":"159414","KodStavObjRUIAN":"45845336","adresa":"náměstí Jana Kypty"}},{"type":"Feature","geometry":{"type":"Point","coordinates":[15.456034,49.213785]},"properties":{"ref:npu":"1000142627","heritage":"3","heritage:operator":"npu","name":"kostel sv. Vojtěcha","typOchranyKod":"KP","rejstrikoveCisloUSKP":"31130/7-5241","prStavId":"142627","KodStavObjRUIAN":"39698521","adresa":"náměstí Zachariáše z Hradce"}},{"type":"Feature","geometry":{"type":"Point","coordinates":[15.451643,49.18667]},"properties":{"ref:npu":"1000132436","heritage":"3","heritage:operator":"npu","name":"předměstský dům","typOchranyKod":"KP","rejstrikoveCisloUSKP":"21542/7-5263","prStavId":"132436","KodStavObjRUIAN":"12358061","adresa":"Slavatovská 137"}},{"type":"Feature","geometry":{"type":"Point","coordinates":[15.45135,49.186703]},"properties":{"ref:npu":"1000128992","heritage":"3","heritage:operator":"npu","name":"předměstský dům","typOchranyKod":"KP","rejstrikoveCisloUSKP":"18292/7-5264","prStavId":"128992","KodStavObjRUIAN":"12357685","adresa":"Slavatovská 98"}},{"type":"Feature","geometry":{"type":"Point","coordinates":[15.451115,49.186743]},"properties":{"ref:npu":"1000150108","heritage":"3","heritage:operator":"npu","name":"předměstský dům","typOchranyKod":"KP","rejstrikoveCisloUSKP":"38143/7-5265","prStavId":"150108","KodStavObjRUIAN":"12357928","adresa":"Slavatovská 123"}},{"type":"Feature","geometry":{"type":"Point","coordinates":[15.454558,49.186884]},"properties":{"ref:npu":"1000157322","heritage":"3","heritage:operator":"npu","name":"předměstský dům","typOchranyKod":"KP","rejstrikoveCisloUSKP":"44919/7-5278","prStavId":"157322","KodStavObjRUIAN":"12357791","adresa":"Štěpnická 109"}},{"type":"Feature","geometry":{"type":"Point","coordinates":[15.455127,49.182183]},"properties":{"ref:npu":"1000130358","heritage":"3","heritage:operator":"npu","name":"sousoší sv. Rodiny","typOchranyKod":"KP","rejstrikoveCisloUSKP":"19584/7-5293","prStavId":"130358"}},{"type":"Feature","geometry":{"type":"Point","coordinates":[15.446561,49.1828]},"properties":{"ref:npu":"1584844979","heritage":"3","heritage:operator":"npu","name":"výklenková kaplička","typOchranyKod":"KP","rejstrikoveCisloUSKP":"85855/7-5315","prStavId":"584844979"}},{"type":"Feature","geometry":{"type":"Point","coordinates":[15.465994,49.185504]},"properties":{"ref:npu":"1000131520","heritage":"3","heritage:operator":"npu","name":"boží muka","typOchranyKod":"KP","rejstrikoveCisloUSKP":"20677/7-5318","prStavId":"131520"}},{"type":"Feature","geometry":{"type":"Point","coordinates":[15.470307,49.186566]},"properties":{"ref:npu":"1000143068","heritage":"3","heritage:operator":"npu","name":"boží muka","typOchranyKod":"KP","rejstrikoveCisloUSKP":"31546/7-5321","prStavId":"143068"}},{"type":"Feature","geometry":{"type":"Point","coordinates":[15.474245,49.187872]},"properties":{"ref:npu":"1000157175","heritage":"3","heritage:operator":"npu","name":"boží muka","typOchranyKod":"KP","rejstrikoveCisloUSKP":"44782/7-5322","prStavId":"157175"}},{"type":"Feature","geometry":{"type":"Point","coordinates":[15.455328,49.182225]},"properties":{"ref:npu":"1000162797","heritage":"3","heritage:operator":"npu","name":"předměstský dům","typOchranyKod":"KP","rejstrikoveCisloUSKP":"49746/7-8816","prStavId":"162797","KodStavObjRUIAN":"12354066","adresa":"Svatoanenská 87"}},{"type":"Feature","geometry":{"type":"Point","coordinates":[15.461818,49.182752]},"properties":{"ref:npu":"1587573886","heritage":"3","heritage:operator":"npu","name":"sokolovna","typOchranyKod":"KP","rejstrikoveCisloUSKP":"103855","prStavId":"587573886","KodStavObjRUIAN":"12355313","adresa":"Masarykova 222"}},{"type":"Feature","geometry":{"type":"Point","coordinates":[15.453883,49.182984]},"properties":{"ref:npu":"1000151631","heritage":"3","heritage:operator":"npu","name":"městský dům","typOchranyKod":"KP","rejstrikoveCisloUSKP":"39598/7-5249","prStavId":"151631","KodStavObjRUIAN":"12352977","adresa":"Hradební 91"}},{"type":"Feature","geometry":{"type":"Point","coordinates":[15.450844,49.184646]},"properties":{"ref:npu":"1000127935","heritage":"3","heritage:operator":"npu","name":"měšťanský dům","typOchranyKod":"KP","rejstrikoveCisloUSKP":"17313/7-5249","prStavId":"127935","KodStavObjRUIAN":"12352811","adresa":"Seminářská 75"}},{"type":"Feature","geometry":{"type":"Point","coordinates":[15.450735,49.184665]},"properties":{"ref:npu":"1000129820","heritage":"3","heritage:operator":"npu","name":"městský dům","typOchranyKod":"KP","rejstrikoveCisloUSKP":"19081/7-5249","prStavId":"129820","KodStavObjRUIAN":"12353205","adresa":"Seminářská 120"}},{"type":"Feature","geometry":{"type":"Point","coordinates":[15.453013,49.184917]},"properties":{"ref:npu":"1000127379","heritage":"3","heritage:operator":"npu","name":"měšťanský dům","typOchranyKod":"KP","rejstrikoveCisloUSKP":"16791/7-5249","prStavId":"127379","KodStavObjRUIAN":"12352764","adresa":"náměstí Zachariáše z Hradce 70"}},{"type":"Feature","geometry":{"type":"Point","coordinates":[15.452154,49.18466]},"properties":{"ref:npu":"1000124853","heritage":"3","heritage:operator":"npu","name":"děkanství","typOchranyKod":"KP","rejstrikoveCisloUSKP":"14493/7-5249","prStavId":"124853","KodStavObjRUIAN":"12352101","adresa":"náměstí Zachariáše z Hradce 4"}},{"type":"Feature","geometry":{"type":"Point","coordinates":[15.451994,49.184789]},"properties":{"ref:npu":"1000140561","heritage":"3","heritage:operator":"npu","name":"jezuitské gymnázium se zahradou","typOchranyKod":"KP","rejstrikoveCisloUSKP":"29202/7-5249","prStavId":"140561","KodStavObjRUIAN":"12352098","adresa":"náměstí Zachariáše z Hradce 3"}},{"type":"Feature","geometry":{"type":"Point","coordinates":[15.451077,49.184678]},"properties":{"ref:npu":"1000154319","heritage":"3","heritage:operator":"npu","name":"jezuitská kolej","typOchranyKod":"KP","rejstrikoveCisloUSKP":"42167/7-5249","prStavId":"154319","KodStavObjRUIAN":"12352080","adresa":"náměstí Zachariáše z Hradce 2"}},{"type":"Feature","geometry":{"type":"Point","coordinates":[15.453879,49.183508]},"properties":{"ref:npu":"1000149412","heritage":"3","heritage:operator":"npu","name":"měšťanský dům","typOchranyKod":"KP","rejstrikoveCisloUSKP":"37494/7-5249","prStavId":"149412","KodStavObjRUIAN":"12352284","adresa":"náměstí Zachariáše z Hradce 22"}},{"type":"Feature","geometry":{"type":"Point","coordinates":[15.454403,49.183402]},"properties":{"ref:npu":"1000131277","heritage":"3","heritage:operator":"npu","name":"měšťanský dům","typOchranyKod":"KP","rejstrikoveCisloUSKP":"20447/7-5249","prStavId":"131277","KodStavObjRUIAN":"12352373","adresa":"náměstí Zachariáše z Hradce 31"}},{"type":"Feature","geometry":{"type":"Point","coordinates":[15.45435,49.18358]},"properties":{"ref:npu":"1000132876","heritage":"3","heritage:operator":"npu","name":"měšťanský dům","typOchranyKod":"KP","rejstrikoveCisloUSKP":"21953/7-5249","prStavId":"132876","KodStavObjRUIAN":"12352381","adresa":"náměstí Zachariáše z Hradce 32"}},{"type":"Feature","geometry":{"type":"Point","coordinates":[15.454678,49.183436]},"properties":{"ref:npu":"1000137012","heritage":"3","heritage:operator":"npu","name":"měšťanský dům","typOchranyKod":"KP","rejstrikoveCisloUSKP":"25873/7-5249","prStavId":"137012","KodStavObjRUIAN":"12352403","adresa":"náměstí Zachariáše z Hradce 34"}},{"type":"Feature","geometry":{"type":"Point","coordinates":[15.454978,49.18352]},"properties":{"ref:npu":"1000159573","heritage":"3","heritage:operator":"npu","name":"měšťanský dům","typOchranyKod":"KP","rejstrikoveCisloUSKP":"47029/7-5249","prStavId":"159573","KodStavObjRUIAN":"12352454","adresa":"náměstí Zachariáše z Hradce 39"}},{"type":"Feature","geometry":{"type":"Point","coordinates":[15.450627,49.192802]},"properties":{"ref:npu":"1000158044","heritage":"3","heritage:operator":"npu","name":"boží muka","typOchranyKod":"KP","rejstrikoveCisloUSKP":"45592/7-5320","prStavId":"158044"}},{"type":"Feature","geometry":{"type":"Point","coordinates":[15.454444,49.182749]},"properties":{"ref:npu":"1000150119","heritage":"3","heritage:operator":"npu","name":"městský dům","typOchranyKod":"KP","rejstrikoveCisloUSKP":"38152/7-5249","prStavId":"150119","KodStavObjRUIAN":"12353159","adresa":"Palackého 115"}},{"type":"Feature","geometry":{"type":"Point","coordinates":[15.454661,49.182821]},"properties":{"ref:npu":"1000154358","heritage":"3","heritage:operator":"npu","name":"městský dům","typOchranyKod":"KP","rejstrikoveCisloUSKP":"42204/7-5249","prStavId":"154358","KodStavObjRUIAN":"12353167","adresa":"Palackého 116"}},{"type":"Feature","geometry":{"type":"Point","coordinates":[15.452826,49.184955]},"properties":{"ref:npu":"1000135530","heritage":"3","heritage:operator":"npu","name":"panská sýpka","typOchranyKod":"KP","rejstrikoveCisloUSKP":"24465/7-5249","prStavId":"135530","KodStavObjRUIAN":"12352772","adresa":"náměstí Zachariáše z Hradce 71"}}]}