{"type":"FeatureCollection","features":[{"type":"Feature","properties":{"amenity":"bicycle_parking","OBJECTID":203,"BOD":16,"POPIS":"stojan na kola"},"geometry":{"type":"Point","coordinates":[18.2891046,49.8380155]}},{"type":"Feature","properties":{"amenity":"bicycle_parking","OBJECTID":205,"BOD":11,"POPIS":"uzamykatelný stojan na kola"},"geometry":{"type":"Point","coordinates":[18.3407996,49.8424754]}},{"type":"Feature","properties":{"amenity":"bicycle_parking","OBJECTID":209,"BOD":16,"POPIS":"stojan na kola"},"geometry":{"type":"Point","coordinates":[18.2921725,49.8425187]}},{"type":"Feature","properties":{"amenity":"bicycle_parking","OBJECTID":211,"BOD":11,"POPIS":"uzamykatelný stojan na kola"},"geometry":{"type":"Point","coordinates":[18.1534336,49.8379317]}},{"type":"Feature","properties":{"amenity":"bicycle_parking","OBJECTID":213,"BOD":16,"POPIS":"stojan na kola"},"geometry":{"type":"Point","coordinates":[18.2107451,49.8447978]}},{"type":"Feature","properties":{"amenity":"bicycle_parking","OBJECTID":215,"BOD":11,"POPIS":"uzamykatelný stojan na kola"},"geometry":{"type":"Point","coordinates":[18.2152448,49.8471566]}},{"type":"Feature","properties":{"amenity":"bicycle_parking","OBJECTID":217,"BOD":11,"POPIS":"uzamykatelný stojan na kola"},"geometry":{"type":"Point","coordinates":[18.2154144,49.8479896]}},{"type":"Feature","properties":{"amenity":"bicycle_parking","OBJECTID":218,"BOD":11,"POPIS":"uzamykatelný stojan na kola"},"geometry":{"type":"Point","coordinates":[18.2682975,49.8514715]}},{"type":"Feature","properties":{"amenity":"bicycle_parking","OBJECTID":220,"BOD":11,"POPIS":"uzamykatelný stojan na kola"},"geometry":{"type":"Point","coordinates":[18.1233193,49.84526]}},{"type":"Feature","properties":{"amenity":"bicycle_parking","OBJECTID":222,"BOD":11,"POPIS":"uzamykatelný stojan na kola"},"geometry":{"type":"Point","coordinates":[18.1467775,49.8641755]}},{"type":"Feature","properties":{"amenity":"bicycle_parking","OBJECTID":226,"BOD":11,"POPIS":"uzamykatelný stojan na kola"},"geometry":{"type":"Point","coordinates":[18.1933873,49.7485433]}},{"type":"Feature","properties":{"amenity":"bicycle_parking","OBJECTID":227,"BOD":11,"POPIS":"uzamykatelný stojan na kola"},"geometry":{"type":"Point","coordinates":[18.2536543,49.7539536]}},{"type":"Feature","properties":{"amenity":"bicycle_parking","OBJECTID":235,"BOD":11,"POPIS":"uzamykatelný stojan na kola"},"geometry":{"type":"Point","coordinates":[18.2802042,49.7756251]}},{"type":"Feature","properties":{"amenity":"bicycle_parking","OBJECTID":245,"BOD":16,"POPIS":"stojan na kola"},"geometry":{"type":"Point","coordinates":[18.2636326,49.8287262]}},{"type":"Feature","properties":{"amenity":"bicycle_parking","OBJECTID":6,"BOD":11,"POPIS":"uzamykatelný stojan na kola"},"geometry":{"type":"Point","coordinates":[18.2402206,49.7615521]}},{"type":"Feature","properties":{"amenity":"bicycle_parking","OBJECTID":7,"BOD":11,"POPIS":"uzamykatelný stojan na kola"},"geometry":{"type":"Point","coordinates":[18.2373218,49.7623421]}},{"type":"Feature","properties":{"amenity":"bicycle_parking","OBJECTID":8,"BOD":16,"POPIS":"stojan na kola"},"geometry":{"type":"Point","coordinates":[18.2388259,49.7643387]}},{"type":"Feature","properties":{"amenity":"bicycle_parking","OBJECTID":12,"BOD":16,"POPIS":"stojan na kola"},"geometry":{"type":"Point","coordinates":[18.2212438,49.7781035]}},{"type":"Feature","properties":{"amenity":"bicycle_parking","OBJECTID":13,"BOD":11,"POPIS":"uzamykatelný stojan na kola"},"geometry":{"type":"Point","coordinates":[18.2593236,49.7807103]}},{"type":"Feature","properties":{"amenity":"bicycle_parking","OBJECTID":14,"BOD":11,"POPIS":"uzamykatelný stojan na kola"},"geometry":{"type":"Point","coordinates":[18.2205177,49.7792548]}},{"type":"Feature","properties":{"amenity":"bicycle_parking","OBJECTID":15,"BOD":16,"POPIS":"stojan na kola"},"geometry":{"type":"Point","coordinates":[18.2593939,49.7842717]}},{"type":"Feature","properties":{"amenity":"bicycle_parking","OBJECTID":22,"BOD":11,"POPIS":"uzamykatelný stojan na kola"},"geometry":{"type":"Point","coordinates":[18.2622036,49.8028084]}},{"type":"Feature","properties":{"amenity":"bicycle_parking","OBJECTID":24,"BOD":11,"POPIS":"uzamykatelný stojan na kola"},"geometry":{"type":"Point","coordinates":[18.294144,49.8083993]}},{"type":"Feature","properties":{"amenity":"bicycle_parking","OBJECTID":26,"BOD":11,"POPIS":"uzamykatelný stojan na kola"},"geometry":{"type":"Point","coordinates":[18.2696814,49.8112542]}},{"type":"Feature","properties":{"amenity":"bicycle_parking","OBJECTID":27,"BOD":11,"POPIS":"uzamykatelný stojan na kola"},"geometry":{"type":"Point","coordinates":[18.2238339,49.8143952]}},{"type":"Feature","properties":{"amenity":"bicycle_parking","OBJECTID":29,"BOD":11,"POPIS":"uzamykatelný stojan na kola"},"geometry":{"type":"Point","coordinates":[18.2896547,49.8320763]}},{"type":"Feature","properties":{"amenity":"bicycle_parking","OBJECTID":30,"BOD":11,"POPIS":"uzamykatelný stojan na kola"},"geometry":{"type":"Point","coordinates":[18.2890403,49.8322608]}},{"type":"Feature","properties":{"amenity":"bicycle_parking","OBJECTID":32,"BOD":11,"POPIS":"uzamykatelný stojan na kola"},"geometry":{"type":"Point","coordinates":[18.3469341,49.8399128]}},{"type":"Feature","properties":{"amenity":"bicycle_parking","covered":"yes","OBJECTID":33,"BOD":17,"POPIS":"přístřešek na kola"},"geometry":{"type":"Point","coordinates":[18.2605316,49.8361674]}},{"type":"Feature","properties":{"amenity":"bicycle_parking","OBJECTID":34,"BOD":16,"POPIS":"stojan na kola"},"geometry":{"type":"Point","coordinates":[18.2919841,49.839732]}},{"type":"Feature","properties":{"amenity":"bicycle_parking","OBJECTID":35,"BOD":11,"POPIS":"uzamykatelný stojan na kola"},"geometry":{"type":"Point","coordinates":[18.3421469,49.8430457]}},{"type":"Feature","properties":{"amenity":"bicycle_parking","OBJECTID":36,"BOD":11,"POPIS":"uzamykatelný stojan na kola"},"geometry":{"type":"Point","coordinates":[18.288029,49.8415439]}},{"type":"Feature","properties":{"amenity":"bicycle_parking","OBJECTID":41,"BOD":11,"POPIS":"uzamykatelný stojan na kola"},"geometry":{"type":"Point","coordinates":[18.1635432,49.8405328]}},{"type":"Feature","properties":{"amenity":"bicycle_parking","OBJECTID":42,"BOD":16,"POPIS":"stojan na kola"},"geometry":{"type":"Point","coordinates":[18.1660495,49.8407522]}},{"type":"Feature","properties":{"amenity":"bicycle_parking","OBJECTID":43,"BOD":11,"POPIS":"uzamykatelný stojan na kola"},"geometry":{"type":"Point","coordinates":[18.2119647,49.8469846]}},{"type":"Feature","properties":{"amenity":"bicycle_parking","OBJECTID":44,"BOD":16,"POPIS":"stojan na kola"},"geometry":{"type":"Point","coordinates":[18.2694059,49.8512615]}},{"type":"Feature","properties":{"amenity":"bicycle_parking","OBJECTID":45,"BOD":11,"POPIS":"uzamykatelný stojan na kola"},"geometry":{"type":"Point","coordinates":[18.3290272,49.8596895]}},{"type":"Feature","properties":{"amenity":"bicycle_parking","OBJECTID":49,"BOD":11,"POPIS":"uzamykatelný stojan na kola"},"geometry":{"type":"Point","coordinates":[18.2610886,49.8661579]}},{"type":"Feature","properties":{"amenity":"bicycle_parking","OBJECTID":60,"BOD":11,"POPIS":"uzamykatelný stojan na kola"},"geometry":{"type":"Point","coordinates":[18.2383551,49.763385]}},{"type":"Feature","properties":{"amenity":"bicycle_parking","OBJECTID":62,"BOD":11,"POPIS":"uzamykatelný stojan na kola"},"geometry":{"type":"Point","coordinates":[18.2770152,49.7790601]}},{"type":"Feature","properties":{"amenity":"bicycle_parking","OBJECTID":63,"BOD":16,"POPIS":"stojan na kola"},"geometry":{"type":"Point","coordinates":[18.2469134,49.7775569]}},{"type":"Feature","properties":{"amenity":"bicycle_parking","OBJECTID":64,"BOD":11,"POPIS":"uzamykatelný stojan na kola"},"geometry":{"type":"Point","coordinates":[18.347483,49.790289]}},{"type":"Feature","properties":{"amenity":"bicycle_parking","OBJECTID":65,"BOD":11,"POPIS":"uzamykatelný stojan na kola"},"geometry":{"type":"Point","coordinates":[18.2569763,49.7856529]}},{"type":"Feature","properties":{"amenity":"bicycle_parking","OBJECTID":70,"BOD":16,"POPIS":"stojan na kola"},"geometry":{"type":"Point","coordinates":[18.2389825,49.7914626]}},{"type":"Feature","properties":{"amenity":"bicycle_parking","OBJECTID":71,"BOD":16,"POPIS":"stojan na kola"},"geometry":{"type":"Point","coordinates":[18.2387858,49.7919843]}},{"type":"Feature","properties":{"amenity":"bicycle_parking","OBJECTID":73,"BOD":11,"POPIS":"uzamykatelný stojan na kola"},"geometry":{"type":"Point","coordinates":[18.2610998,49.7977035]}},{"type":"Feature","properties":{"amenity":"bicycle_parking","OBJECTID":77,"BOD":11,"POPIS":"uzamykatelný stojan na kola"},"geometry":{"type":"Point","coordinates":[18.3322489,49.824743]}},{"type":"Feature","properties":{"amenity":"bicycle_parking","OBJECTID":85,"BOD":11,"POPIS":"uzamykatelný stojan na kola"},"geometry":{"type":"Point","coordinates":[18.2948921,49.8372185]}},{"type":"Feature","properties":{"amenity":"bicycle_parking","OBJECTID":87,"BOD":11,"POPIS":"uzamykatelný stojan na kola"},"geometry":{"type":"Point","coordinates":[18.1948816,49.833947]}},{"type":"Feature","properties":{"amenity":"bicycle_parking","OBJECTID":88,"BOD":11,"POPIS":"uzamykatelný stojan na kola"},"geometry":{"type":"Point","coordinates":[18.1946313,49.8343516]}},{"type":"Feature","properties":{"amenity":"bicycle_parking","OBJECTID":89,"BOD":11,"POPIS":"uzamykatelný stojan na kola"},"geometry":{"type":"Point","coordinates":[18.196235,49.8345636]}},{"type":"Feature","properties":{"amenity":"bicycle_parking","OBJECTID":90,"BOD":11,"POPIS":"uzamykatelný stojan na kola"},"geometry":{"type":"Point","coordinates":[18.1970712,49.8359452]}},{"type":"Feature","properties":{"amenity":"bicycle_parking","OBJECTID":93,"BOD":11,"POPIS":"uzamykatelný stojan na kola"},"geometry":{"type":"Point","coordinates":[18.1537044,49.838167]}},{"type":"Feature","properties":{"amenity":"bicycle_parking","OBJECTID":94,"BOD":16,"POPIS":"stojan na kola"},"geometry":{"type":"Point","coordinates":[18.1689672,49.8443472]}},{"type":"Feature","properties":{"amenity":"bicycle_parking","OBJECTID":95,"BOD":11,"POPIS":"uzamykatelný stojan na kola"},"geometry":{"type":"Point","coordinates":[18.2683608,49.8503136]}},{"type":"Feature","properties":{"amenity":"bicycle_parking","OBJECTID":99,"BOD":11,"POPIS":"uzamykatelný stojan na kola"},"geometry":{"type":"Point","coordinates":[18.3303113,49.8589324]}},{"type":"Feature","properties":{"amenity":"bicycle_parking","OBJECTID":100,"BOD":16,"POPIS":"stojan na kola"},"geometry":{"type":"Point","coordinates":[18.229677,49.8563145]}},{"type":"Feature","properties":{"amenity":"bicycle_parking","OBJECTID":101,"BOD":16,"POPIS":"stojan na kola"},"geometry":{"type":"Point","coordinates":[18.2283555,49.8569219]}},{"type":"Feature","properties":{"amenity":"bicycle_parking","OBJECTID":112,"BOD":11,"POPIS":"uzamykatelný stojan na kola"},"geometry":{"type":"Point","coordinates":[18.1993379,49.7516176]}},{"type":"Feature","properties":{"amenity":"bicycle_parking","OBJECTID":113,"BOD":11,"POPIS":"uzamykatelný stojan na kola"},"geometry":{"type":"Point","coordinates":[18.1991512,49.7524159]}},{"type":"Feature","properties":{"amenity":"bicycle_parking","OBJECTID":116,"BOD":11,"POPIS":"uzamykatelný stojan na kola"},"geometry":{"type":"Point","coordinates":[18.2490153,49.7767362]}},{"type":"Feature","properties":{"amenity":"bicycle_parking","OBJECTID":117,"BOD":11,"POPIS":"uzamykatelný stojan na kola"},"geometry":{"type":"Point","coordinates":[18.2742269,49.7811339]}},{"type":"Feature","properties":{"amenity":"bicycle_parking","OBJECTID":118,"BOD":16,"POPIS":"stojan na kola"},"geometry":{"type":"Point","coordinates":[18.259427,49.7806912]}},{"type":"Feature","properties":{"amenity":"bicycle_parking","OBJECTID":131,"BOD":11,"POPIS":"uzamykatelný stojan na kola"},"geometry":{"type":"Point","coordinates":[18.1920589,49.815137]}},{"type":"Feature","properties":{"amenity":"bicycle_parking","OBJECTID":133,"BOD":11,"POPIS":"uzamykatelný stojan na kola"},"geometry":{"type":"Point","coordinates":[18.2043388,49.8190132]}},{"type":"Feature","properties":{"amenity":"bicycle_parking","OBJECTID":135,"BOD":11,"POPIS":"uzamykatelný stojan na kola"},"geometry":{"type":"Point","coordinates":[18.2280827,49.8247442]}},{"type":"Feature","properties":{"amenity":"bicycle_parking","OBJECTID":138,"BOD":11,"POPIS":"uzamykatelný stojan na kola"},"geometry":{"type":"Point","coordinates":[18.2878646,49.8328138]}},{"type":"Feature","properties":{"amenity":"bicycle_parking","OBJECTID":139,"BOD":16,"POPIS":"stojan na kola"},"geometry":{"type":"Point","coordinates":[18.2722666,49.8320228]}},{"type":"Feature","properties":{"amenity":"bicycle_parking","OBJECTID":140,"BOD":11,"POPIS":"uzamykatelný stojan na kola"},"geometry":{"type":"Point","coordinates":[18.2780114,49.8325332]}},{"type":"Feature","properties":{"amenity":"bicycle_parking","OBJECTID":145,"BOD":11,"POPIS":"uzamykatelný stojan na kola"},"geometry":{"type":"Point","coordinates":[18.3425027,49.842004]}},{"type":"Feature","properties":{"amenity":"bicycle_parking","OBJECTID":146,"BOD":16,"POPIS":"stojan na kola"},"geometry":{"type":"Point","coordinates":[18.2967744,49.8400788]}},{"type":"Feature","properties":{"amenity":"bicycle_parking","OBJECTID":160,"BOD":11,"POPIS":"uzamykatelný stojan na kola"},"geometry":{"type":"Point","coordinates":[18.148126,49.8623006]}},{"type":"Feature","properties":{"amenity":"bicycle_parking","OBJECTID":164,"BOD":16,"POPIS":"stojan na kola"},"geometry":{"type":"Point","coordinates":[18.258638,49.8755354]}},{"type":"Feature","properties":{"amenity":"bicycle_parking","OBJECTID":173,"BOD":11,"POPIS":"uzamykatelný stojan na kola"},"geometry":{"type":"Point","coordinates":[18.2529018,49.7563253]}},{"type":"Feature","properties":{"amenity":"bicycle_parking","OBJECTID":176,"BOD":16,"POPIS":"stojan na kola"},"geometry":{"type":"Point","coordinates":[18.2485576,49.7738429]}},{"type":"Feature","properties":{"amenity":"bicycle_parking","OBJECTID":177,"BOD":16,"POPIS":"stojan na kola"},"geometry":{"type":"Point","coordinates":[18.252716,49.7788038]}},{"type":"Feature","properties":{"amenity":"bicycle_parking","OBJECTID":178,"BOD":11,"POPIS":"uzamykatelný stojan na kola"},"geometry":{"type":"Point","coordinates":[18.2242285,49.7785716]}},{"type":"Feature","properties":{"amenity":"bicycle_parking","OBJECTID":179,"BOD":16,"POPIS":"stojan na kola"},"geometry":{"type":"Point","coordinates":[18.1701469,49.7775058]}},{"type":"Feature","properties":{"amenity":"bicycle_parking","OBJECTID":184,"BOD":16,"POPIS":"stojan na kola"},"geometry":{"type":"Point","coordinates":[18.227336,49.7888386]}},{"type":"Feature","properties":{"amenity":"bicycle_parking","OBJECTID":185,"BOD":11,"POPIS":"uzamykatelný stojan na kola"},"geometry":{"type":"Point","coordinates":[18.2895279,49.7926668]}},{"type":"Feature","properties":{"amenity":"bicycle_parking","OBJECTID":186,"BOD":11,"POPIS":"uzamykatelný stojan na kola"},"geometry":{"type":"Point","coordinates":[18.2381342,49.7913326]}},{"type":"Feature","properties":{"amenity":"bicycle_parking","OBJECTID":188,"BOD":11,"POPIS":"uzamykatelný stojan na kola"},"geometry":{"type":"Point","coordinates":[18.2628293,49.8009065]}},{"type":"Feature","properties":{"amenity":"bicycle_parking","OBJECTID":192,"BOD":11,"POPIS":"uzamykatelný stojan na kola"},"geometry":{"type":"Point","coordinates":[18.3366946,49.8165991]}},{"type":"Feature","properties":{"amenity":"bicycle_parking","OBJECTID":193,"BOD":11,"POPIS":"uzamykatelný stojan na kola"},"geometry":{"type":"Point","coordinates":[18.1944692,49.8114587]}},{"type":"Feature","properties":{"amenity":"bicycle_parking","OBJECTID":194,"BOD":11,"POPIS":"uzamykatelný stojan na kola"},"geometry":{"type":"Point","coordinates":[18.3256432,49.8192995]}},{"type":"Feature","properties":{"amenity":"bicycle_parking","OBJECTID":195,"BOD":11,"POPIS":"uzamykatelný stojan na kola"},"geometry":{"type":"Point","coordinates":[18.1966558,49.8141988]}},{"type":"Feature","properties":{"amenity":"bicycle_parking","OBJECTID":197,"BOD":16,"POPIS":"stojan na kola"},"geometry":{"type":"Point","coordinates":[18.1659292,49.8228631]}},{"type":"Feature","properties":{"amenity":"bicycle_parking","covered":"yes","OBJECTID":251,"BOD":17,"POPIS":"přístřešek na kola"},"geometry":{"type":"Point","coordinates":[18.1740468,49.8281003]}},{"type":"Feature","properties":{"amenity":"bicycle_parking","OBJECTID":252,"BOD":11,"POPIS":"uzamykatelný stojan na kola"},"geometry":{"type":"Point","coordinates":[18.2615118,49.834853]}},{"type":"Feature","properties":{"amenity":"bicycle_parking","OBJECTID":253,"BOD":11,"POPIS":"uzamykatelný stojan na kola"},"geometry":{"type":"Point","coordinates":[18.2944807,49.8370197]}},{"type":"Feature","properties":{"amenity":"bicycle_parking","OBJECTID":254,"BOD":16,"POPIS":"stojan na kola"},"geometry":{"type":"Point","coordinates":[18.2591366,49.8356059]}},{"type":"Feature","properties":{"amenity":"bicycle_parking","OBJECTID":256,"BOD":16,"POPIS":"stojan na kola"},"geometry":{"type":"Point","coordinates":[18.3026197,49.839744]}},{"type":"Feature","properties":{"amenity":"bicycle_parking","OBJECTID":257,"BOD":11,"POPIS":"uzamykatelný stojan na kola"},"geometry":{"type":"Point","coordinates":[18.1957847,49.8342015]}},{"type":"Feature","properties":{"amenity":"bicycle_parking","OBJECTID":258,"BOD":11,"POPIS":"uzamykatelný stojan na kola"},"geometry":{"type":"Point","coordinates":[18.2929083,49.8402217]}},{"type":"Feature","properties":{"amenity":"bicycle_parking","OBJECTID":260,"BOD":16,"POPIS":"stojan na kola"},"geometry":{"type":"Point","coordinates":[18.1977736,49.8395136]}},{"type":"Feature","properties":{"amenity":"bicycle_parking","OBJECTID":261,"BOD":11,"POPIS":"uzamykatelný stojan na kola"},"geometry":{"type":"Point","coordinates":[18.1685368,49.8408498]}},{"type":"Feature","properties":{"amenity":"bicycle_parking","OBJECTID":263,"BOD":11,"POPIS":"uzamykatelný stojan na kola"},"geometry":{"type":"Point","coordinates":[18.1625742,49.8413455]}},{"type":"Feature","properties":{"amenity":"bicycle_parking","OBJECTID":265,"BOD":11,"POPIS":"uzamykatelný stojan na kola"},"geometry":{"type":"Point","coordinates":[18.2124109,49.8461303]}},{"type":"Feature","properties":{"amenity":"bicycle_parking","OBJECTID":266,"BOD":16,"POPIS":"stojan na kola"},"geometry":{"type":"Point","coordinates":[18.1210065,49.8415273]}},{"type":"Feature","properties":{"amenity":"bicycle_parking","OBJECTID":268,"BOD":11,"POPIS":"uzamykatelný stojan na kola"},"geometry":{"type":"Point","coordinates":[18.2331717,49.8561473]}},{"type":"Feature","properties":{"amenity":"bicycle_parking","OBJECTID":272,"BOD":11,"POPIS":"uzamykatelný stojan na kola"},"geometry":{"type":"Point","coordinates":[18.1482929,49.862556]}},{"type":"Feature","properties":{"amenity":"bicycle_parking","OBJECTID":274,"BOD":11,"POPIS":"uzamykatelný stojan na kola"},"geometry":{"type":"Point","coordinates":[18.2589518,49.8759869]}},{"type":"Feature","properties":{"amenity":"bicycle_parking","OBJECTID":281,"BOD":11,"POPIS":"uzamykatelný stojan na kola"},"geometry":{"type":"Point","coordinates":[18.2393478,49.7599073]}},{"type":"Feature","properties":{"amenity":"bicycle_parking","OBJECTID":284,"BOD":16,"POPIS":"stojan na kola"},"geometry":{"type":"Point","coordinates":[18.2336509,49.7642425]}},{"type":"Feature","properties":{"amenity":"bicycle_parking","OBJECTID":292,"BOD":11,"POPIS":"uzamykatelný stojan na kola"},"geometry":{"type":"Point","coordinates":[18.3461532,49.790284]}},{"type":"Feature","properties":{"amenity":"bicycle_parking","OBJECTID":294,"BOD":16,"POPIS":"stojan na kola"},"geometry":{"type":"Point","coordinates":[18.25895,49.7903182]}},{"type":"Feature","properties":{"amenity":"bicycle_parking","OBJECTID":295,"BOD":16,"POPIS":"stojan na kola"},"geometry":{"type":"Point","coordinates":[18.2583568,49.790897]}},{"type":"Feature","properties":{"amenity":"bicycle_parking","OBJECTID":298,"BOD":11,"POPIS":"uzamykatelný stojan na kola"},"geometry":{"type":"Point","coordinates":[18.3370284,49.8145985]}},{"type":"Feature","properties":{"amenity":"bicycle_parking","OBJECTID":307,"BOD":11,"POPIS":"uzamykatelný stojan na kola"},"geometry":{"type":"Point","coordinates":[18.2897291,49.8319506]}},{"type":"Feature","properties":{"amenity":"bicycle_parking","OBJECTID":308,"BOD":16,"POPIS":"stojan na kola"},"geometry":{"type":"Point","coordinates":[18.1758733,49.8275358]}},{"type":"Feature","properties":{"amenity":"bicycle_parking","OBJECTID":311,"BOD":16,"POPIS":"stojan na kola"},"geometry":{"type":"Point","coordinates":[18.1688739,49.8297198]}},{"type":"Feature","properties":{"amenity":"bicycle_parking","OBJECTID":312,"BOD":11,"POPIS":"uzamykatelný stojan na kola"},"geometry":{"type":"Point","coordinates":[18.3445981,49.8402085]}},{"type":"Feature","properties":{"amenity":"bicycle_parking","OBJECTID":313,"BOD":16,"POPIS":"stojan na kola"},"geometry":{"type":"Point","coordinates":[18.1788473,49.8314223]}},{"type":"Feature","properties":{"amenity":"bicycle_parking","OBJECTID":315,"BOD":16,"POPIS":"stojan na kola"},"geometry":{"type":"Point","coordinates":[18.3459613,49.8425243]}},{"type":"Feature","properties":{"amenity":"bicycle_parking","OBJECTID":323,"BOD":11,"POPIS":"uzamykatelný stojan na kola"},"geometry":{"type":"Point","coordinates":[18.2989488,49.8543719]}},{"type":"Feature","properties":{"amenity":"bicycle_parking","OBJECTID":326,"BOD":11,"POPIS":"uzamykatelný stojan na kola"},"geometry":{"type":"Point","coordinates":[18.1255329,49.8484928]}},{"type":"Feature","properties":{"amenity":"bicycle_parking","OBJECTID":329,"BOD":11,"POPIS":"uzamykatelný stojan na kola"},"geometry":{"type":"Point","coordinates":[18.2580064,49.8766193]}},{"type":"Feature","properties":{"amenity":"bicycle_parking","OBJECTID":341,"BOD":11,"POPIS":"uzamykatelný stojan na kola"},"geometry":{"type":"Point","coordinates":[18.1995137,49.7537613]}},{"type":"Feature","properties":{"amenity":"bicycle_parking","OBJECTID":344,"BOD":11,"POPIS":"uzamykatelný stojan na kola"},"geometry":{"type":"Point","coordinates":[18.2808158,49.7745979]}},{"type":"Feature","properties":{"amenity":"bicycle_parking","OBJECTID":347,"BOD":16,"POPIS":"stojan na kola"},"geometry":{"type":"Point","coordinates":[18.3470774,49.7895101]}},{"type":"Feature","properties":{"amenity":"bicycle_parking","OBJECTID":348,"BOD":16,"POPIS":"stojan na kola"},"geometry":{"type":"Point","coordinates":[18.2648004,49.7850803]}},{"type":"Feature","properties":{"amenity":"bicycle_parking","OBJECTID":350,"BOD":16,"POPIS":"stojan na kola"},"geometry":{"type":"Point","coordinates":[18.2590668,49.7856103]}},{"type":"Feature","properties":{"amenity":"bicycle_parking","OBJECTID":351,"BOD":16,"POPIS":"stojan na kola"},"geometry":{"type":"Point","coordinates":[18.2564746,49.7880115]}},{"type":"Feature","properties":{"amenity":"bicycle_parking","OBJECTID":353,"BOD":11,"POPIS":"uzamykatelný stojan na kola"},"geometry":{"type":"Point","coordinates":[18.1634852,49.7872765]}},{"type":"Feature","properties":{"amenity":"bicycle_parking","OBJECTID":357,"BOD":11,"POPIS":"uzamykatelný stojan na kola"},"geometry":{"type":"Point","coordinates":[18.2556135,49.8031801]}},{"type":"Feature","properties":{"amenity":"bicycle_parking","OBJECTID":361,"BOD":16,"POPIS":"stojan na kola"},"geometry":{"type":"Point","coordinates":[18.3369926,49.8153435]}},{"type":"Feature","properties":{"amenity":"bicycle_parking","OBJECTID":362,"BOD":11,"POPIS":"uzamykatelný stojan na kola"},"geometry":{"type":"Point","coordinates":[18.3337768,49.8167496]}},{"type":"Feature","properties":{"amenity":"bicycle_parking","OBJECTID":364,"BOD":11,"POPIS":"uzamykatelný stojan na kola"},"geometry":{"type":"Point","coordinates":[18.2669048,49.8159933]}},{"type":"Feature","properties":{"amenity":"bicycle_parking","OBJECTID":371,"BOD":11,"POPIS":"uzamykatelný stojan na kola"},"geometry":{"type":"Point","coordinates":[18.2854882,49.8281949]}},{"type":"Feature","properties":{"amenity":"bicycle_parking","OBJECTID":374,"BOD":16,"POPIS":"stojan na kola"},"geometry":{"type":"Point","coordinates":[18.2983105,49.8371817]}},{"type":"Feature","properties":{"amenity":"bicycle_parking","OBJECTID":379,"BOD":11,"POPIS":"uzamykatelný stojan na kola"},"geometry":{"type":"Point","coordinates":[18.1964041,49.8416323]}},{"type":"Feature","properties":{"amenity":"bicycle_parking","OBJECTID":381,"BOD":11,"POPIS":"uzamykatelný stojan na kola"},"geometry":{"type":"Point","coordinates":[18.2305973,49.85612]}},{"type":"Feature","properties":{"amenity":"bicycle_parking","OBJECTID":384,"BOD":11,"POPIS":"uzamykatelný stojan na kola"},"geometry":{"type":"Point","coordinates":[18.1475524,49.8638011]}},{"type":"Feature","properties":{"amenity":"bicycle_parking","OBJECTID":397,"BOD":11,"POPIS":"uzamykatelný stojan na kola"},"geometry":{"type":"Point","coordinates":[18.202563,49.7472035]}},{"type":"Feature","properties":{"amenity":"bicycle_parking","OBJECTID":399,"BOD":16,"POPIS":"stojan na kola"},"geometry":{"type":"Point","coordinates":[18.1932178,49.7493579]}},{"type":"Feature","properties":{"amenity":"bicycle_parking","OBJECTID":401,"BOD":16,"POPIS":"stojan na kola"},"geometry":{"type":"Point","coordinates":[18.297316,49.7717522]}},{"type":"Feature","properties":{"amenity":"bicycle_parking","OBJECTID":404,"BOD":11,"POPIS":"uzamykatelný stojan na kola"},"geometry":{"type":"Point","coordinates":[18.2807315,49.7754671]}},{"type":"Feature","properties":{"amenity":"bicycle_parking","OBJECTID":407,"BOD":16,"POPIS":"stojan na kola"},"geometry":{"type":"Point","coordinates":[18.2511411,49.7795283]}},{"type":"Feature","properties":{"amenity":"bicycle_parking","OBJECTID":412,"BOD":16,"POPIS":"stojan na kola"},"geometry":{"type":"Point","coordinates":[18.2580324,49.7852264]}},{"type":"Feature","properties":{"amenity":"bicycle_parking","OBJECTID":414,"BOD":11,"POPIS":"uzamykatelný stojan na kola"},"geometry":{"type":"Point","coordinates":[18.3464506,49.7919557]}},{"type":"Feature","properties":{"amenity":"bicycle_parking","OBJECTID":417,"BOD":16,"POPIS":"stojan na kola"},"geometry":{"type":"Point","coordinates":[18.2266987,49.7894896]}},{"type":"Feature","properties":{"amenity":"bicycle_parking","OBJECTID":427,"BOD":16,"POPIS":"stojan na kola"},"geometry":{"type":"Point","coordinates":[18.1967188,49.8149812]}},{"type":"Feature","properties":{"amenity":"bicycle_parking","OBJECTID":428,"BOD":11,"POPIS":"uzamykatelný stojan na kola"},"geometry":{"type":"Point","coordinates":[18.3321232,49.8244529]}},{"type":"Feature","properties":{"amenity":"bicycle_parking","OBJECTID":430,"BOD":11,"POPIS":"uzamykatelný stojan na kola"},"geometry":{"type":"Point","coordinates":[18.2565251,49.8284936]}},{"type":"Feature","properties":{"amenity":"bicycle_parking","OBJECTID":434,"BOD":11,"POPIS":"uzamykatelný stojan na kola"},"geometry":{"type":"Point","coordinates":[18.2952941,49.8374889]}},{"type":"Feature","properties":{"amenity":"bicycle_parking","OBJECTID":436,"BOD":11,"POPIS":"uzamykatelný stojan na kola"},"geometry":{"type":"Point","coordinates":[18.2610318,49.8363637]}},{"type":"Feature","properties":{"amenity":"bicycle_parking","OBJECTID":437,"BOD":11,"POPIS":"uzamykatelný stojan na kola"},"geometry":{"type":"Point","coordinates":[18.2964347,49.8400278]}},{"type":"Feature","properties":{"amenity":"bicycle_parking","OBJECTID":438,"BOD":11,"POPIS":"uzamykatelný stojan na kola"},"geometry":{"type":"Point","coordinates":[18.3339017,49.8425212]}},{"type":"Feature","properties":{"amenity":"bicycle_parking","OBJECTID":441,"BOD":11,"POPIS":"uzamykatelný stojan na kola"},"geometry":{"type":"Point","coordinates":[18.2862909,49.8419861]}},{"type":"Feature","properties":{"amenity":"bicycle_parking","OBJECTID":445,"BOD":11,"POPIS":"uzamykatelný stojan na kola"},"geometry":{"type":"Point","coordinates":[18.169288,49.841038]}},{"type":"Feature","properties":{"amenity":"bicycle_parking","OBJECTID":449,"BOD":16,"POPIS":"stojan na kola"},"geometry":{"type":"Point","coordinates":[18.3199393,49.8512455]}},{"type":"Feature","properties":{"amenity":"bicycle_parking","OBJECTID":453,"BOD":11,"POPIS":"uzamykatelný stojan na kola"},"geometry":{"type":"Point","coordinates":[18.1815045,49.8544434]}},{"type":"Feature","properties":{"amenity":"bicycle_parking","OBJECTID":454,"BOD":11,"POPIS":"uzamykatelný stojan na kola"},"geometry":{"type":"Point","coordinates":[18.2286559,49.8577522]}},{"type":"Feature","properties":{"amenity":"bicycle_parking","OBJECTID":455,"BOD":11,"POPIS":"uzamykatelný stojan na kola"},"geometry":{"type":"Point","coordinates":[18.2549361,49.8669318]}}]}