{"type": "FeatureCollection", "features": [{"type": "Feature", "geometry": {"type": "Point", "coordinates": [13.7152, 50.5144]}, "properties": {"kind": "takeoff", "pge_site_id": "6643", "name": "Zlatnik", "ele": "446", "direction": "S;SW;W", "paragliding": "1", "hanggliding": "0", "last_edit": "", "url": "http://www.paraglidingearth.com/?site=6643", "in_osm_500m": true}}, {"type": "Feature", "geometry": {"type": "Point", "coordinates": [13.7043, 50.5125]}, "properties": {"kind": "landing", "pge_site_id": "6643", "name": "Zlatnik – landing", "in_osm_500m": false}}, {"type": "Feature", "geometry": {"type": "Point", "coordinates": [16.2665, 49.7408]}, "properties": {"kind": "takeoff", "pge_site_id": "6644", "name": "Policka", "ele": "569", "direction": "", "paragliding": "1", "hanggliding": "0", "last_edit": "", "url": "http://www.paraglidingearth.com/?site=6644", "in_osm_500m": false}}, {"type": "Feature", "geometry": {"type": "Point", "coordinates": [15.013, 49.4182]}, "properties": {"kind": "takeoff", "pge_site_id": "6689", "name": "Kamen", "ele": "589", "direction": "NE;E;SE;SW;W;NW", "paragliding": "1", "hanggliding": "1", "last_edit": "", "url": "http://www.paraglidingearth.com/?site=6689", "in_osm_500m": false}}, {"type": "Feature", "geometry": {"type": "Point", "coordinates": [15.5006, 50.7537]}, "properties": {"kind": "takeoff", "pge_site_id": "6731", "name": "Lysa hora", "ele": "1244", "direction": "SW", "paragliding": "1", "hanggliding": "0", "last_edit": "", "url": "http://www.paraglidingearth.com/?site=6731", "in_osm_500m": false}}, {"type": "Feature", "geometry": {"type": "Point", "coordinates": [15.4858, 50.7367]}, "properties": {"kind": "landing", "pge_site_id": "6731", "name": "Lysa hora – landing", "in_osm_500m": false}}, {"type": "Feature", "geometry": {"type": "Point", "coordinates": [13.8769, 50.6964]}, "properties": {"kind": "takeoff", "pge_site_id": "6737", "name": "Krupka", "ele": "644", "direction": "SE;S;SW", "paragliding": "1", "hanggliding": "0", "last_edit": "", "url": "http://www.paraglidingearth.com/?site=6737", "in_osm_500m": true}}, {"type": "Feature", "geometry": {"type": "Point", "coordinates": [13.8801, 50.6822]}, "properties": {"kind": "landing", "pge_site_id": "6737", "name": "Krupka – landing", "in_osm_500m": false}}, {"type": "Feature", "geometry": {"type": "Point", "coordinates": [14.1528, 50.5894]}, "properties": {"kind": "takeoff", "pge_site_id": "6759", "name": "Dlouhy Vrch", "ele": "636", "direction": "E", "paragliding": "1", "hanggliding": "0", "last_edit": "", "url": "http://www.paraglidingearth.com/?site=6759", "in_osm_500m": false}}, {"type": "Feature", "geometry": {"type": "Point", "coordinates": [15.74, 50.6496]}, "properties": {"kind": "takeoff", "pge_site_id": "7188", "name": "Cerna Hora", "ele": "1254", "direction": "SE;S;SW", "paragliding": "1", "hanggliding": "1", "last_edit": "2026-06-30", "url": "http://www.paraglidingearth.com/?site=7188", "in_osm_500m": true}}, {"type": "Feature", "geometry": {"type": "Point", "coordinates": [15.7267, 50.634]}, "properties": {"kind": "landing", "pge_site_id": "7188", "name": "Cerna Hora – landing", "in_osm_500m": true}}, {"type": "Feature", "geometry": {"type": "Point", "coordinates": [15.429, 50.7615]}, "properties": {"kind": "takeoff", "pge_site_id": "7189", "name": "Certova Hora", "ele": "1014", "direction": "NE;E", "paragliding": "1", "hanggliding": "0", "last_edit": "", "url": "http://www.paraglidingearth.com/?site=7189", "in_osm_500m": false}}, {"type": "Feature", "geometry": {"type": "Point", "coordinates": [15.4278, 50.7717]}, "properties": {"kind": "landing", "pge_site_id": "7189", "name": "Certova Hora – landing", "in_osm_500m": false}}, {"type": "Feature", "geometry": {"type": "Point", "coordinates": [14.2908, 50.3853]}, "properties": {"kind": "takeoff", "pge_site_id": "7190", "name": "Rip", "ele": "417", "direction": "E;SE", "paragliding": "1", "hanggliding": "1", "last_edit": "", "url": "http://www.paraglidingearth.com/?site=7190", "in_osm_500m": false}}, {"type": "Feature", "geometry": {"type": "Point", "coordinates": [14.3228, 50.3381]}, "properties": {"kind": "takeoff", "pge_site_id": "7191", "name": "Ledcice - Jevineves", "ele": "264", "direction": "E;SE", "paragliding": "1", "hanggliding": "0", "last_edit": "2026-06-30", "url": "http://www.paraglidingearth.com/?site=7191", "in_osm_500m": false}}, {"type": "Feature", "geometry": {"type": "Point", "coordinates": [14.3243, 50.3377]}, "properties": {"kind": "landing", "pge_site_id": "7191", "name": "Ledcice - Jevineves – landing", "in_osm_500m": false}}, {"type": "Feature", "geometry": {"type": "Point", "coordinates": [15.6943, 50.4572]}, "properties": {"kind": "takeoff", "pge_site_id": "7192", "name": "Zvicina - NE", "ele": "632", "direction": "N;NE;E", "paragliding": "1", "hanggliding": "0", "last_edit": "", "url": "http://www.paraglidingearth.com/?site=7192", "in_osm_500m": false}}, {"type": "Feature", "geometry": {"type": "Point", "coordinates": [15.6997, 50.4607]}, "properties": {"kind": "landing", "pge_site_id": "7192", "name": "Zvicina - NE – landing", "in_osm_500m": false}}, {"type": "Feature", "geometry": {"type": "Point", "coordinates": [14.6117, 50.2711]}, "properties": {"kind": "takeoff", "pge_site_id": "7193", "name": "Vsetaty", "ele": "211", "direction": "S;SW", "paragliding": "1", "hanggliding": "0", "last_edit": "", "url": "http://www.paraglidingearth.com/?site=7193", "in_osm_500m": false}}, {"type": "Feature", "geometry": {"type": "Point", "coordinates": [14.6112, 50.2705]}, "properties": {"kind": "landing", "pge_site_id": "7193", "name": "Vsetaty – landing", "in_osm_500m": false}}, {"type": "Feature", "geometry": {"type": "Point", "coordinates": [18.6273, 49.6288]}, "properties": {"kind": "takeoff", "pge_site_id": "7194", "name": "Javorovy", "ele": "915", "direction": "N;NE;E;W;NW", "paragliding": "1", "hanggliding": "1", "last_edit": "", "url": "http://www.paraglidingearth.com/?site=7194", "in_osm_500m": true}}, {"type": "Feature", "geometry": {"type": "Point", "coordinates": [18.6397, 49.6409]}, "properties": {"kind": "landing", "pge_site_id": "7194", "name": "Javorovy – landing", "in_osm_500m": true}}, {"type": "Feature", "geometry": {"type": "Point", "coordinates": [14.3353, 49.9381]}, "properties": {"kind": "takeoff", "pge_site_id": "7195", "name": "Mokropsy", "ele": "311", "direction": "N;W;NW", "paragliding": "1", "hanggliding": "0", "last_edit": "", "url": "http://www.paraglidingearth.com/?site=7195", "in_osm_500m": true}}, {"type": "Feature", "geometry": {"type": "Point", "coordinates": [14.3297, 49.9392]}, "properties": {"kind": "landing", "pge_site_id": "7195", "name": "Mokropsy – landing", "in_osm_500m": true}}, {"type": "Feature", "geometry": {"type": "Point", "coordinates": [14.8417, 50.1639]}, "properties": {"kind": "takeoff", "pge_site_id": "7196", "name": "Prerovska Hurka", "ele": "233", "direction": "SE;S;SW", "paragliding": "1", "hanggliding": "0", "last_edit": "", "url": "http://www.paraglidingearth.com/?site=7196", "in_osm_500m": false}}, {"type": "Feature", "geometry": {"type": "Point", "coordinates": [15.2632, 50.5933]}, "properties": {"kind": "takeoff", "pge_site_id": "7197", "name": "Kozakov", "ele": "737", "direction": "SE;S;SW;W;NW", "paragliding": "1", "hanggliding": "0", "last_edit": "", "url": "http://www.paraglidingearth.com/?site=7197", "in_osm_500m": true}}, {"type": "Feature", "geometry": {"type": "Point", "coordinates": [15.2575, 50.5867]}, "properties": {"kind": "landing", "pge_site_id": "7197", "name": "Kozakov – landing", "in_osm_500m": false}}, {"type": "Feature", "geometry": {"type": "Point", "coordinates": [18.2993, 49.5541]}, "properties": {"kind": "takeoff", "pge_site_id": "7198", "name": "Skalka", "ele": "927", "direction": "S;SW;W", "paragliding": "1", "hanggliding": "1", "last_edit": "", "url": "http://www.paraglidingearth.com/?site=7198", "in_osm_500m": true}}, {"type": "Feature", "geometry": {"type": "Point", "coordinates": [18.2795, 49.5493]}, "properties": {"kind": "landing", "pge_site_id": "7198", "name": "Skalka – landing", "in_osm_500m": false}}, {"type": "Feature", "geometry": {"type": "Point", "coordinates": [18.1614, 49.5278]}, "properties": {"kind": "takeoff", "pge_site_id": "10038", "name": "Velky Javornik", "ele": "910", "direction": "N;NE;E;S", "paragliding": "1", "hanggliding": "1", "last_edit": "2025-08-06", "url": "http://www.paraglidingearth.com/?site=10038", "in_osm_500m": false}}, {"type": "Feature", "geometry": {"type": "Point", "coordinates": [18.1366, 49.5307]}, "properties": {"kind": "landing", "pge_site_id": "10038", "name": "Velky Javornik – landing", "in_osm_500m": false}}, {"type": "Feature", "geometry": {"type": "Point", "coordinates": [18.2245, 49.4896]}, "properties": {"kind": "takeoff", "pge_site_id": "10039", "name": "Radhost", "ele": "1117", "direction": "SE;S;SW", "paragliding": "1", "hanggliding": "0", "last_edit": "", "url": "http://www.paraglidingearth.com/?site=10039", "in_osm_500m": false}}, {"type": "Feature", "geometry": {"type": "Point", "coordinates": [18.2121, 49.4816]}, "properties": {"kind": "landing", "pge_site_id": "10039", "name": "Radhost – landing", "in_osm_500m": false}}, {"type": "Feature", "geometry": {"type": "Point", "coordinates": [17.1381, 50.0794]}, "properties": {"kind": "takeoff", "pge_site_id": "10065", "name": "Kamenec", "ele": "1191", "direction": "SW;W;NW", "paragliding": "1", "hanggliding": "1", "last_edit": "2023-06-04", "url": "http://www.paraglidingearth.com/?site=10065", "in_osm_500m": false}}, {"type": "Feature", "geometry": {"type": "Point", "coordinates": [17.0929, 50.0767]}, "properties": {"kind": "landing", "pge_site_id": "10065", "name": "Kamenec – landing", "in_osm_500m": false}}, {"type": "Feature", "geometry": {"type": "Point", "coordinates": [13.7715, 50.4075]}, "properties": {"kind": "takeoff", "pge_site_id": "10099", "name": "Rana", "ele": "426", "direction": "N;SE;S;NW", "paragliding": "1", "hanggliding": "1", "last_edit": "", "url": "http://www.paraglidingearth.com/?site=10099", "in_osm_500m": true}}, {"type": "Feature", "geometry": {"type": "Point", "coordinates": [13.7783, 50.4061]}, "properties": {"kind": "landing", "pge_site_id": "10099", "name": "Rana – landing", "in_osm_500m": true}}, {"type": "Feature", "geometry": {"type": "Point", "coordinates": [14.3233, 49.97]}, "properties": {"kind": "takeoff", "pge_site_id": "10103", "name": "Stankovka", "ele": "370", "direction": "E;SE;S", "paragliding": "1", "hanggliding": "0", "last_edit": "", "url": "http://www.paraglidingearth.com/?site=10103", "in_osm_500m": false}}, {"type": "Feature", "geometry": {"type": "Point", "coordinates": [14.0147, 50.4341]}, "properties": {"kind": "takeoff", "pge_site_id": "10104", "name": "Hazmburk", "ele": "395", "direction": "SW", "paragliding": "1", "hanggliding": "0", "last_edit": "", "url": "http://www.paraglidingearth.com/?site=10104", "in_osm_500m": false}}, {"type": "Feature", "geometry": {"type": "Point", "coordinates": [14.9965, 50.7287]}, "properties": {"kind": "takeoff", "pge_site_id": "10105", "name": "Jested", "ele": "874", "direction": "NE", "paragliding": "1", "hanggliding": "0", "last_edit": "2025-10-27", "url": "http://www.paraglidingearth.com/?site=10105", "in_osm_500m": false}}, {"type": "Feature", "geometry": {"type": "Point", "coordinates": [15.007, 50.7386]}, "properties": {"kind": "landing", "pge_site_id": "10105", "name": "Jested – landing", "in_osm_500m": false}}, {"type": "Feature", "geometry": {"type": "Point", "coordinates": [15.0777, 50.6636]}, "properties": {"kind": "takeoff", "pge_site_id": "10106", "name": "Hodkovice", "ele": "438", "direction": "SW;W;NW", "paragliding": "1", "hanggliding": "0", "last_edit": "2026-06-30", "url": "http://www.paraglidingearth.com/?site=10106", "in_osm_500m": false}}, {"type": "Feature", "geometry": {"type": "Point", "coordinates": [15.0738, 50.6658]}, "properties": {"kind": "landing", "pge_site_id": "10106", "name": "Hodkovice – landing", "in_osm_500m": false}}, {"type": "Feature", "geometry": {"type": "Point", "coordinates": [15.0554, 50.6789]}, "properties": {"kind": "takeoff", "pge_site_id": "10107", "name": "Bohdankov", "ele": "410", "direction": "SE;S;SW", "paragliding": "1", "hanggliding": "0", "last_edit": "", "url": "http://www.paraglidingearth.com/?site=10107", "in_osm_500m": false}}, {"type": "Feature", "geometry": {"type": "Point", "coordinates": [15.0176, 50.708]}, "properties": {"kind": "takeoff", "pge_site_id": "10108", "name": "Rasovka", "ele": "820", "direction": "SE;S;SW", "paragliding": "1", "hanggliding": "0", "last_edit": "", "url": "http://www.paraglidingearth.com/?site=10108", "in_osm_500m": false}}, {"type": "Feature", "geometry": {"type": "Point", "coordinates": [14.018, 50.5277]}, "properties": {"kind": "takeoff", "pge_site_id": "10109", "name": "Lovos", "ele": "544", "direction": "SE;S;SW", "paragliding": "1", "hanggliding": "0", "last_edit": "", "url": "http://www.paraglidingearth.com/?site=10109", "in_osm_500m": false}}, {"type": "Feature", "geometry": {"type": "Point", "coordinates": [14.0851, 50.5923]}, "properties": {"kind": "takeoff", "pge_site_id": "10110", "name": "Havrani skala", "ele": "495", "direction": "S;SW;W", "paragliding": "1", "hanggliding": "0", "last_edit": "", "url": "http://www.paraglidingearth.com/?site=10110", "in_osm_500m": false}}, {"type": "Feature", "geometry": {"type": "Point", "coordinates": [16.7637, 50.0544]}, "properties": {"kind": "takeoff", "pge_site_id": "10199", "name": "Kamenáč ZJZ, Z, SZ", "ele": "677", "direction": "SW;W;NW", "paragliding": "1", "hanggliding": "0", "last_edit": "2025-09-09", "url": "http://www.paraglidingearth.com/?site=10199", "in_osm_500m": false}}, {"type": "Feature", "geometry": {"type": "Point", "coordinates": [16.7604, 50.0558]}, "properties": {"kind": "landing", "pge_site_id": "10199", "name": "Kamenáč ZJZ, Z, SZ – landing", "in_osm_500m": false}}, {"type": "Feature", "geometry": {"type": "Point", "coordinates": [17.8267, 48.9399]}, "properties": {"kind": "takeoff", "pge_site_id": "10272", "name": "Mikulcak", "ele": "778", "direction": "SE;S;SW", "paragliding": "1", "hanggliding": "0", "last_edit": "", "url": "http://www.paraglidingearth.com/?site=10272", "in_osm_500m": false}}, {"type": "Feature", "geometry": {"type": "Point", "coordinates": [17.9689, 49.06]}, "properties": {"kind": "takeoff", "pge_site_id": "10278", "name": "Stitna nad Vlari", "ele": "479", "direction": "N;NE;E;W;NW", "paragliding": "1", "hanggliding": "0", "last_edit": "", "url": "http://www.paraglidingearth.com/?site=10278", "in_osm_500m": false}}, {"type": "Feature", "geometry": {"type": "Point", "coordinates": [17.9703, 49.0659]}, "properties": {"kind": "landing", "pge_site_id": "10278", "name": "Stitna nad Vlari – landing", "in_osm_500m": false}}, {"type": "Feature", "geometry": {"type": "Point", "coordinates": [17.9939, 49.1215]}, "properties": {"kind": "takeoff", "pge_site_id": "10279", "name": "Jelenovska", "ele": "636", "direction": "N;W;NW", "paragliding": "1", "hanggliding": "0", "last_edit": "", "url": "http://www.paraglidingearth.com/?site=10279", "in_osm_500m": false}}, {"type": "Feature", "geometry": {"type": "Point", "coordinates": [17.9828, 49.1264]}, "properties": {"kind": "landing", "pge_site_id": "10279", "name": "Jelenovska – landing", "in_osm_500m": false}}, {"type": "Feature", "geometry": {"type": "Point", "coordinates": [17.8448, 49.6803]}, "properties": {"kind": "takeoff", "pge_site_id": "10280", "name": "Vitovka", "ele": "365", "direction": "SE;S;SW", "paragliding": "1", "hanggliding": "1", "last_edit": "", "url": "http://www.paraglidingearth.com/?site=10280", "in_osm_500m": false}}, {"type": "Feature", "geometry": {"type": "Point", "coordinates": [17.8442, 49.6789]}, "properties": {"kind": "landing", "pge_site_id": "10280", "name": "Vitovka – landing", "in_osm_500m": false}}, {"type": "Feature", "geometry": {"type": "Point", "coordinates": [17.7669, 48.9337]}, "properties": {"kind": "takeoff", "pge_site_id": "10281", "name": "Mesit", "ele": "728", "direction": "SW;W;NW", "paragliding": "1", "hanggliding": "1", "last_edit": "2025-07-29", "url": "http://www.paraglidingearth.com/?site=10281", "in_osm_500m": false}}, {"type": "Feature", "geometry": {"type": "Point", "coordinates": [17.76, 48.942]}, "properties": {"kind": "landing", "pge_site_id": "10281", "name": "Mesit – landing", "in_osm_500m": false}}, {"type": "Feature", "geometry": {"type": "Point", "coordinates": [17.8109, 49.1563]}, "properties": {"kind": "takeoff", "pge_site_id": "10292", "name": "Dolnai Lhota", "ele": "432", "direction": "N;NE;SE;S;SW;NW", "paragliding": "1", "hanggliding": "0", "last_edit": "", "url": "http://www.paraglidingearth.com/?site=10292", "in_osm_500m": false}}, {"type": "Feature", "geometry": {"type": "Point", "coordinates": [17.811, 49.1563]}, "properties": {"kind": "landing", "pge_site_id": "10292", "name": "Dolnai Lhota – landing", "in_osm_500m": false}}, {"type": "Feature", "geometry": {"type": "Point", "coordinates": [17.8676, 49.08]}, "properties": {"kind": "takeoff", "pge_site_id": "10311", "name": "Slavicin", "ele": "421", "direction": "N;NE;E;SE;S;SW;W;NW", "paragliding": "1", "hanggliding": "0", "last_edit": "", "url": "http://www.paraglidingearth.com/?site=10311", "in_osm_500m": false}}, {"type": "Feature", "geometry": {"type": "Point", "coordinates": [17.8663, 49.0809]}, "properties": {"kind": "landing", "pge_site_id": "10311", "name": "Slavicin – landing", "in_osm_500m": false}}, {"type": "Feature", "geometry": {"type": "Point", "coordinates": [16.8729, 50.1626]}, "properties": {"kind": "takeoff", "pge_site_id": "10332", "name": "Susina", "ele": "679", "direction": "NE;E;SE", "paragliding": "1", "hanggliding": "0", "last_edit": "", "url": "http://www.paraglidingearth.com/?site=10332", "in_osm_500m": false}}, {"type": "Feature", "geometry": {"type": "Point", "coordinates": [14.6222, 49.4379]}, "properties": {"kind": "takeoff", "pge_site_id": "10333", "name": "Vsechov", "ele": "489", "direction": "N;NE;E;SE;S;SW;W;NW", "paragliding": "1", "hanggliding": "0", "last_edit": "", "url": "http://www.paraglidingearth.com/?site=10333", "in_osm_500m": false}}, {"type": "Feature", "geometry": {"type": "Point", "coordinates": [14.623, 49.4358]}, "properties": {"kind": "landing", "pge_site_id": "10333", "name": "Vsechov – landing", "in_osm_500m": false}}, {"type": "Feature", "geometry": {"type": "Point", "coordinates": [17.9345, 49.121]}, "properties": {"kind": "takeoff", "pge_site_id": "10368", "name": "Vlachovice", "ele": "384", "direction": "N;NE;E;SE", "paragliding": "1", "hanggliding": "0", "last_edit": "", "url": "http://www.paraglidingearth.com/?site=10368", "in_osm_500m": false}}, {"type": "Feature", "geometry": {"type": "Point", "coordinates": [17.9371, 49.1216]}, "properties": {"kind": "landing", "pge_site_id": "10368", "name": "Vlachovice – landing", "in_osm_500m": false}}, {"type": "Feature", "geometry": {"type": "Point", "coordinates": [17.6248, 49.5776]}, "properties": {"kind": "takeoff", "pge_site_id": "10420", "name": "Spirutka", "ele": "365", "direction": "S;SW;W", "paragliding": "1", "hanggliding": "1", "last_edit": "", "url": "http://www.paraglidingearth.com/?site=10420", "in_osm_500m": false}}, {"type": "Feature", "geometry": {"type": "Point", "coordinates": [17.6346, 49.5697]}, "properties": {"kind": "landing", "pge_site_id": "10420", "name": "Spirutka – landing", "in_osm_500m": false}}, {"type": "Feature", "geometry": {"type": "Point", "coordinates": [17.1086, 50.187]}, "properties": {"kind": "takeoff", "pge_site_id": "10726", "name": "Serak", "ele": "1331", "direction": "NE;E;SW;W", "paragliding": "1", "hanggliding": "1", "last_edit": "", "url": "http://www.paraglidingearth.com/?site=10726", "in_osm_500m": false}}, {"type": "Feature", "geometry": {"type": "Point", "coordinates": [17.1915, 50.2154]}, "properties": {"kind": "landing", "pge_site_id": "10726", "name": "Serak – landing", "in_osm_500m": false}}, {"type": "Feature", "geometry": {"type": "Point", "coordinates": [17.1786, 50.3167]}, "properties": {"kind": "takeoff", "pge_site_id": "10727", "name": "Muronak", "ele": "355", "direction": "E;SE", "paragliding": "1", "hanggliding": "0", "last_edit": "", "url": "http://www.paraglidingearth.com/?site=10727", "in_osm_500m": false}}, {"type": "Feature", "geometry": {"type": "Point", "coordinates": [17.1803, 50.3155]}, "properties": {"kind": "landing", "pge_site_id": "10727", "name": "Muronak – landing", "in_osm_500m": false}}, {"type": "Feature", "geometry": {"type": "Point", "coordinates": [15.7642, 49.5822]}, "properties": {"kind": "takeoff", "pge_site_id": "10761", "name": "Pribyslav", "ele": "529", "direction": "", "paragliding": "1", "hanggliding": "0", "last_edit": "", "url": "http://www.paraglidingearth.com/?site=10761", "in_osm_500m": false}}, {"type": "Feature", "geometry": {"type": "Point", "coordinates": [15.7625, 49.582]}, "properties": {"kind": "landing", "pge_site_id": "10761", "name": "Pribyslav – landing", "in_osm_500m": false}}, {"type": "Feature", "geometry": {"type": "Point", "coordinates": [18.4814, 49.6368]}, "properties": {"kind": "takeoff", "pge_site_id": "10762", "name": "Prasiva", "ele": "688", "direction": "SW;W", "paragliding": "1", "hanggliding": "0", "last_edit": "", "url": "http://www.paraglidingearth.com/?site=10762", "in_osm_500m": true}}, {"type": "Feature", "geometry": {"type": "Point", "coordinates": [18.4778, 49.6428]}, "properties": {"kind": "landing", "pge_site_id": "10762", "name": "Prasiva – landing", "in_osm_500m": false}}, {"type": "Feature", "geometry": {"type": "Point", "coordinates": [13.2667, 49.4934]}, "properties": {"kind": "takeoff", "pge_site_id": "10872", "name": "Svihov", "ele": "481", "direction": "NE;E;SE", "paragliding": "1", "hanggliding": "1", "last_edit": "", "url": "http://www.paraglidingearth.com/?site=10872", "in_osm_500m": false}}, {"type": "Feature", "geometry": {"type": "Point", "coordinates": [13.2708, 49.4942]}, "properties": {"kind": "landing", "pge_site_id": "10872", "name": "Svihov – landing", "in_osm_500m": false}}, {"type": "Feature", "geometry": {"type": "Point", "coordinates": [15.9885, 50.6575]}, "properties": {"kind": "takeoff", "pge_site_id": "10911", "name": "Kralovecky Spicak", "ele": "869", "direction": "SW;W", "paragliding": "1", "hanggliding": "1", "last_edit": "", "url": "http://www.paraglidingearth.com/?site=10911", "in_osm_500m": false}}, {"type": "Feature", "geometry": {"type": "Point", "coordinates": [15.9712, 50.6683]}, "properties": {"kind": "landing", "pge_site_id": "10911", "name": "Kralovecky Spicak – landing", "in_osm_500m": false}}, {"type": "Feature", "geometry": {"type": "Point", "coordinates": [14.0932, 50.5303]}, "properties": {"kind": "takeoff", "pge_site_id": "10912", "name": "Radobyl", "ele": "399", "direction": "SE;S;SW", "paragliding": "1", "hanggliding": "1", "last_edit": "", "url": "http://www.paraglidingearth.com/?site=10912", "in_osm_500m": false}}, {"type": "Feature", "geometry": {"type": "Point", "coordinates": [14.0912, 50.5278]}, "properties": {"kind": "landing", "pge_site_id": "10912", "name": "Radobyl – landing", "in_osm_500m": false}}, {"type": "Feature", "geometry": {"type": "Point", "coordinates": [15.0773, 49.6086]}, "properties": {"kind": "takeoff", "pge_site_id": "11370", "name": "Bazantnice", "ele": "494", "direction": "N;NE;E;SE;S", "paragliding": "1", "hanggliding": "0", "last_edit": "", "url": "http://www.paraglidingearth.com/?site=11370", "in_osm_500m": false}}, {"type": "Feature", "geometry": {"type": "Point", "coordinates": [18.7042, 49.6664]}, "properties": {"kind": "takeoff", "pge_site_id": "11577", "name": "Vendryne", "ele": "350", "direction": "", "paragliding": "1", "hanggliding": "0", "last_edit": "", "url": "http://www.paraglidingearth.com/?site=11577", "in_osm_500m": false}}, {"type": "Feature", "geometry": {"type": "Point", "coordinates": [18.2944, 49.605]}, "properties": {"kind": "takeoff", "pge_site_id": "11578", "name": "Lhotka", "ele": "497", "direction": "", "paragliding": "1", "hanggliding": "1", "last_edit": "", "url": "http://www.paraglidingearth.com/?site=11578", "in_osm_500m": false}}, {"type": "Feature", "geometry": {"type": "Point", "coordinates": [12.9687, 50.3976]}, "properties": {"kind": "takeoff", "pge_site_id": "11814", "name": "Klinovec", "ele": "1236", "direction": "NE;E", "paragliding": "1", "hanggliding": "1", "last_edit": "", "url": "http://www.paraglidingearth.com/?site=11814", "in_osm_500m": false}}, {"type": "Feature", "geometry": {"type": "Point", "coordinates": [12.9847, 50.4063]}, "properties": {"kind": "landing", "pge_site_id": "11814", "name": "Klinovec – landing", "in_osm_500m": false}}, {"type": "Feature", "geometry": {"type": "Point", "coordinates": [13.9268, 50.305]}, "properties": {"kind": "takeoff", "pge_site_id": "11815", "name": "Penensky Tynec", "ele": "363", "direction": "NE;E;SE;SW;W;NW", "paragliding": "1", "hanggliding": "0", "last_edit": "", "url": "http://www.paraglidingearth.com/?site=11815", "in_osm_500m": false}}, {"type": "Feature", "geometry": {"type": "Point", "coordinates": [13.6811, 50.6447]}, "properties": {"kind": "takeoff", "pge_site_id": "11834", "name": "Stropnik", "ele": "835", "direction": "SE", "paragliding": "1", "hanggliding": "0", "last_edit": "", "url": "http://www.paraglidingearth.com/?site=11834", "in_osm_500m": false}}, {"type": "Feature", "geometry": {"type": "Point", "coordinates": [13.7003, 50.6296]}, "properties": {"kind": "landing", "pge_site_id": "11834", "name": "Stropnik – landing", "in_osm_500m": false}}, {"type": "Feature", "geometry": {"type": "Point", "coordinates": [13.1765, 49.1717]}, "properties": {"kind": "takeoff", "pge_site_id": "12093", "name": "Ostplatz", "ele": "1333", "direction": "SW", "paragliding": "1", "hanggliding": "0", "last_edit": "", "url": "http://www.paraglidingearth.com/?site=12093", "in_osm_500m": false}}, {"type": "Feature", "geometry": {"type": "Point", "coordinates": [13.7117, 50.6868]}, "properties": {"kind": "takeoff", "pge_site_id": "12205", "name": "Bournak", "ele": "771", "direction": "NE", "paragliding": "1", "hanggliding": "0", "last_edit": "", "url": "http://www.paraglidingearth.com/?site=12205", "in_osm_500m": false}}, {"type": "Feature", "geometry": {"type": "Point", "coordinates": [14.0359, 50.6071]}, "properties": {"kind": "takeoff", "pge_site_id": "12334", "name": "Dolni Zalezly", "ele": "436", "direction": "SE;S;SW", "paragliding": "1", "hanggliding": "0", "last_edit": "", "url": "http://www.paraglidingearth.com/?site=12334", "in_osm_500m": false}}, {"type": "Feature", "geometry": {"type": "Point", "coordinates": [14.0401, 50.6038]}, "properties": {"kind": "landing", "pge_site_id": "12334", "name": "Dolni Zalezly – landing", "in_osm_500m": false}}, {"type": "Feature", "geometry": {"type": "Point", "coordinates": [13.2028, 49.4328]}, "properties": {"kind": "takeoff", "pge_site_id": "12436", "name": "Doubrava", "ele": "715", "direction": "W", "paragliding": "1", "hanggliding": "0", "last_edit": "2024-11-14", "url": "http://www.paraglidingearth.com/?site=12436", "in_osm_500m": true}}, {"type": "Feature", "geometry": {"type": "Point", "coordinates": [13.1866, 49.4354]}, "properties": {"kind": "landing", "pge_site_id": "12436", "name": "Doubrava – landing", "in_osm_500m": false}}, {"type": "Feature", "geometry": {"type": "Point", "coordinates": [16.1135, 50.364]}, "properties": {"kind": "takeoff", "pge_site_id": "13017", "name": "Nove Mesto nad Metuji", "ele": "300", "direction": "", "paragliding": "1", "hanggliding": "0", "last_edit": "", "url": "http://www.paraglidingearth.com/?site=13017", "in_osm_500m": false}}, {"type": "Feature", "geometry": {"type": "Point", "coordinates": [16.1154, 50.3636]}, "properties": {"kind": "landing", "pge_site_id": "13017", "name": "Nove Mesto nad Metuji – landing", "in_osm_500m": false}}, {"type": "Feature", "geometry": {"type": "Point", "coordinates": [15.8536, 49.4962]}, "properties": {"kind": "takeoff", "pge_site_id": "13018", "name": "Bohdalov", "ele": "613", "direction": "", "paragliding": "1", "hanggliding": "0", "last_edit": "", "url": "http://www.paraglidingearth.com/?site=13018", "in_osm_500m": false}}, {"type": "Feature", "geometry": {"type": "Point", "coordinates": [15.4712, 49.1053]}, "properties": {"kind": "takeoff", "pge_site_id": "13595", "name": "Maly Pecin", "ele": "508", "direction": "", "paragliding": "1", "hanggliding": "0", "last_edit": "", "url": "http://www.paraglidingearth.com/?site=13595", "in_osm_500m": false}}, {"type": "Feature", "geometry": {"type": "Point", "coordinates": [13.5455, 49.2333]}, "properties": {"kind": "takeoff", "pge_site_id": "13754", "name": "Kalovy", "ele": "708", "direction": "NW", "paragliding": "1", "hanggliding": "0", "last_edit": "", "url": "http://www.paraglidingearth.com/?site=13754", "in_osm_500m": false}}, {"type": "Feature", "geometry": {"type": "Point", "coordinates": [13.5404, 49.2356]}, "properties": {"kind": "landing", "pge_site_id": "13754", "name": "Kalovy – landing", "in_osm_500m": false}}, {"type": "Feature", "geometry": {"type": "Point", "coordinates": [13.9999, 50.6249]}, "properties": {"kind": "takeoff", "pge_site_id": "13984", "name": "Homole", "ele": "339", "direction": "SW", "paragliding": "1", "hanggliding": "0", "last_edit": "", "url": "http://www.paraglidingearth.com/?site=13984", "in_osm_500m": false}}, {"type": "Feature", "geometry": {"type": "Point", "coordinates": [14.0684, 50.6788]}, "properties": {"kind": "takeoff", "pge_site_id": "13985", "name": "Krasne Brezno", "ele": "407", "direction": "S", "paragliding": "1", "hanggliding": "0", "last_edit": "", "url": "http://www.paraglidingearth.com/?site=13985", "in_osm_500m": false}}, {"type": "Feature", "geometry": {"type": "Point", "coordinates": [14.0742, 50.6745]}, "properties": {"kind": "landing", "pge_site_id": "13985", "name": "Krasne Brezno – landing", "in_osm_500m": false}}, {"type": "Feature", "geometry": {"type": "Point", "coordinates": [16.0707, 49.3184]}, "properties": {"kind": "takeoff", "pge_site_id": "14011", "name": "Jablonov", "ele": "474", "direction": "", "paragliding": "1", "hanggliding": "0", "last_edit": "", "url": "http://www.paraglidingearth.com/?site=14011", "in_osm_500m": false}}, {"type": "Feature", "geometry": {"type": "Point", "coordinates": [14.0541, 50.6197]}, "properties": {"kind": "takeoff", "pge_site_id": "14509", "name": "Certak", "ele": "412", "direction": "N", "paragliding": "1", "hanggliding": "0", "last_edit": "", "url": "http://www.paraglidingearth.com/?site=14509", "in_osm_500m": false}}, {"type": "Feature", "geometry": {"type": "Point", "coordinates": [14.0624, 50.6246]}, "properties": {"kind": "landing", "pge_site_id": "14509", "name": "Certak – landing", "in_osm_500m": false}}, {"type": "Feature", "geometry": {"type": "Point", "coordinates": [16.6356, 48.8403]}, "properties": {"kind": "takeoff", "pge_site_id": "14675", "name": "Stolova Hora", "ele": "433", "direction": "SW;W", "paragliding": "1", "hanggliding": "0", "last_edit": "2024-06-04", "url": "http://www.paraglidingearth.com/?site=14675", "in_osm_500m": true}}, {"type": "Feature", "geometry": {"type": "Point", "coordinates": [16.6338, 48.8378]}, "properties": {"kind": "landing", "pge_site_id": "14675", "name": "Stolova Hora – landing", "in_osm_500m": true}}, {"type": "Feature", "geometry": {"type": "Point", "coordinates": [15.5782, 50.7397]}, "properties": {"kind": "takeoff", "pge_site_id": "14720", "name": "Misecky - SW", "ele": "1203", "direction": "SW", "paragliding": "1", "hanggliding": "0", "last_edit": "2024-06-14", "url": "http://www.paraglidingearth.com/?site=14720", "in_osm_500m": false}}, {"type": "Feature", "geometry": {"type": "Point", "coordinates": [15.5707, 50.734]}, "properties": {"kind": "landing", "pge_site_id": "14720", "name": "Misecky - SW – landing", "in_osm_500m": false}}, {"type": "Feature", "geometry": {"type": "Point", "coordinates": [18.0963, 49.32]}, "properties": {"kind": "takeoff", "pge_site_id": "14721", "name": "Ochmelov", "ele": "604", "direction": "", "paragliding": "1", "hanggliding": "0", "last_edit": "", "url": "http://www.paraglidingearth.com/?site=14721", "in_osm_500m": false}}, {"type": "Feature", "geometry": {"type": "Point", "coordinates": [16.3258, 49.5862]}, "properties": {"kind": "takeoff", "pge_site_id": "14824", "name": "Vir", "ele": "670", "direction": "S", "paragliding": "1", "hanggliding": "0", "last_edit": "", "url": "http://www.paraglidingearth.com/?site=14824", "in_osm_500m": false}}, {"type": "Feature", "geometry": {"type": "Point", "coordinates": [16.325, 49.5809]}, "properties": {"kind": "landing", "pge_site_id": "14824", "name": "Vir – landing", "in_osm_500m": false}}, {"type": "Feature", "geometry": {"type": "Point", "coordinates": [16.5504, 49.427]}, "properties": {"kind": "takeoff", "pge_site_id": "14838", "name": "Bykovice B1", "ele": "377", "direction": "N;NE;NW", "paragliding": "1", "hanggliding": "0", "last_edit": "", "url": "http://www.paraglidingearth.com/?site=14838", "in_osm_500m": false}}, {"type": "Feature", "geometry": {"type": "Point", "coordinates": [16.5414, 49.4342]}, "properties": {"kind": "takeoff", "pge_site_id": "14861", "name": "Bykovice B2", "ele": "399", "direction": "NE;E;SE", "paragliding": "1", "hanggliding": "0", "last_edit": "", "url": "http://www.paraglidingearth.com/?site=14861", "in_osm_500m": false}}, {"type": "Feature", "geometry": {"type": "Point", "coordinates": [16.9249, 49.1562]}, "properties": {"kind": "takeoff", "pge_site_id": "14862", "name": "Nemcany", "ele": "278", "direction": "N;W;NW", "paragliding": "1", "hanggliding": "0", "last_edit": "", "url": "http://www.paraglidingearth.com/?site=14862", "in_osm_500m": false}}, {"type": "Feature", "geometry": {"type": "Point", "coordinates": [13.4564, 49.1645]}, "properties": {"kind": "takeoff", "pge_site_id": "14881", "name": "Hartmanice", "ele": "770", "direction": "NE", "paragliding": "1", "hanggliding": "0", "last_edit": "", "url": "http://www.paraglidingearth.com/?site=14881", "in_osm_500m": false}}, {"type": "Feature", "geometry": {"type": "Point", "coordinates": [13.4598, 49.1665]}, "properties": {"kind": "landing", "pge_site_id": "14881", "name": "Hartmanice – landing", "in_osm_500m": false}}, {"type": "Feature", "geometry": {"type": "Point", "coordinates": [13.0519, 50.3721]}, "properties": {"kind": "takeoff", "pge_site_id": "14883", "name": "Srní", "ele": "762", "direction": "E", "paragliding": "1", "hanggliding": "0", "last_edit": "", "url": "http://www.paraglidingearth.com/?site=14883", "in_osm_500m": false}}, {"type": "Feature", "geometry": {"type": "Point", "coordinates": [13.082, 50.3661]}, "properties": {"kind": "landing", "pge_site_id": "14883", "name": "Srní – landing", "in_osm_500m": false}}, {"type": "Feature", "geometry": {"type": "Point", "coordinates": [13.2835, 49.3447]}, "properties": {"kind": "takeoff", "pge_site_id": "14965", "name": "Vrhavec", "ele": "544", "direction": "", "paragliding": "1", "hanggliding": "0", "last_edit": "", "url": "http://www.paraglidingearth.com/?site=14965", "in_osm_500m": false}}, {"type": "Feature", "geometry": {"type": "Point", "coordinates": [12.7058, 49.7982]}, "properties": {"kind": "takeoff", "pge_site_id": "14984", "name": "Tachov", "ele": "488", "direction": "", "paragliding": "1", "hanggliding": "0", "last_edit": "", "url": "http://www.paraglidingearth.com/?site=14984", "in_osm_500m": false}}, {"type": "Feature", "geometry": {"type": "Point", "coordinates": [14.7771, 49.4922]}, "properties": {"kind": "takeoff", "pge_site_id": "15141", "name": "Stara Vozice", "ele": "510", "direction": "N;NE;SE;S;SW;NW", "paragliding": "1", "hanggliding": "0", "last_edit": "", "url": "http://www.paraglidingearth.com/?site=15141", "in_osm_500m": false}}, {"type": "Feature", "geometry": {"type": "Point", "coordinates": [13.9272, 50.4504]}, "properties": {"kind": "takeoff", "pge_site_id": "15142", "name": "Solany", "ele": "226", "direction": "SE;NW", "paragliding": "1", "hanggliding": "0", "last_edit": "", "url": "http://www.paraglidingearth.com/?site=15142", "in_osm_500m": false}}, {"type": "Feature", "geometry": {"type": "Point", "coordinates": [15.6174, 50.7101]}, "properties": {"kind": "takeoff", "pge_site_id": "15301", "name": "Plane", "ele": "1138", "direction": "NW", "paragliding": "1", "hanggliding": "0", "last_edit": "", "url": "http://www.paraglidingearth.com/?site=15301", "in_osm_500m": false}}, {"type": "Feature", "geometry": {"type": "Point", "coordinates": [15.6241, 50.722]}, "properties": {"kind": "landing", "pge_site_id": "15301", "name": "Plane – landing", "in_osm_500m": false}}, {"type": "Feature", "geometry": {"type": "Point", "coordinates": [13.7912, 50.1864]}, "properties": {"kind": "takeoff", "pge_site_id": "15302", "name": "Revnicov", "ele": "499", "direction": "SW", "paragliding": "1", "hanggliding": "0", "last_edit": "", "url": "http://www.paraglidingearth.com/?site=15302", "in_osm_500m": false}}, {"type": "Feature", "geometry": {"type": "Point", "coordinates": [13.7906, 50.1851]}, "properties": {"kind": "landing", "pge_site_id": "15302", "name": "Revnicov – landing", "in_osm_500m": false}}, {"type": "Feature", "geometry": {"type": "Point", "coordinates": [15.5361, 49.9454]}, "properties": {"kind": "takeoff", "pge_site_id": "15462", "name": "PodhoÅ™any", "ele": "345", "direction": "S;SW;W", "paragliding": "1", "hanggliding": "0", "last_edit": "", "url": "http://www.paraglidingearth.com/?site=15462", "in_osm_500m": false}}, {"type": "Feature", "geometry": {"type": "Point", "coordinates": [15.5278, 49.9446]}, "properties": {"kind": "landing", "pge_site_id": "15462", "name": "PodhoÅ™any – landing", "in_osm_500m": false}}, {"type": "Feature", "geometry": {"type": "Point", "coordinates": [13.2297, 49.1961]}, "properties": {"kind": "takeoff", "pge_site_id": "15497", "name": "Mustek", "ele": "891", "direction": "", "paragliding": "1", "hanggliding": "0", "last_edit": "", "url": "http://www.paraglidingearth.com/?site=15497", "in_osm_500m": false}}, {"type": "Feature", "geometry": {"type": "Point", "coordinates": [13.1703, 50.3617]}, "properties": {"kind": "takeoff", "pge_site_id": "15991", "name": "Cerny vrch", "ele": "598", "direction": "N;NW", "paragliding": "1", "hanggliding": "1", "last_edit": "2023-01-01", "url": "http://www.paraglidingearth.com/?site=15991", "in_osm_500m": false}}, {"type": "Feature", "geometry": {"type": "Point", "coordinates": [13.1832, 50.3793]}, "properties": {"kind": "landing", "pge_site_id": "15991", "name": "Cerny vrch – landing", "in_osm_500m": false}}, {"type": "Feature", "geometry": {"type": "Point", "coordinates": [13.1174, 50.3838]}, "properties": {"kind": "takeoff", "pge_site_id": "15993", "name": "Perstejn", "ele": "537", "direction": "S;SW", "paragliding": "1", "hanggliding": "0", "last_edit": "", "url": "http://www.paraglidingearth.com/?site=15993", "in_osm_500m": false}}, {"type": "Feature", "geometry": {"type": "Point", "coordinates": [13.1118, 50.3757]}, "properties": {"kind": "landing", "pge_site_id": "15993", "name": "Perstejn – landing", "in_osm_500m": false}}, {"type": "Feature", "geometry": {"type": "Point", "coordinates": [13.2634, 50.3386]}, "properties": {"kind": "takeoff", "pge_site_id": "15995", "name": "Kadanska Jesen", "ele": "569", "direction": "N", "paragliding": "1", "hanggliding": "0", "last_edit": "", "url": "http://www.paraglidingearth.com/?site=15995", "in_osm_500m": false}}, {"type": "Feature", "geometry": {"type": "Point", "coordinates": [13.4685, 50.4689]}, "properties": {"kind": "takeoff", "pge_site_id": "15996", "name": "Pesvice", "ele": "340", "direction": "NE;SE;SW;NW", "paragliding": "1", "hanggliding": "0", "last_edit": "", "url": "http://www.paraglidingearth.com/?site=15996", "in_osm_500m": false}}, {"type": "Feature", "geometry": {"type": "Point", "coordinates": [13.9831, 50.6845]}, "properties": {"kind": "takeoff", "pge_site_id": "15997", "name": "Strizovice", "ele": "308", "direction": "N;NE", "paragliding": "1", "hanggliding": "0", "last_edit": "", "url": "http://www.paraglidingearth.com/?site=15997", "in_osm_500m": false}}, {"type": "Feature", "geometry": {"type": "Point", "coordinates": [13.9833, 50.6873]}, "properties": {"kind": "landing", "pge_site_id": "15997", "name": "Strizovice – landing", "in_osm_500m": false}}, {"type": "Feature", "geometry": {"type": "Point", "coordinates": [14.0122, 50.6449]}, "properties": {"kind": "takeoff", "pge_site_id": "15998", "name": "Hostovice", "ele": "245", "direction": "NW", "paragliding": "1", "hanggliding": "0", "last_edit": "", "url": "http://www.paraglidingearth.com/?site=15998", "in_osm_500m": false}}, {"type": "Feature", "geometry": {"type": "Point", "coordinates": [14.0115, 50.6451]}, "properties": {"kind": "landing", "pge_site_id": "15998", "name": "Hostovice – landing", "in_osm_500m": false}}, {"type": "Feature", "geometry": {"type": "Point", "coordinates": [13.0027, 50.0135]}, "properties": {"kind": "takeoff", "pge_site_id": "15999", "name": "Trebounak", "ele": "809", "direction": "SE", "paragliding": "1", "hanggliding": "0", "last_edit": "", "url": "http://www.paraglidingearth.com/?site=15999", "in_osm_500m": false}}, {"type": "Feature", "geometry": {"type": "Point", "coordinates": [13.0047, 50.0107]}, "properties": {"kind": "landing", "pge_site_id": "15999", "name": "Trebounak – landing", "in_osm_500m": false}}, {"type": "Feature", "geometry": {"type": "Point", "coordinates": [13.3264, 50.4863]}, "properties": {"kind": "takeoff", "pge_site_id": "16000", "name": "Klenovec", "ele": "738", "direction": "S;SW;W", "paragliding": "1", "hanggliding": "0", "last_edit": "", "url": "http://www.paraglidingearth.com/?site=16000", "in_osm_500m": false}}, {"type": "Feature", "geometry": {"type": "Point", "coordinates": [13.2108, 49.1718]}, "properties": {"kind": "takeoff", "pge_site_id": "16001", "name": "Spicak", "ele": "1174", "direction": "SE", "paragliding": "1", "hanggliding": "0", "last_edit": "", "url": "http://www.paraglidingearth.com/?site=16001", "in_osm_500m": false}}, {"type": "Feature", "geometry": {"type": "Point", "coordinates": [13.224, 49.1628]}, "properties": {"kind": "landing", "pge_site_id": "16001", "name": "Spicak – landing", "in_osm_500m": false}}, {"type": "Feature", "geometry": {"type": "Point", "coordinates": [13.4883, 49.2357]}, "properties": {"kind": "takeoff", "pge_site_id": "16002", "name": "Svatobor", "ele": "836", "direction": "NE", "paragliding": "1", "hanggliding": "0", "last_edit": "", "url": "http://www.paraglidingearth.com/?site=16002", "in_osm_500m": true}}, {"type": "Feature", "geometry": {"type": "Point", "coordinates": [13.5105, 49.2379]}, "properties": {"kind": "landing", "pge_site_id": "16002", "name": "Svatobor – landing", "in_osm_500m": false}}, {"type": "Feature", "geometry": {"type": "Point", "coordinates": [13.4351, 49.7217]}, "properties": {"kind": "takeoff", "pge_site_id": "16003", "name": "Koterov", "ele": "380", "direction": "W", "paragliding": "1", "hanggliding": "0", "last_edit": "2024-11-14", "url": "http://www.paraglidingearth.com/?site=16003", "in_osm_500m": false}}, {"type": "Feature", "geometry": {"type": "Point", "coordinates": [13.431, 49.7202]}, "properties": {"kind": "landing", "pge_site_id": "16003", "name": "Koterov – landing", "in_osm_500m": false}}, {"type": "Feature", "geometry": {"type": "Point", "coordinates": [14.437, 48.7461]}, "properties": {"kind": "takeoff", "pge_site_id": "16005", "name": "Omlenicka", "ele": "765", "direction": "SE", "paragliding": "1", "hanggliding": "0", "last_edit": "", "url": "http://www.paraglidingearth.com/?site=16005", "in_osm_500m": false}}, {"type": "Feature", "geometry": {"type": "Point", "coordinates": [14.4425, 48.7429]}, "properties": {"kind": "landing", "pge_site_id": "16005", "name": "Omlenicka – landing", "in_osm_500m": false}}, {"type": "Feature", "geometry": {"type": "Point", "coordinates": [15.2644, 50.7047]}, "properties": {"kind": "takeoff", "pge_site_id": "16008", "name": "Zasada", "ele": "674", "direction": "SE", "paragliding": "1", "hanggliding": "0", "last_edit": "", "url": "http://www.paraglidingearth.com/?site=16008", "in_osm_500m": false}}, {"type": "Feature", "geometry": {"type": "Point", "coordinates": [15.2666, 50.7018]}, "properties": {"kind": "landing", "pge_site_id": "16008", "name": "Zasada – landing", "in_osm_500m": false}}, {"type": "Feature", "geometry": {"type": "Point", "coordinates": [15.5829, 50.741]}, "properties": {"kind": "takeoff", "pge_site_id": "16009", "name": "Misecky - SE", "ele": "1226", "direction": "SE", "paragliding": "1", "hanggliding": "0", "last_edit": "2024-06-14", "url": "http://www.paraglidingearth.com/?site=16009", "in_osm_500m": false}}, {"type": "Feature", "geometry": {"type": "Point", "coordinates": [15.6008, 50.7328]}, "properties": {"kind": "landing", "pge_site_id": "16009", "name": "Misecky - SE – landing", "in_osm_500m": false}}, {"type": "Feature", "geometry": {"type": "Point", "coordinates": [15.4399, 50.7466]}, "properties": {"kind": "takeoff", "pge_site_id": "16010", "name": "Studenov", "ele": "932", "direction": "SE", "paragliding": "1", "hanggliding": "0", "last_edit": "", "url": "http://www.paraglidingearth.com/?site=16010", "in_osm_500m": false}}, {"type": "Feature", "geometry": {"type": "Point", "coordinates": [15.4406, 50.7351]}, "properties": {"kind": "landing", "pge_site_id": "16010", "name": "Studenov – landing", "in_osm_500m": false}}, {"type": "Feature", "geometry": {"type": "Point", "coordinates": [15.6983, 50.4536]}, "properties": {"kind": "takeoff", "pge_site_id": "16011", "name": "Zvicina - E", "ele": "651", "direction": "E", "paragliding": "1", "hanggliding": "0", "last_edit": "", "url": "http://www.paraglidingearth.com/?site=16011", "in_osm_500m": false}}, {"type": "Feature", "geometry": {"type": "Point", "coordinates": [15.708, 50.4537]}, "properties": {"kind": "landing", "pge_site_id": "16011", "name": "Zvicina - E – landing", "in_osm_500m": false}}, {"type": "Feature", "geometry": {"type": "Point", "coordinates": [16.5283, 49.5927]}, "properties": {"kind": "takeoff", "pge_site_id": "16012", "name": "Letovice", "ele": "495", "direction": "E", "paragliding": "1", "hanggliding": "0", "last_edit": "", "url": "http://www.paraglidingearth.com/?site=16012", "in_osm_500m": false}}, {"type": "Feature", "geometry": {"type": "Point", "coordinates": [16.5331, 49.5931]}, "properties": {"kind": "landing", "pge_site_id": "16012", "name": "Letovice – landing", "in_osm_500m": false}}, {"type": "Feature", "geometry": {"type": "Point", "coordinates": [16.8284, 50.1498]}, "properties": {"kind": "takeoff", "pge_site_id": "16013", "name": "Dolní Morava - Západ ", "ele": "1074", "direction": "SW;W", "paragliding": "1", "hanggliding": "0", "last_edit": "2023-10-14", "url": "http://www.paraglidingearth.com/?site=16013", "in_osm_500m": false}}, {"type": "Feature", "geometry": {"type": "Point", "coordinates": [16.8082, 50.1396]}, "properties": {"kind": "landing", "pge_site_id": "16013", "name": "Dolní Morava - Západ  – landing", "in_osm_500m": false}}, {"type": "Feature", "geometry": {"type": "Point", "coordinates": [16.5351, 49.4451]}, "properties": {"kind": "takeoff", "pge_site_id": "16014", "name": "Lysice", "ele": "455", "direction": "E", "paragliding": "1", "hanggliding": "0", "last_edit": "", "url": "http://www.paraglidingearth.com/?site=16014", "in_osm_500m": false}}, {"type": "Feature", "geometry": {"type": "Point", "coordinates": [13.0898, 50.378]}, "properties": {"kind": "takeoff", "pge_site_id": "16015", "name": "Smilov", "ele": "600", "direction": "SE", "paragliding": "1", "hanggliding": "0", "last_edit": "2023-01-01", "url": "http://www.paraglidingearth.com/?site=16015", "in_osm_500m": true}}, {"type": "Feature", "geometry": {"type": "Point", "coordinates": [13.1115, 50.3755]}, "properties": {"kind": "landing", "pge_site_id": "16015", "name": "Smilov – landing", "in_osm_500m": false}}, {"type": "Feature", "geometry": {"type": "Point", "coordinates": [14.0642, 50.5781]}, "properties": {"kind": "takeoff", "pge_site_id": "16051", "name": "Trabice", "ele": "378", "direction": "SW", "paragliding": "1", "hanggliding": "0", "last_edit": "", "url": "http://www.paraglidingearth.com/?site=16051", "in_osm_500m": false}}, {"type": "Feature", "geometry": {"type": "Point", "coordinates": [14.0578, 50.5777]}, "properties": {"kind": "landing", "pge_site_id": "16051", "name": "Trabice – landing", "in_osm_500m": false}}, {"type": "Feature", "geometry": {"type": "Point", "coordinates": [15.5553, 50.2578]}, "properties": {"kind": "takeoff", "pge_site_id": "16183", "name": "Kobylice", "ele": "236", "direction": "", "paragliding": "1", "hanggliding": "0", "last_edit": "", "url": "http://www.paraglidingearth.com/?site=16183", "in_osm_500m": false}}, {"type": "Feature", "geometry": {"type": "Point", "coordinates": [13.2986, 49.3002]}, "properties": {"kind": "takeoff", "pge_site_id": "16663", "name": "Besiny", "ele": "596", "direction": "", "paragliding": "1", "hanggliding": "0", "last_edit": "", "url": "http://www.paraglidingearth.com/?site=16663", "in_osm_500m": false}}, {"type": "Feature", "geometry": {"type": "Point", "coordinates": [14.0135, 50.5703]}, "properties": {"kind": "takeoff", "pge_site_id": "16954", "name": "Prackovice", "ele": "440", "direction": "E", "paragliding": "1", "hanggliding": "0", "last_edit": "", "url": "http://www.paraglidingearth.com/?site=16954", "in_osm_500m": false}}, {"type": "Feature", "geometry": {"type": "Point", "coordinates": [14.0249, 50.5691]}, "properties": {"kind": "landing", "pge_site_id": "16954", "name": "Prackovice – landing", "in_osm_500m": false}}, {"type": "Feature", "geometry": {"type": "Point", "coordinates": [13.8068, 50.4107]}, "properties": {"kind": "takeoff", "pge_site_id": "16955", "name": "Oblik", "ele": "478", "direction": "SE;S;SW;W", "paragliding": "1", "hanggliding": "0", "last_edit": "", "url": "http://www.paraglidingearth.com/?site=16955", "in_osm_500m": false}}, {"type": "Feature", "geometry": {"type": "Point", "coordinates": [14.074, 50.6356]}, "properties": {"kind": "takeoff", "pge_site_id": "16956", "name": "Brna", "ele": "454", "direction": "S", "paragliding": "1", "hanggliding": "0", "last_edit": "", "url": "http://www.paraglidingearth.com/?site=16956", "in_osm_500m": false}}, {"type": "Feature", "geometry": {"type": "Point", "coordinates": [14.0602, 50.6304]}, "properties": {"kind": "landing", "pge_site_id": "16956", "name": "Brna – landing", "in_osm_500m": false}}, {"type": "Feature", "geometry": {"type": "Point", "coordinates": [14.1043, 50.7539]}, "properties": {"kind": "takeoff", "pge_site_id": "16957", "name": "Jilove", "ele": "412", "direction": "NE", "paragliding": "1", "hanggliding": "0", "last_edit": "", "url": "http://www.paraglidingearth.com/?site=16957", "in_osm_500m": false}}, {"type": "Feature", "geometry": {"type": "Point", "coordinates": [14.1049, 50.7579]}, "properties": {"kind": "landing", "pge_site_id": "16957", "name": "Jilove – landing", "in_osm_500m": false}}, {"type": "Feature", "geometry": {"type": "Point", "coordinates": [13.1383, 50.1052]}, "properties": {"kind": "takeoff", "pge_site_id": "16958", "name": "Dlouhy vrch", "ele": "696", "direction": "NE", "paragliding": "1", "hanggliding": "0", "last_edit": "", "url": "http://www.paraglidingearth.com/?site=16958", "in_osm_500m": false}}, {"type": "Feature", "geometry": {"type": "Point", "coordinates": [13.1404, 50.106]}, "properties": {"kind": "landing", "pge_site_id": "16958", "name": "Dlouhy vrch – landing", "in_osm_500m": false}}, {"type": "Feature", "geometry": {"type": "Point", "coordinates": [14.1903, 49.9162]}, "properties": {"kind": "takeoff", "pge_site_id": "16959", "name": "Zadni Treban", "ele": "308", "direction": "N", "paragliding": "1", "hanggliding": "0", "last_edit": "", "url": "http://www.paraglidingearth.com/?site=16959", "in_osm_500m": false}}, {"type": "Feature", "geometry": {"type": "Point", "coordinates": [14.1899, 49.9205]}, "properties": {"kind": "landing", "pge_site_id": "16959", "name": "Zadni Treban – landing", "in_osm_500m": false}}, {"type": "Feature", "geometry": {"type": "Point", "coordinates": [14.0085, 49.9181]}, "properties": {"kind": "takeoff", "pge_site_id": "16960", "name": "Koukolova hora", "ele": "350", "direction": "NW", "paragliding": "1", "hanggliding": "0", "last_edit": "", "url": "http://www.paraglidingearth.com/?site=16960", "in_osm_500m": false}}, {"type": "Feature", "geometry": {"type": "Point", "coordinates": [14.004, 49.9222]}, "properties": {"kind": "landing", "pge_site_id": "16960", "name": "Koukolova hora – landing", "in_osm_500m": false}}, {"type": "Feature", "geometry": {"type": "Point", "coordinates": [14.0567, 49.9708]}, "properties": {"kind": "takeoff", "pge_site_id": "16961", "name": "Beroun", "ele": "395", "direction": "SE", "paragliding": "1", "hanggliding": "0", "last_edit": "2024-02-23", "url": "http://www.paraglidingearth.com/?site=16961", "in_osm_500m": false}}, {"type": "Feature", "geometry": {"type": "Point", "coordinates": [14.0587, 49.9701]}, "properties": {"kind": "landing", "pge_site_id": "16961", "name": "Beroun – landing", "in_osm_500m": false}}, {"type": "Feature", "geometry": {"type": "Point", "coordinates": [14.0641, 49.9361]}, "properties": {"kind": "takeoff", "pge_site_id": "16962", "name": "Bitov", "ele": "444", "direction": "S", "paragliding": "1", "hanggliding": "0", "last_edit": "", "url": "http://www.paraglidingearth.com/?site=16962", "in_osm_500m": false}}, {"type": "Feature", "geometry": {"type": "Point", "coordinates": [14.0607, 49.9335]}, "properties": {"kind": "landing", "pge_site_id": "16962", "name": "Bitov – landing", "in_osm_500m": false}}, {"type": "Feature", "geometry": {"type": "Point", "coordinates": [14.0617, 49.901]}, "properties": {"kind": "takeoff", "pge_site_id": "16963", "name": "Suchomasty", "ele": "388", "direction": "SW", "paragliding": "1", "hanggliding": "0", "last_edit": "", "url": "http://www.paraglidingearth.com/?site=16963", "in_osm_500m": false}}, {"type": "Feature", "geometry": {"type": "Point", "coordinates": [14.0574, 49.8999]}, "properties": {"kind": "landing", "pge_site_id": "16963", "name": "Suchomasty – landing", "in_osm_500m": false}}, {"type": "Feature", "geometry": {"type": "Point", "coordinates": [14.2704, 49.9422]}, "properties": {"kind": "takeoff", "pge_site_id": "16964", "name": "Dobrichovice", "ele": "324", "direction": "SE", "paragliding": "1", "hanggliding": "0", "last_edit": "", "url": "http://www.paraglidingearth.com/?site=16964", "in_osm_500m": false}}, {"type": "Feature", "geometry": {"type": "Point", "coordinates": [14.2748, 49.9378]}, "properties": {"kind": "landing", "pge_site_id": "16964", "name": "Dobrichovice – landing", "in_osm_500m": false}}, {"type": "Feature", "geometry": {"type": "Point", "coordinates": [14.0001, 49.966]}, "properties": {"kind": "takeoff", "pge_site_id": "16965", "name": "Hudlice", "ele": "384", "direction": "S", "paragliding": "1", "hanggliding": "0", "last_edit": "", "url": "http://www.paraglidingearth.com/?site=16965", "in_osm_500m": false}}, {"type": "Feature", "geometry": {"type": "Point", "coordinates": [13.9995, 49.965]}, "properties": {"kind": "landing", "pge_site_id": "16965", "name": "Hudlice – landing", "in_osm_500m": false}}, {"type": "Feature", "geometry": {"type": "Point", "coordinates": [14.1989, 49.6065]}, "properties": {"kind": "takeoff", "pge_site_id": "16966", "name": "Orlik", "ele": "481", "direction": "NE", "paragliding": "1", "hanggliding": "0", "last_edit": "", "url": "http://www.paraglidingearth.com/?site=16966", "in_osm_500m": false}}, {"type": "Feature", "geometry": {"type": "Point", "coordinates": [14.2014, 49.6081]}, "properties": {"kind": "landing", "pge_site_id": "16966", "name": "Orlik – landing", "in_osm_500m": false}}, {"type": "Feature", "geometry": {"type": "Point", "coordinates": [13.4159, 50.3456]}, "properties": {"kind": "takeoff", "pge_site_id": "19313", "name": "Nechranice", "ele": "278", "direction": "N;NE;E;SE;S;SW;W;NW", "paragliding": "1", "hanggliding": "1", "last_edit": "", "url": "http://www.paraglidingearth.com/?site=19313", "in_osm_500m": false}}, {"type": "Feature", "geometry": {"type": "Point", "coordinates": [13.4169, 50.3469]}, "properties": {"kind": "landing", "pge_site_id": "19313", "name": "Nechranice – landing", "in_osm_500m": false}}, {"type": "Feature", "geometry": {"type": "Point", "coordinates": [13.4186, 50.3512]}, "properties": {"kind": "takeoff", "pge_site_id": "19404", "name": "Nechranice - dam", "ele": "243", "direction": "E", "paragliding": "1", "hanggliding": "0", "last_edit": "", "url": "http://www.paraglidingearth.com/?site=19404", "in_osm_500m": false}}, {"type": "Feature", "geometry": {"type": "Point", "coordinates": [13.4155, 50.3513]}, "properties": {"kind": "landing", "pge_site_id": "19404", "name": "Nechranice - dam – landing", "in_osm_500m": false}}, {"type": "Feature", "geometry": {"type": "Point", "coordinates": [13.239, 50.3649]}, "properties": {"kind": "takeoff", "pge_site_id": "19405", "name": "Uhost", "ele": "538", "direction": "N;NE;W;NW", "paragliding": "1", "hanggliding": "1", "last_edit": "", "url": "http://www.paraglidingearth.com/?site=19405", "in_osm_500m": false}}, {"type": "Feature", "geometry": {"type": "Point", "coordinates": [13.2445, 50.3677]}, "properties": {"kind": "landing", "pge_site_id": "19405", "name": "Uhost – landing", "in_osm_500m": false}}, {"type": "Feature", "geometry": {"type": "Point", "coordinates": [18.4478, 49.5471]}, "properties": {"kind": "takeoff", "pge_site_id": "19479", "name": "Lysa hora NW", "ele": "1273", "direction": "NW", "paragliding": "1", "hanggliding": "0", "last_edit": "", "url": "http://www.paraglidingearth.com/?site=19479", "in_osm_500m": false}}, {"type": "Feature", "geometry": {"type": "Point", "coordinates": [18.4468, 49.544]}, "properties": {"kind": "takeoff", "pge_site_id": "19480", "name": "Lysa hora SW", "ele": "1261", "direction": "SW", "paragliding": "1", "hanggliding": "0", "last_edit": "", "url": "http://www.paraglidingearth.com/?site=19480", "in_osm_500m": false}}, {"type": "Feature", "geometry": {"type": "Point", "coordinates": [13.291, 50.3352]}, "properties": {"kind": "takeoff", "pge_site_id": "19486", "name": "Blov", "ele": "480", "direction": "E;SE;S", "paragliding": "1", "hanggliding": "0", "last_edit": "", "url": "http://www.paraglidingearth.com/?site=19486", "in_osm_500m": false}}, {"type": "Feature", "geometry": {"type": "Point", "coordinates": [13.2969, 50.3331]}, "properties": {"kind": "landing", "pge_site_id": "19486", "name": "Blov – landing", "in_osm_500m": false}}, {"type": "Feature", "geometry": {"type": "Point", "coordinates": [16.082, 49.8863]}, "properties": {"kind": "takeoff", "pge_site_id": "19487", "name": "Stremosice", "ele": "446", "direction": "SW", "paragliding": "1", "hanggliding": "0", "last_edit": "", "url": "http://www.paraglidingearth.com/?site=19487", "in_osm_500m": false}}, {"type": "Feature", "geometry": {"type": "Point", "coordinates": [16.08, 49.8856]}, "properties": {"kind": "landing", "pge_site_id": "19487", "name": "Stremosice – landing", "in_osm_500m": false}}, {"type": "Feature", "geometry": {"type": "Point", "coordinates": [14.5402, 48.9784]}, "properties": {"kind": "takeoff", "pge_site_id": "19802", "name": "Dubicak", "ele": "533", "direction": "NW", "paragliding": "1", "hanggliding": "0", "last_edit": "", "url": "http://www.paraglidingearth.com/?site=19802", "in_osm_500m": false}}, {"type": "Feature", "geometry": {"type": "Point", "coordinates": [14.5386, 48.9791]}, "properties": {"kind": "landing", "pge_site_id": "19802", "name": "Dubicak – landing", "in_osm_500m": false}}, {"type": "Feature", "geometry": {"type": "Point", "coordinates": [14.3893, 50.3926]}, "properties": {"kind": "takeoff", "pge_site_id": "21858", "name": "Cítov", "ele": "233", "direction": "", "paragliding": "1", "hanggliding": "0", "last_edit": "", "url": "http://www.paraglidingearth.com/?site=21858", "in_osm_500m": false}}, {"type": "Feature", "geometry": {"type": "Point", "coordinates": [16.9772, 49.1977]}, "properties": {"kind": "takeoff", "pge_site_id": "21871", "name": "Větrník", "ele": "361", "direction": "S;SW", "paragliding": "1", "hanggliding": "0", "last_edit": "", "url": "http://www.paraglidingearth.com/?site=21871", "in_osm_500m": false}}, {"type": "Feature", "geometry": {"type": "Point", "coordinates": [16.9752, 49.1959]}, "properties": {"kind": "landing", "pge_site_id": "21871", "name": "Větrník – landing", "in_osm_500m": false}}, {"type": "Feature", "geometry": {"type": "Point", "coordinates": [17.3372, 49.2488]}, "properties": {"kind": "takeoff", "pge_site_id": "21872", "name": "zdounky-olšina", "ele": "258", "direction": "SE;S;SW", "paragliding": "1", "hanggliding": "0", "last_edit": "", "url": "http://www.paraglidingearth.com/?site=21872", "in_osm_500m": false}}, {"type": "Feature", "geometry": {"type": "Point", "coordinates": [17.3368, 49.2468]}, "properties": {"kind": "landing", "pge_site_id": "21872", "name": "zdounky-olšina – landing", "in_osm_500m": false}}, {"type": "Feature", "geometry": {"type": "Point", "coordinates": [16.7618, 50.0447]}, "properties": {"kind": "takeoff", "pge_site_id": "21873", "name": "Luzný S, SSV, SSZ", "ele": "714", "direction": "N;NW", "paragliding": "1", "hanggliding": "0", "last_edit": "2025-01-09", "url": "http://www.paraglidingearth.com/?site=21873", "in_osm_500m": false}}, {"type": "Feature", "geometry": {"type": "Point", "coordinates": [16.8199, 49.9992]}, "properties": {"kind": "takeoff", "pge_site_id": "21874", "name": "Jakubovice", "ele": "644", "direction": "SE;S", "paragliding": "1", "hanggliding": "0", "last_edit": "", "url": "http://www.paraglidingearth.com/?site=21874", "in_osm_500m": false}}, {"type": "Feature", "geometry": {"type": "Point", "coordinates": [17.6582, 49.3791]}, "properties": {"kind": "takeoff", "pge_site_id": "21875", "name": "Chlum [Bystřice podHostýnem]", "ele": "413", "direction": "S;SW", "paragliding": "1", "hanggliding": "1", "last_edit": "", "url": "http://www.paraglidingearth.com/?site=21875", "in_osm_500m": false}}, {"type": "Feature", "geometry": {"type": "Point", "coordinates": [17.6645, 49.5776]}, "properties": {"kind": "takeoff", "pge_site_id": "21876", "name": "Uhrinov", "ele": "426", "direction": "SE;S;SW", "paragliding": "1", "hanggliding": "0", "last_edit": "", "url": "http://www.paraglidingearth.com/?site=21876", "in_osm_500m": false}}, {"type": "Feature", "geometry": {"type": "Point", "coordinates": [17.6667, 49.5752]}, "properties": {"kind": "landing", "pge_site_id": "21876", "name": "Uhrinov – landing", "in_osm_500m": false}}, {"type": "Feature", "geometry": {"type": "Point", "coordinates": [16.7202, 49.463]}, "properties": {"kind": "takeoff", "pge_site_id": "21877", "name": "Valchov", "ele": "583", "direction": "N;NE", "paragliding": "1", "hanggliding": "0", "last_edit": "", "url": "http://www.paraglidingearth.com/?site=21877", "in_osm_500m": false}}, {"type": "Feature", "geometry": {"type": "Point", "coordinates": [16.7236, 49.4657]}, "properties": {"kind": "landing", "pge_site_id": "21877", "name": "Valchov – landing", "in_osm_500m": false}}, {"type": "Feature", "geometry": {"type": "Point", "coordinates": [16.8377, 50.1544]}, "properties": {"kind": "takeoff", "pge_site_id": "21878", "name": "Slamník", "ele": "1228", "direction": "SE;S;SW", "paragliding": "1", "hanggliding": "0", "last_edit": "2023-08-26", "url": "http://www.paraglidingearth.com/?site=21878", "in_osm_500m": false}}, {"type": "Feature", "geometry": {"type": "Point", "coordinates": [16.8132, 50.1401]}, "properties": {"kind": "landing", "pge_site_id": "21878", "name": "Slamník – landing", "in_osm_500m": false}}, {"type": "Feature", "geometry": {"type": "Point", "coordinates": [13.4689, 50.3672]}, "properties": {"kind": "takeoff", "pge_site_id": "21913", "name": "Stranna", "ele": "309", "direction": "SW", "paragliding": "1", "hanggliding": "0", "last_edit": "", "url": "http://www.paraglidingearth.com/?site=21913", "in_osm_500m": false}}, {"type": "Feature", "geometry": {"type": "Point", "coordinates": [13.4653, 50.3643]}, "properties": {"kind": "landing", "pge_site_id": "21913", "name": "Stranna – landing", "in_osm_500m": false}}, {"type": "Feature", "geometry": {"type": "Point", "coordinates": [15.2531, 49.7078]}, "properties": {"kind": "takeoff", "pge_site_id": "21914", "name": "Obrvan", "ele": "474", "direction": "SW", "paragliding": "1", "hanggliding": "0", "last_edit": "", "url": "http://www.paraglidingearth.com/?site=21914", "in_osm_500m": true}}, {"type": "Feature", "geometry": {"type": "Point", "coordinates": [15.2548, 49.703]}, "properties": {"kind": "landing", "pge_site_id": "21914", "name": "Obrvan – landing", "in_osm_500m": false}}, {"type": "Feature", "geometry": {"type": "Point", "coordinates": [14.1133, 50.4706]}, "properties": {"kind": "takeoff", "pge_site_id": "21921", "name": "Keblice", "ele": "200", "direction": "NE", "paragliding": "1", "hanggliding": "0", "last_edit": "", "url": "http://www.paraglidingearth.com/?site=21921", "in_osm_500m": false}}, {"type": "Feature", "geometry": {"type": "Point", "coordinates": [14.114, 50.4719]}, "properties": {"kind": "landing", "pge_site_id": "21921", "name": "Keblice – landing", "in_osm_500m": false}}, {"type": "Feature", "geometry": {"type": "Point", "coordinates": [13.5183, 50.5745]}, "properties": {"kind": "takeoff", "pge_site_id": "22225", "name": "Kapucin", "ele": "548", "direction": "SE", "paragliding": "1", "hanggliding": "0", "last_edit": "", "url": "http://www.paraglidingearth.com/?site=22225", "in_osm_500m": false}}, {"type": "Feature", "geometry": {"type": "Point", "coordinates": [13.9933, 50.1236]}, "properties": {"kind": "takeoff", "pge_site_id": "22314", "name": "dul Tuchlovice", "ele": "483", "direction": "NE;E;SE;SW;W;NW", "paragliding": "1", "hanggliding": "0", "last_edit": "", "url": "http://www.paraglidingearth.com/?site=22314", "in_osm_500m": false}}, {"type": "Feature", "geometry": {"type": "Point", "coordinates": [13.9981, 50.1234]}, "properties": {"kind": "landing", "pge_site_id": "22314", "name": "dul Tuchlovice – landing", "in_osm_500m": false}}, {"type": "Feature", "geometry": {"type": "Point", "coordinates": [14.2122, 50.7891]}, "properties": {"kind": "takeoff", "pge_site_id": "22323", "name": "Děčín - Priper", "ele": "304", "direction": "SE", "paragliding": "1", "hanggliding": "0", "last_edit": "", "url": "http://www.paraglidingearth.com/?site=22323", "in_osm_500m": false}}, {"type": "Feature", "geometry": {"type": "Point", "coordinates": [14.2092, 50.7843]}, "properties": {"kind": "landing", "pge_site_id": "22323", "name": "Děčín - Priper – landing", "in_osm_500m": false}}, {"type": "Feature", "geometry": {"type": "Point", "coordinates": [17.0718, 50.3262]}, "properties": {"kind": "takeoff", "pge_site_id": "22447", "name": "Jansky vrh", "ele": "412", "direction": "NE;E;SE;S", "paragliding": "1", "hanggliding": "0", "last_edit": "", "url": "http://www.paraglidingearth.com/?site=22447", "in_osm_500m": false}}, {"type": "Feature", "geometry": {"type": "Point", "coordinates": [17.0776, 50.3261]}, "properties": {"kind": "landing", "pge_site_id": "22447", "name": "Jansky vrh – landing", "in_osm_500m": false}}, {"type": "Feature", "geometry": {"type": "Point", "coordinates": [16.929, 50.4229]}, "properties": {"kind": "takeoff", "pge_site_id": "22448", "name": "Kamenička", "ele": "470", "direction": "NE;E", "paragliding": "1", "hanggliding": "0", "last_edit": "", "url": "http://www.paraglidingearth.com/?site=22448", "in_osm_500m": false}}, {"type": "Feature", "geometry": {"type": "Point", "coordinates": [16.9305, 50.4283]}, "properties": {"kind": "landing", "pge_site_id": "22448", "name": "Kamenička – landing", "in_osm_500m": false}}, {"type": "Feature", "geometry": {"type": "Point", "coordinates": [16.996, 50.3953]}, "properties": {"kind": "takeoff", "pge_site_id": "22449", "name": "Javorník", "ele": "341", "direction": "", "paragliding": "1", "hanggliding": "0", "last_edit": "", "url": "http://www.paraglidingearth.com/?site=22449", "in_osm_500m": false}}, {"type": "Feature", "geometry": {"type": "Point", "coordinates": [16.998, 50.3999]}, "properties": {"kind": "landing", "pge_site_id": "22449", "name": "Javorník – landing", "in_osm_500m": false}}, {"type": "Feature", "geometry": {"type": "Point", "coordinates": [17.0321, 50.3457]}, "properties": {"kind": "takeoff", "pge_site_id": "22450", "name": "Vlčice", "ele": "446", "direction": "NE;E", "paragliding": "1", "hanggliding": "0", "last_edit": "", "url": "http://www.paraglidingearth.com/?site=22450", "in_osm_500m": false}}, {"type": "Feature", "geometry": {"type": "Point", "coordinates": [17.0404, 50.3487]}, "properties": {"kind": "landing", "pge_site_id": "22450", "name": "Vlčice – landing", "in_osm_500m": false}}, {"type": "Feature", "geometry": {"type": "Point", "coordinates": [17.2049, 50.1971]}, "properties": {"kind": "takeoff", "pge_site_id": "22451", "name": "Adolfovice", "ele": "536", "direction": "W;NW", "paragliding": "1", "hanggliding": "0", "last_edit": "", "url": "http://www.paraglidingearth.com/?site=22451", "in_osm_500m": false}}, {"type": "Feature", "geometry": {"type": "Point", "coordinates": [17.2025, 50.1972]}, "properties": {"kind": "landing", "pge_site_id": "22451", "name": "Adolfovice – landing", "in_osm_500m": false}}, {"type": "Feature", "geometry": {"type": "Point", "coordinates": [17.0904, 50.1839]}, "properties": {"kind": "takeoff", "pge_site_id": "22452", "name": "Serak-Mracna", "ele": "1234", "direction": "SW;W", "paragliding": "1", "hanggliding": "0", "last_edit": "", "url": "http://www.paraglidingearth.com/?site=22452", "in_osm_500m": false}}, {"type": "Feature", "geometry": {"type": "Point", "coordinates": [17.0636, 50.1898]}, "properties": {"kind": "landing", "pge_site_id": "22452", "name": "Serak-Mracna – landing", "in_osm_500m": false}}, {"type": "Feature", "geometry": {"type": "Point", "coordinates": [17.0838, 50.1824]}, "properties": {"kind": "takeoff", "pge_site_id": "22453", "name": "Mracna", "ele": "1099", "direction": "W", "paragliding": "1", "hanggliding": "0", "last_edit": "", "url": "http://www.paraglidingearth.com/?site=22453", "in_osm_500m": false}}, {"type": "Feature", "geometry": {"type": "Point", "coordinates": [17.0633, 50.1901]}, "properties": {"kind": "landing", "pge_site_id": "22453", "name": "Mracna – landing", "in_osm_500m": false}}, {"type": "Feature", "geometry": {"type": "Point", "coordinates": [18.1713, 49.5915]}, "properties": {"kind": "takeoff", "pge_site_id": "22673", "name": "Vlčovice", "ele": "381", "direction": "N;NE", "paragliding": "1", "hanggliding": "1", "last_edit": "", "url": "http://www.paraglidingearth.com/?site=22673", "in_osm_500m": false}}, {"type": "Feature", "geometry": {"type": "Point", "coordinates": [16.6523, 48.8674]}, "properties": {"kind": "takeoff", "pge_site_id": "22931", "name": "Děvín", "ele": "504", "direction": "E;SE", "paragliding": "1", "hanggliding": "0", "last_edit": "2025-06-04", "url": "http://www.paraglidingearth.com/?site=22931", "in_osm_500m": true}}, {"type": "Feature", "geometry": {"type": "Point", "coordinates": [16.6616, 48.8681]}, "properties": {"kind": "landing", "pge_site_id": "22931", "name": "Děvín – landing", "in_osm_500m": true}}, {"type": "Feature", "geometry": {"type": "Point", "coordinates": [16.9114, 48.9408]}, "properties": {"kind": "takeoff", "pge_site_id": "22961", "name": "Kobylská skála", "ele": "242", "direction": "N;NE;NW", "paragliding": "1", "hanggliding": "0", "last_edit": "2024-06-04", "url": "http://www.paraglidingearth.com/?site=22961", "in_osm_500m": false}}, {"type": "Feature", "geometry": {"type": "Point", "coordinates": [16.9109, 48.9425]}, "properties": {"kind": "landing", "pge_site_id": "22961", "name": "Kobylská skála – landing", "in_osm_500m": false}}, {"type": "Feature", "geometry": {"type": "Point", "coordinates": [17.0592, 49.014]}, "properties": {"kind": "takeoff", "pge_site_id": "22962", "name": "Strážovice", "ele": "392", "direction": "SE;S", "paragliding": "1", "hanggliding": "0", "last_edit": "2024-06-04", "url": "http://www.paraglidingearth.com/?site=22962", "in_osm_500m": true}}, {"type": "Feature", "geometry": {"type": "Point", "coordinates": [17.0589, 49.0114]}, "properties": {"kind": "landing", "pge_site_id": "22962", "name": "Strážovice – landing", "in_osm_500m": true}}, {"type": "Feature", "geometry": {"type": "Point", "coordinates": [16.5223, 50.0146]}, "properties": {"kind": "takeoff", "pge_site_id": "23355", "name": "Ovčín ", "ele": "478", "direction": "", "paragliding": "1", "hanggliding": "", "last_edit": "2025-01-09", "url": "http://www.paraglidingearth.com/?site=23355", "in_osm_500m": false}}, {"type": "Feature", "geometry": {"type": "Point", "coordinates": [16.7092, 50.0075]}, "properties": {"kind": "takeoff", "pge_site_id": "23356", "name": "Buková hora ", "ele": "926", "direction": "", "paragliding": "1", "hanggliding": "", "last_edit": "2023-10-11", "url": "http://www.paraglidingearth.com/?site=23356", "in_osm_500m": false}}, {"type": "Feature", "geometry": {"type": "Point", "coordinates": [16.5231, 49.8775]}, "properties": {"kind": "takeoff", "pge_site_id": "23358", "name": "Damníkov SE", "ele": "522", "direction": "", "paragliding": "1", "hanggliding": "", "last_edit": "2023-10-17", "url": "http://www.paraglidingearth.com/?site=23358", "in_osm_500m": false}}, {"type": "Feature", "geometry": {"type": "Point", "coordinates": [16.2619, 50.0921]}, "properties": {"kind": "takeoff", "pge_site_id": "23531", "name": "Vrbice NNE kontrolovat NOTAM", "ele": "415", "direction": "", "paragliding": "1", "hanggliding": "", "last_edit": "2024-04-21", "url": "http://www.paraglidingearth.com/?site=23531", "in_osm_500m": false}}, {"type": "Feature", "geometry": {"type": "Point", "coordinates": [16.4394, 49.9794]}, "properties": {"kind": "takeoff", "pge_site_id": "23690", "name": "Černovír ZSZ", "ele": "433", "direction": "", "paragliding": "1", "hanggliding": "", "last_edit": "2025-01-09", "url": "http://www.paraglidingearth.com/?site=23690", "in_osm_500m": false}}, {"type": "Feature", "geometry": {"type": "Point", "coordinates": [16.7336, 49.7224]}, "properties": {"kind": "takeoff", "pge_site_id": "23724", "name": "Doubravice", "ele": "460", "direction": "N;W;NW", "paragliding": "1", "hanggliding": "", "last_edit": "2025-06-04", "url": "http://www.paraglidingearth.com/?site=23724", "in_osm_500m": false}}]}