{"type":"FeatureCollection","features":[{"geometry":{"type":"Point","coordinates":[14.4368652,50.0045809]},"type":"Feature","properties":{"amenity":"recycling","recycling_type":"centre","typobjektu":"SDHMP","nazev":"Sběrný dvůr hlavního města Prahy Generála Šišky","provozovatel":"Pražské služby, a.s.","adresa":"Generála Šišky, Praha 12 - Modřany","provoznidoba":"Po - So 8:30 - 18:00 hod. (8:30 - 17:00 hod. v zimním období), občané mají přednostní právo odevzdat odpady před právnickými subjekty. Poslední příjem odpadu je umožněn 15 minut před koncem provozní doby ","odpadprijem":"objemný odpad (nábytek, zařízení domácnosti), kovy, dřevo, odpad z údržby zeleně, suť z bytových úprav, papír, sklo, plasty, nápojové kartony, nebezpečné odpady, pneumatiky, použitý textil, obuv a oděvy, jedlé oleje a tuky (v uzavřených pet lahvích)","mc":"Praha 12","globalid":"{00E9B0DF-08EA-4236-81CB-B1401B5CB647}"}},{"geometry":{"type":"Point","coordinates":[14.3750707,50.0973505]},"type":"Feature","properties":{"amenity":"recycling","recycling_type":"centre","typobjektu":"SDHMP","nazev":"Sběrný dvůr hlavního města Prahy Proboštská","provozovatel":"Pražské služby, a.s.","adresa":"Proboštská 1, Praha 6 - Dejvice","provoznidoba":"Po - So 8:30 - 18:00 hod. (8:30 - 17:00 hod. v zimním období), občané mají přednostní právo odevzdat odpady před právnickými subjekty. Poslední příjem odpadu je umožněn 15 minut před koncem provozní doby ","odpadprijem":"objemný odpad (nábytek, zařízení domácnosti), kovy, dřevo, odpad z údržby zeleně, suť z bytových úprav, papír, sklo, plasty, nápojové kartony, nebezpečné odpady, pneumatiky, použitý textil, obuv a oděvy, jedlé oleje a tuky (v uzavřených pet lahvích)","mc":"Praha 6","globalid":"{DC883AC6-038A-4317-87A8-0A5889569D5A}"}},{"geometry":{"type":"Point","coordinates":[14.5537157,50.1455323]},"type":"Feature","properties":{"amenity":"recycling","recycling_type":"centre","typobjektu":"SDHMP","nazev":"Sběrný dvůr hlavního města Prahy Jilemnická","provozovatel":"Pražské služby, a.s.","adresa":"Jilemnická ul., Praha 19 (poblíž křiž. ulic Jilemnická a Bohdanečská)","provoznidoba":"Po - So 8:30 - 18:00 hod. (8:30 - 17:00 hod. v zimním období), občané mají přednostní právo odevzdat odpady před právnickými subjekty. Poslední příjem odpadu je umožněn 15 minut před koncem provozní doby ","odpadprijem":"objemný odpad (nábytek, zařízení domácnosti), kovy, dřevo, odpad z údržby zeleně, suť z bytových úprav, papír, sklo, plasty, nápojové kartony, nebezpečné odpady, pneumatiky, použitý textil, obuv a oděvy, jedlé oleje a tuky (v uzavřených pet lahvích)","mc":"Praha Vinoř","globalid":"{3A2AE19E-5DD2-439E-BD06-41E27BE68256}"}},{"geometry":{"type":"Point","coordinates":[14.5129212,50.0786679]},"type":"Feature","properties":{"amenity":"recycling","recycling_type":"centre","typobjektu":"SSMBIO","nazev":"Stabilní sběrné místo pro sběr bioodpadu v Praze 10 - Malešice","provozovatel":"Ing. Jan Švejkovský – JENA – firma služeb","adresa":"Dřevčická 803/25 Praha 10 - Malešice","provoznidoba":"Po - Pá 7:00 - 18:00 ( v době zimního času do 17 hod.), So 7:00 - 15:00","odpadprijem":"Na sběrné místo je možno uložit bioodpad rostlinného původu - z údržby veřejné zeleně a ze zahrad, odpad z lesnictví, odpadní kůru a korek.","mc":"Praha 10","globalid":"{EB16E26E-C4A4-4E96-9516-34E6B8347700}"}},{"geometry":{"type":"Point","coordinates":[14.3080637,50.0801336]},"type":"Feature","properties":{"amenity":"recycling","recycling_type":"centre","typobjektu":"SDMC","nazev":"Sběrný dvůr Drnovská","provozovatel":"Pražské služby a.s.","adresa":"Drnovská 18, Praha 6 - Ruzyně (vjezd z ul. Unhošťské)","provoznidoba":"Úterý: 8:00–16:00 hod., středa: 8:00–18:00 hod., čtvrtek až sobota: 8:00–14:00 hod., neděle: 8:00–12:00 hod.","odpadprijem":"Odevzdat lze objemný odpad, oděvy a textil, dřevo a biologicky rozložitelný odpad","mc":"Praha 6","globalid":"{508AAFBF-CEDE-414D-8046-6168D113EBEE}"}},{"geometry":{"type":"Point","coordinates":[14.614871,50.0881799]},"type":"Feature","properties":{"amenity":"recycling","recycling_type":"centre","typobjektu":"SDHMP","nazev":"Sběrný dvůr hlavního města Prahy Podnikatelská","provozovatel":"Pražské služby, a.s.","adresa":"ul. Podnikatelská, Praha – Běchovice (parc.č. 1327/199","provoznidoba":"Po - So 8:30 - 18:00 hod. (8:30 - 17:00 hod. v zimním období), občané mají přednostní právo odevzdat odpady před právnickými subjekty. Poslední příjem odpadu je umožněn 15 minut před koncem provozní doby ","odpadprijem":"objemný odpad (nábytek, zařízení domácnosti), kovy, dřevo, odpad z údržby zeleně, suť z bytových úprav, papír, sklo, plasty, nápojové kartony, nebezpečné odpady, pneumatiky, použitý textil, obuv a oděvy, jedlé oleje a tuky (v uzavřených pet lahvích)","mc":"Praha - Běchovice","globalid":"{57E518B0-1ADC-42ED-9703-89D2813FAC65}"}},{"geometry":{"type":"Point","coordinates":[14.5042583,50.0977811]},"type":"Feature","properties":{"amenity":"recycling","recycling_type":"centre","typobjektu":"SDHMP","nazev":"Sběrný dvůr hlavního města Prahy Pod Šancemi","provozovatel":"Pražské služby, a.s.","adresa":"Pod Šancemi 444/1, Praha 9 - Vysočany","provoznidoba":"Po - So 8:30 - 18:00 hod. (8:30 - 17:00 hod. v zimním období), občané mají přednostní právo odevzdat odpady před právnickými subjekty. Poslední příjem odpadu je umožněn 15 minut před koncem provozní doby ","odpadprijem":"objemný odpad (nábytek, zařízení domácnosti), kovy, dřevo, odpad z údržby zeleně, suť z bytových úprav, papír, sklo, plasty, nápojové kartony, nebezpečné odpady, pneumatiky, použitý textil, obuv a oděvy, jedlé oleje a tuky (v uzavřených pet lahvích)","mc":"Praha 9","globalid":"{6341F824-17B5-490D-8668-6A9781887DFD}"}},{"geometry":{"type":"Point","coordinates":[14.4395069,50.067646]},"type":"Feature","properties":{"amenity":"recycling","recycling_type":"centre","typobjektu":"SDHMP","nazev":"Sběrný dvůr hlavního města Prahy Perucká","provozovatel":"KOMWAG, a.s.","adresa":"Perucká 10, Praha 2 - Vinohrady","provoznidoba":"Po - So 8:30 - 18:00 hod. (8:30 - 17:00 hod. v zimním období), občané mají přednostní právo odevzdat odpady před právnickými subjekty. Poslední příjem odpadu je umožněn 15 minut před koncem provozní doby.","odpadprijem":"objemný odpad (nábytek, zařízení domácnosti), kovy, dřevo, odpad z údržby zeleně, suť z bytových úprav, papír, sklo, plasty, nápojové kartony, nebezpečné odpady, pneumatiky, použitý textil, obuv a oděvy, jedlé oleje a tuky (v uzavřených pet lahvích)","mc":"Praha 2","globalid":"{B3410E8F-558C-4131-AA34-C9EC21A0C950}"}},{"geometry":{"type":"Point","coordinates":[14.3602937,50.0702962]},"type":"Feature","properties":{"amenity":"recycling","recycling_type":"centre","typobjektu":"SSNO","nazev":"Shromažďovací místo nebezpečných odpadů - Areál společnosti Pražské služby, a.s.","provozovatel":"Pražské služby, a.s.","adresa":"Ke Kotlářce 4, Praha 5","provoznidoba":"Po,út,čt,pá: 6:00 – 14:00 hod., St: 6:00 – 17:00 hod.","mc":"Praha 5","globalid":"{FD5F55EB-89A6-439A-A923-09D9C29CBCA4}"}},{"geometry":{"type":"Point","coordinates":[14.4515232,50.0189776]},"type":"Feature","properties":{"amenity":"recycling","recycling_type":"centre","typobjektu":"SDMC_SSNO","nazev":"Sběrný dvůr Durychova","provozovatel":"VS – Ekoprag s.r.o.","adresa":"Durychova, Praha 4 - Lhotka","provoznidoba":"Po, St 12:00 – 19:00 hod., zimní období: 10:30 - 16:30 hod., Út, Čt, Pá 9:00 - 15:00 hod., So 9:00 - 12:00 hod. ","odpadprijem":"objemný odpad, dřevěný odpad, nebezpečný odpad, lednice, suť z bytových úprav, kovy, pneumatiky z osobního auta","mc":"Praha 4","globalid":"{475F6B88-8F38-4B6A-8CFF-5942B8F84BE5}"}},{"geometry":{"type":"Point","coordinates":[14.5508307,50.0578292]},"type":"Feature","properties":{"amenity":"recycling","recycling_type":"centre","typobjektu":"SSNO","nazev":"Shromažďovací místo nebezpečných odpadů - Areál spol. MIKAPA plus","provozovatel":"Mikapa plus","adresa":"Dolnoměcholupská 28, Praha 10 (vedle areálu Kovošrotu - Dolnoměcholupská 27)","provoznidoba":"Po–Ne: 6:00 – 18:00 hod.","mc":"Praha - Dolní Měcholupy","globalid":"{D65DB26D-2A67-46CD-A314-1A1C2118206F}"}},{"geometry":{"type":"Point","coordinates":[14.4483959,50.0839714]},"type":"Feature","properties":{"amenity":"recycling","recycling_type":"centre","typobjektu":"SSNO","nazev":"Shromažďovací místo nebezpečných odpadů - Areál společnosti Pražské služby, a.s.","provozovatel":"Pražské služby, a.s.","adresa":"Vlkova 35, Praha 3","provoznidoba":"Po, Út, Čt, Pá: 6.00 - 14.00 hod., St: 6:00-17:00 hod. ","mc":"Praha 3","globalid":"{688F5970-D109-44A5-B838-D2366B84B835}"}},{"geometry":{"type":"Point","coordinates":[14.6098251,50.1156284]},"type":"Feature","properties":{"amenity":"recycling","recycling_type":"centre","typobjektu":"SDHMP","nazev":"Sběrný dvůr hlavního města Prahy Chvalkovická","provozovatel":"Odbor místního hospodářství ÚPraha 20","adresa":"Chvalkovická 3, Praha 20 – Horní Počernice","provoznidoba":"Po - So 8:30 - 18:00 hod. (8:30 - 17:00 hod. v zimním období), občané mají přednostní právo odevzdat odpady před právnickými subjekty. Poslední příjem odpadu je umožněn 15 minut před koncem provozní doby ","odpadprijem":"objemný odpad (nábytek, zařízení domácnosti), kovy, dřevo, odpad z údržby zeleně, suť z bytových úprav, papír, sklo, plasty, nápojové kartony, nebezpečné odpady, pneumatiky, použitý textil, obuv a oděvy, jedlé oleje a tuky (v uzavřených pet lahvích)","mc":"Praha 20","globalid":"{5B889F36-3A2C-4161-A5AF-C99CA1772E5B}"}},{"geometry":{"type":"Point","coordinates":[14.3321015,50.0775678]},"type":"Feature","properties":{"amenity":"recycling","recycling_type":"centre","typobjektu":"SDMC","nazev":"Sběrný dvůr Moravanů","provozovatel":"MI.KA.PA. plus","adresa":"Moravanů 2670, Praha 6 - Břevnov","provoznidoba":"Po, St 8:30 - 16:00 hod., Út, Čt 8:30 - 18:00 hod. (8:30 - 16:00 hod. zimní období), Pá, So 8:30 - 12:30 hod.","odpadprijem":"objemný odpad, odpad ze dřeva, odpad ze zeleně, kovový odpad, papír, sklo, plasty","mc":"Praha 6","globalid":"{1E15567A-00CB-44A6-A1CB-B598CA3054BD}"}},{"geometry":{"type":"Point","coordinates":[14.4631571,50.0658228]},"type":"Feature","properties":{"amenity":"recycling","recycling_type":"centre","typobjektu":"SSNO","nazev":"Shromažďovací místo nebezpečných odpadů - Areál společnosti Pražské služby, a.s.","provozovatel":"Pražské služby, a.s.","adresa":"Moskevská 418, Praha 10 - Vršovice","provoznidoba":"Po,út,čt,pá: 6:00 – 14:00 hod., St: 6:00 – 17:00 hod.","mc":"Praha 10","globalid":"{3774079D-A76A-46E4-AB16-8EB5CB546965}"}},{"geometry":{"type":"Point","coordinates":[14.48601,50.0861097]},"type":"Feature","properties":{"amenity":"recycling","recycling_type":"centre","typobjektu":"SDHMP","nazev":"Sběrný dvůr hlavního města Prahy Malešická","provozovatel":"AVE CZ odpadové hospodářství, s.r.o.","adresa":"Malešická 74, 130 00  Praha 3","provoznidoba":"Po - So 8:30 - 18:00 hod. (8:30 - 17:00 hod. v zimním období), občané mají přednostní právo odevzdat odpady před právnickými subjekty. Poslední příjem odpadu je umožněn 15 minut před koncem provozní doby.","odpadprijem":"objemný odpad (nábytek, zařízení domácnosti), kovy, dřevo, odpad z údržby zeleně, suť z bytových úprav, papír, sklo, plasty, nápojové kartony, nebezpečné odpady, pneumatiky, použitý textil, obuv a oděvy, jedlé oleje a tuky (v uzavřených pet lahvích)","mc":"Praha 3","globalid":"{843E70F2-2DEF-4725-8B9E-949935478EA3}"}},{"geometry":{"type":"Point","coordinates":[14.3970615,50.1113385]},"type":"Feature","properties":{"amenity":"recycling","recycling_type":"centre","typobjektu":"SDMC","nazev":"Sběrný dvůr Jednořadá","provozovatel":"MI.KA.PA. plus","adresa":"Jednořadá 1, Praha 6 - Bubeneč","provoznidoba":"Út, Čt 8:30 - 17:30 hod., St 8:30 - 16:30 hod., Pá, So 8:30 - 13:30, Ne 13:00 - 17:00.","odpadprijem":"Odevzdat lze objemný odpad, oděvy a textil, dřevo a biologicky rozložitelný odpad","mc":"Praha 6","globalid":"{B67FEB53-652B-484D-968F-F21B6FA2B524}"}},{"geometry":{"type":"Point","coordinates":[14.5128932,50.080235]},"type":"Feature","properties":{"amenity":"recycling","recycling_type":"centre","typobjektu":"SDHMP","nazev":"Sběrný dvůr hlavního města Prahy Dřevčická","provozovatel":"Domeček - odpady, s.r.o","adresa":"Dřevčická 44, Praha 10 - Malešice","provoznidoba":"Po - Pá 8:30 - 18:00 hod. (8:30 - 17:00 hod. v zimním období), So 8:30 - 15:00 hod, občané mají přednostní právo odevzdat odpady před právnickými subjekty. Poslední příjem odpadu je umožněn 15 minut před koncem provozní doby ","odpadprijem":"objemný odpad (nábytek, zařízení domácnosti), kovy, dřevo, odpad z údržby zeleně, suť z bytových úprav, papír, sklo, plasty, nápojové kartony, nebezpečné odpady, pneumatiky, použitý textil, obuv a oděvy, jedlé oleje a tuky (v uzavřených pet lahvích)","mc":"Praha 10","globalid":"{DE6E3683-A1B8-4433-BCF3-956E5A1E378C}"}},{"geometry":{"type":"Point","coordinates":[14.5910995,50.0396159]},"type":"Feature","properties":{"amenity":"recycling","recycling_type":"centre","typobjektu":"SDHMP","nazev":"Sběrný dvůr hlavního města Prahy Bečovská","provozovatel":"Pražské služby, a.s.","adresa":"Bečovská 939, Praha 10 - Uhříněves","provoznidoba":"Po - So 8:30 - 18:00 hod. (8:30 - 17:00 hod. v zimním období), občané mají přednostní právo odevzdat odpady před právnickými subjekty. Poslední příjem odpadu je umožněn 15 minut před koncem provozní doby ","odpadprijem":"objemný odpad (nábytek, zařízení domácnosti), kovy, dřevo, odpad z údržby zeleně, suť z bytových úprav, papír, sklo, plasty, nápojové kartony, nebezpečné odpady, pneumatiky, použitý textil, obuv a oděvy, jedlé oleje a tuky (v uzavřených pet lahvích)","mc":"Praha 22","globalid":"{FEADA9C0-674C-44EB-B94D-414D832C2926}"}},{"geometry":{"type":"Point","coordinates":[14.5330564,50.0841126]},"type":"Feature","properties":{"amenity":"recycling","recycling_type":"centre","typobjektu":"SDHMP","nazev":"Sběrný dvůr hlavního města Prahy Freko - Malešice","provozovatel":"FREKO a. s.","adresa":"Teplárenská 602/9, 108 00 Praha 10 – Malešice","provoznidoba":"Po - Pá 8:30 - 18:00 hod. (8:30 - 17:00 hod. v zimním období), So 8:30 - 15:00 hod, občané mají přednostní právo odevzdat odpady před právnickými subjekty. Poslední příjem odpadu je umožněn 15 minut před koncem provozní doby ","odpadprijem":"objemný odpad (nábytek, zařízení domácnosti), kovy, dřevo, odpad z údržby zeleně, suť z bytových úprav, papír, sklo, plasty, nápojové kartony, nebezpečné odpady, pneumatiky, použitý textil, obuv a oděvy, jedlé oleje a tuky (v uzavřených pet lahvích)","mc":"MČ Praha 10","globalid":"{C2F24494-0C79-4C3C-B45F-67F0E769A9E9}"}},{"geometry":{"type":"Point","coordinates":[14.468152,50.0116388]},"type":"Feature","properties":{"amenity":"recycling","recycling_type":"centre","typobjektu":"SDHMP","nazev":"Sběrný dvůr hlavního města Prahy Dobronická","provozovatel":"Sdružení Pražské služby a.s. a VS-Ekopra","adresa":"Dobronická 892, Praha 4 – Kunratice (vjezd z ulice Obra","provoznidoba":"Po - Pá 8:30 - 18:00 hod. (8:30 - 17:00 hod. v zimním období), So 8:30 - 15:00 hod, občané mají přednostní právo odevzdat odpady před právnickými subjekty. Poslední příjem odpadu je umožněn 15 minut před koncem provozní doby ","odpadprijem":"objemný odpad (nábytek, zařízení domácnosti), kovy, dřevo, odpad z údržby zeleně, suť z bytových úprav, papír, sklo, plasty, nápojové kartony, nebezpečné odpady, pneumatiky, použitý textil, obuv a oděvy, jedlé oleje a tuky (v uzavřených pet lahvích)","mc":"Praha – Kunratice","globalid":"{94CF3826-4EE6-4844-9829-1E035501A9F9}"}},{"geometry":{"type":"Point","coordinates":[14.5064671,50.0269877]},"type":"Feature","properties":{"amenity":"recycling","recycling_type":"centre","typobjektu":"SDHMP","nazev":"Sběrný dvůr hlavního města Prahy Bartůňkova","provozovatel":"KOMWAG, a.s.","adresa":"Bartůňkova 711, Praha 4 – Chodov","provoznidoba":"Po - So 8:30 - 18:00 hod. (8:30 - 17:00 hod. v zimním období), občané mají přednostní právo odevzdat odpady před právnickými subjekty. Poslední příjem odpadu je umožněn 15 minut před koncem provozní doby.","odpadprijem":"objemný odpad (nábytek, zařízení domácnosti), kovy, dřevo, odpad z údržby zeleně, suť z bytových úprav, papír, sklo, plasty, nápojové kartony, nebezpečné odpady, pneumatiky, použitý textil, obuv a oděvy, jedlé oleje a tuky (v uzavřených pet lahvích)","mc":"Praha 11","globalid":"{DA8C4CFA-4DAF-470F-9BEE-FB1CB97EA1D4}"}},{"geometry":{"type":"Point","coordinates":[14.573912,50.0434144]},"type":"Feature","properties":{"amenity":"recycling","recycling_type":"centre","typobjektu":"SDHMP","nazev":"Sběrný dvůr hlavního města Prahy Za zastávkou","provozovatel":"Pražské služby, a.s.","adresa":"Za zastávkou 3, 109 00 Praha - Dolní Měcholupy","provoznidoba":"Po - So 8:30 - 18:00 hod. (8:30 - 17:00 hod. v zimním období), občané mají přednostní právo odevzdat odpady před právnickými subjekty. Poslední příjem odpadu je umožněn 15 minut před koncem provozní doby ","odpadprijem":"objemný odpad (nábytek, zařízení domácnosti), kovy, dřevo, odpad z údržby zeleně, suť z bytových úprav, papír, sklo, plasty, nápojové kartony, nebezpečné odpady, pneumatiky, použitý textil, obuv a oděvy, jedlé oleje a tuky (v uzavřených pet lahvích)","mc":"Praha - Dolní Měcholupy","globalid":"{79D91902-04DB-4E07-8B75-B8B7CC04ED34}"}},{"geometry":{"type":"Point","coordinates":[14.5321601,50.0855549]},"type":"Feature","properties":{"amenity":"recycling","recycling_type":"centre","typobjektu":"SDHMP","nazev":"Sběrný dvůr hlavního města Prahy Teplárenská","provozovatel":"VS – Ekoprag s.r.o.","adresa":"Teplárenská 5, Praha 14 - Kyje","provoznidoba":"Po - Pá 8:30 - 18:00 hod. (8:30 - 17:00 hod. v zimním období), So 8:30 - 15:00 hod, občané mají přednostní právo odevzdat odpady před právnickými subjekty. Poslední příjem odpadu je umožněn 15 minut před koncem provozní doby ","odpadprijem":"objemný odpad (nábytek, zařízení domácnosti), kovy, dřevo, odpad z údržby zeleně, suť z bytových úprav, papír, sklo, plasty, nápojové kartony, nebezpečné odpady, pneumatiky, použitý textil, obuv a oděvy, jedlé oleje a tuky (v uzavřených pet lahvích)","mc":"Praha 14","globalid":"{2C28C438-799F-40C0-A134-920ADDDA0E4A}"}},{"geometry":{"type":"Point","coordinates":[14.5143655,50.1023424]},"type":"Feature","properties":{"amenity":"recycling","recycling_type":"centre","typobjektu":"SSNO","nazev":"Shromažďovací místo nebezpečných odpadů - Imp - servis, s.r.o.","provozovatel":"Imp - servis, s.r.o.","adresa":"Poděbradská 36, 190 00, Praha 9","provoznidoba":"Po - Čt: 8:00 - 16:00, Pá: 8:00 - 15:30 hod.","mc":"Praha 9","globalid":"{D8550BF7-260C-424A-BC3F-E7F765377E1D}"}},{"geometry":{"type":"Point","coordinates":[14.3722838,50.0592216]},"type":"Feature","properties":{"amenity":"recycling","recycling_type":"centre","typobjektu":"SDMC_SSNO","nazev":"Sběrný dvůr MČ Praha 5 Klikatá","provozovatel":"Regios a.s.","adresa":"Klikatá 1238/90c, Praha 5 - Košíře","provoznidoba":"Po - Pá 8:30 - 18:00 hod., 8:30 - 17:00 hod. v zimním období, So 8:30 - 15:00 hod.","odpadprijem":"objemný odpad (nábytek, zařízení domácnosti), kovy, dřevo, odpad z údržby zeleně, suť z bytových úprav, papír, sklo, plasty, nebezpečné odpady, pneumatiky, použitý textil, obuv a oděvy","mc":"Praha 5","globalid":"{FBA79AB4-7446-45DC-9B08-52140714C61D}"}},{"geometry":{"type":"Point","coordinates":[14.4663698,50.1024601]},"type":"Feature","properties":{"amenity":"recycling","recycling_type":"centre","typobjektu":"SDHMP","nazev":"Sběrný dvůr hlavního města Prahy Voctářova","provozovatel":"Ipodec – čisté město a.s.","adresa":"Voctářova, Praha 8 - Libeň","provoznidoba":"Po - Pá 8:30 - 18:00 hod. (8:30 - 17:00 hod. v zimním období), So 8:30 - 15:00 hod, občané mají přednostní právo odevzdat odpady před právnickými subjekty. Poslední příjem odpadu je umožněn 15 minut před koncem provozní doby ","odpadprijem":"objemný odpad (nábytek, zařízení domácnosti), kovy, dřevo, odpad z údržby zeleně, suť z bytových úprav, papír, sklo, plasty, nápojové kartony, nebezpečné odpady, pneumatiky, použitý textil, obuv a oděvy, jedlé oleje a tuky (v uzavřených pet lahvích)","mc":"Praha 8","globalid":"{DE726AE4-8B9D-4C99-8FEA-7DCBC767B76F}"}},{"geometry":{"type":"Point","coordinates":[14.3712304,50.0590246]},"type":"Feature","properties":{"amenity":"recycling","recycling_type":"centre","typobjektu":"SDHMP","nazev":"Sběrný dvůr hlavního města Prahy Klikatá","provozovatel":"Pražské služby, a.s.","adresa":"Klikatá 1238/90c, Praha 5 - Košíře","provoznidoba":"Po - So 8:30 - 18:00 hod. (8:30 - 17:00 hod. v zimním období), občané mají přednostní právo odevzdat odpady před právnickými subjekty. Poslední příjem odpadu je umožněn 15 minut před koncem provozní doby ","odpadprijem":"objemný odpad (nábytek, zařízení domácnosti), kovy, dřevo, odpad z údržby zeleně, suť z bytových úprav, papír, sklo, plasty, nápojové kartony, nebezpečné odpady, pneumatiky, použitý textil, obuv a oděvy, jedlé oleje a tuky (v uzavřených pet lahvích)","mc":"Praha 5","globalid":"{A7BD6039-DBBB-4004-A3B9-9FB37B22ABF0}"}},{"geometry":{"type":"Point","coordinates":[14.4742034,50.0491383]},"type":"Feature","properties":{"amenity":"recycling","recycling_type":"centre","typobjektu":"SDHMP","nazev":"Sběrný dvůr hlavního města Prahy Zakrytá","provozovatel":"Pražské služby, a.s.","adresa":"Zakrytá, 140 00  Praha 4 – Spořilov","provoznidoba":"Po - So 8:30 - 18:00 hod. (8:30 - 17:00 hod. v zimním období), občané mají přednostní právo odevzdat odpady před právnickými subjekty. Poslední příjem odpadu je umožněn 15 minut před koncem provozní doby ","odpadprijem":"objemný odpad (nábytek, zařízení domácnosti), kovy, dřevo, odpad z údržby zeleně, suť z bytových úprav, papír, sklo, plasty, nápojové kartony, nebezpečné odpady, pneumatiky, použitý textil, obuv a oděvy, jedlé oleje a tuky (v uzavřených pet lahvích)","mc":"Praha 4","globalid":"{6CBBA28B-7E20-4AE0-92BB-513DD5FB6BFE}"}},{"geometry":{"type":"Point","coordinates":[14.4467509,50.0640547]},"type":"Feature","properties":{"amenity":"recycling","recycling_type":"centre","typobjektu":"SSNO","nazev":"Shromažďovací místo nebezpečných odpadů -Výkup druhotných surovin","provozovatel":"Tomáš Klíma","adresa":"Bartoškova 1/a, Praha 4 - Nusle","provoznidoba":"Po–Pá: 8:00 – 17:00, So: 9:00 – 12:00 ","mc":"Praha 4","globalid":"{E47A65B9-2039-4BD7-8A7E-4EBECB6C91DC}"}},{"geometry":{"type":"Point","coordinates":[14.3099695,50.081045]},"type":"Feature","properties":{"amenity":"recycling","recycling_type":"centre","typobjektu":"SDMC","nazev":"Sběrný dvůr Drnovská","provozovatel":"Pražské služby, a.s.","adresa":"Drnovská 18, Praha 6 - Ruzyně","provoznidoba":"Po, Út, Čt, Pá 6:00 - 14:00 hod., St 6:00 - 17:00 hod., So 10:00 - 14:00 hod.","odpadprijem":"objemný odpad, odpad ze dřeva, odpad ze zeleně, kovový odpad, papír, sklo, plasty","mc":"Praha 6","globalid":"{3CF43E82-51BD-4B4D-A437-CDB5B7A3EF94}"}},{"geometry":{"type":"Point","coordinates":[14.3399198,50.0975982]},"type":"Feature","properties":{"amenity":"recycling","recycling_type":"centre","typobjektu":"SDMC","nazev":"Sběrný dvůr Nad lávkou (areál SK Aritma)","provozovatel":"MI.KA.PA. plus","adresa":"Nad lávkou 5, Praha 6 - Vokovice","provoznidoba":"Po, St 8:30 - 16:00 hod., Út, Čt 8:30 - 18:00 hod. (8:30 - 16:00 hod. zimní období), Pá, So 8:30 - 12:30 hod.","odpadprijem":"objemný odpad, odpad ze dřeva, odpad ze zeleně, kovový odpad, papír, sklo, plasty","mc":"Praha 6","globalid":"{C44754D0-AA1E-40EC-AB3F-386D83092BB6}"}},{"geometry":{"type":"Point","coordinates":[14.344575,49.9925043]},"type":"Feature","properties":{"amenity":"recycling","recycling_type":"centre","typobjektu":"SDHMP","nazev":"Sběrný dvůr hlavního města Prahy V Sudech","provozovatel":"Technické služby Radotín","adresa":"V Sudech 1488, Praha 16 - Radotín","provoznidoba":"Po - So 8:30 - 18:00 hod. (8:30 - 17:00 hod. v zimním období), občané mají přednostní právo odevzdat odpady před právnickými subjekty. Poslední příjem odpadu je umožněn 15 minut před koncem provozní doby ","odpadprijem":"objemný odpad (nábytek, zařízení domácnosti), kovy, dřevo, odpad z údržby zeleně, suť z bytových úprav, papír, sklo, plasty, nápojové kartony, nebezpečné odpady, pneumatiky, použitý textil, obuv a oděvy, jedlé oleje a tuky (v uzavřených pet lahvích)","mc":"Praha 16","globalid":"{28DB74A5-D1E9-4D14-A31C-AF0783EBA83F}"}},{"geometry":{"type":"Point","coordinates":[14.5856985,50.1228505]},"type":"Feature","properties":{"amenity":"recycling","recycling_type":"centre","typobjektu":"SDHMP","nazev":"Sběrný dvůr hlavního města Prahy K Cihelně","provozovatel":"IPODEC - ČISTÉ MĚSTO, a.s.","adresa":"K Cihelně 420, Praha 9 - Satalice","provoznidoba":"Po - Pá 8:30 - 18:00 hod. (8:30 - 17:00 hod. v zimním období), So 8:30 - 15:00 hod, občané mají přednostní právo odevzdat odpady před právnickými subjekty. Poslední příjem odpadu je umožněn 15 minut před koncem provozní doby ","odpadprijem":"objemný odpad (nábytek, zařízení domácnosti), kovy, dřevo, odpad z údržby zeleně, suť z bytových úprav, papír, sklo, plasty, nápojové kartony, nebezpečné odpady, pneumatiky, použitý textil, obuv a oděvy, jedlé oleje a tuky (v uzavřených pet lahvích)","mc":"Praha 19","globalid":"{320DBC92-18E4-41F2-8305-81CAB258B498}"}},{"geometry":{"type":"Point","coordinates":[14.5436428,50.0628607]},"type":"Feature","properties":{"amenity":"recycling","recycling_type":"centre","typobjektu":"SSNO","nazev":"Shromažďovací místo nebezpečných odpadů - Areál společnosti AVE CZ, s.r.o.","provozovatel":"AVE CZ, s.r.o.","adresa":"Ke Kablu 289/7, 102 00  Praha - Dolní Měcholupy","provoznidoba":"Po,út,čt,pá: 8:00 – 16:00 hod., St: 8:00 – 17:00 hod.","mc":"MČ Praha - Dolní Měcholupy","globalid":"{1F484A0B-7E6A-41D7-9CAA-CA54BB624358}"}},{"geometry":{"type":"Point","coordinates":[14.4753251,50.0586307]},"type":"Feature","properties":{"amenity":"recycling","recycling_type":"centre","typobjektu":"SDHMP","nazev":"Sběrný dvůr hlavního města Prahy U Plynárny","provozovatel":"VS-Ekoprag s.r.o.","adresa":"U Plynárny, Praha 10","provoznidoba":"Po - Pá 8:30 - 18:00 hod. (8:30 - 17:00 hod. v zimním období), So 8:30 - 15:00 hod, občané mají přednostní právo odevzdat odpady před právnickými subjekty. Poslední příjem odpadu je umožněn 15 minut před koncem provozní doby ","odpadprijem":"objemný odpad (nábytek, zařízení domácnosti), kovy, dřevo, odpad z údržby zeleně, suť z bytových úprav, papír, sklo, plasty, nápojové kartony, nebezpečné odpady, pneumatiky, použitý textil, obuv a oděvy, jedlé oleje a tuky (v uzavřených pet lahvích)","mc":"Praha 10","globalid":"{AF356A7E-A230-408D-A46D-91633EA07058}"}},{"geometry":{"type":"Point","coordinates":[14.3741183,50.0545551]},"type":"Feature","properties":{"amenity":"recycling","recycling_type":"centre","typobjektu":"SDHMP","nazev":"Sběrný dvůr hlavního města Prahy Puchmajerova","provozovatel":"Pražské služby, a.s.","adresa":"Puchmajerova, Praha 5 - Jinonice","provoznidoba":"Po - So 8:30 - 18:00 hod. (8:30 - 17:00 hod. v zimním období), občané mají přednostní právo odevzdat odpady před právnickými subjekty. Poslední příjem odpadu je umožněn 15 minut před koncem provozní doby ","odpadprijem":"objemný odpad (nábytek, zařízení domácnosti), kovy, dřevo, odpad z údržby zeleně, suť z bytových úprav, papír, sklo, plasty, nápojové kartony, nebezpečné odpady, pneumatiky, použitý textil, obuv a oděvy, jedlé oleje a tuky (v uzavřených pet lahvích)","mc":"Praha 5","globalid":"{50468523-C7A0-49CA-A82F-83F0A9FCEE2B}"}},{"geometry":{"type":"Point","coordinates":[14.4834333,50.1551927]},"type":"Feature","properties":{"amenity":"recycling","recycling_type":"centre","typobjektu":"SDHMP","nazev":"Sběrný dvůr hl. m. Prahy – areál skládky Ďáblice","provozovatel":"FCC Česká republika s.r.o","adresa":"Ďáblická 791/89, 182 00 Praha 8 (areál skládky Ďáblice)","provoznidoba":"Po - Pá 8:30 - 18:00 hod. (8:30 - 17:00 hod. v zimním období), So 8:30 - 15:00 hod, občané mají přednostní právo odevzdat odpady před právnickými subjekty. Poslední příjem odpadu je umožněn 15 minut před koncem provozní doby ","odpadprijem":"objemný odpad (nábytek, zařízení domácnosti), kovy, dřevo, odpad z údržby zeleně, suť z bytových úprav, papír, sklo, plasty, nápojové kartony, nebezpečné odpady, pneumatiky, použitý textil, obuv a oděvy, jedlé oleje a tuky (v uzavřených pet lahvích)","mc":"Praha-Ďáblice","globalid":"{D0989E10-F735-493E-9A32-8E40DF7F4546}"}},{"geometry":{"type":"Point","coordinates":[14.3318077,50.0205502]},"type":"Feature","properties":{"amenity":"recycling","recycling_type":"centre","typobjektu":"SSMBIO","nazev":"Kompostárna hl. m. Prahy Slivenec","provozovatel":"Lesy hl. m. Prahy","adresa":"při ulici K Austisu, parc. č. 1783/21, Praha 5, k. ú. Slivenec","provoznidoba":"V období letního času: Po – Pá: 8:30 – 18:00 hodin, So: 8:30 – 15:00 hodin, v období zimního času: Po – Pá 8:30 – 17:00 hodin, So: 8:30 – 15:00 hodin","odpadprijem":"Bioodpad rostlinného původu - z údržby zeleně.","mc":"Praha-Slivenec","globalid":"{D05879F0-D2B2-493C-AC3E-C5B7E2AD61D1}"}},{"geometry":{"type":"Point","coordinates":[14.5348135,50.0280614]},"type":"Feature","properties":{"amenity":"recycling","recycling_type":"centre","typobjektu":"REUSE-CE","nazev":"Reuse centrum Praha 11 ","provozovatel":"Reuse Praha 11, z.s. Reuse centrum je provozováno s podporou hlavního města Prahy.","adresa":"K Milíčovu 674, Praha 11 - Háje ","provoznidoba":"Po: 8:00 – 13:00 hod., Út až Čt: 8:00 – 12:00, 15:30 – 18:00 hod., Pá: 8:00 – 13:00 hod.,So a Ne: zavřeno.","mc":"Praha 11","globalid":"{8930E696-6AF5-4F54-B8EF-1B47C642F325}"}},{"geometry":{"type":"Point","coordinates":[14.4744708,50.1094036]},"type":"Feature","properties":{"amenity":"recycling","recycling_type":"centre","typobjektu":"REUSE-CE","nazev":"Reuse centrum LIBRE","provozovatel":"Zerowasters, z.ú. Reuse centrum je provozováno s podporou hlavního města Prahy.","adresa":"Pivovarnická 1022/3, Praha 8 – Libeň","provoznidoba":"Út – Pá: 13:00 – 18:00 hod., So a Ne:  Zavřeno","mc":"Praha 8","globalid":"{AA9A8D4D-347B-4ACD-B12C-BA52F3F45BA5}"}},{"geometry":{"type":"Point","coordinates":[14.4459989,50.0991932]},"type":"Feature","properties":{"amenity":"recycling","recycling_type":"centre","typobjektu":"REUSE-CE","nazev":"Reuse centrum Sto.re","provozovatel":"Sto.re - cirkulární spot, s.r.o. Reuse centrum je provozováno s podporou hlavního města Prahy.","adresa":"Bubenské nábřeží 306/13 (Holešovická tržnice, hala 13A), Praha 7 – Holešovice","provoznidoba":"Po-Čt: 11:00 – 18:00 hod., Pá: Zavřeno, So: 10:00 – 15:00 hod., Ne: Zavřeno","mc":"Praha 7","globalid":"{FFE03D34-E3A8-47B2-825A-F1E0C2B70665}"}}]}