{"type":"FeatureCollection","features":[{"type":"Feature","geometry":{"type":"Point","coordinates":[15.366239,50.603051]},"properties":{"ID":1,"obec":"Benešov u Semil","umisteni":"parkově upravená plocha při rozcestí nedaleko hřbitova, v blízkosti lípy je pomník padlým z roku 1922","start_date":"1919-05","circumference":2.8}},{"type":"Feature","geometry":{"type":"Point","coordinates":[15.255423,50.678845]},"properties":{"ID":2,"obec":"Bratříkov","vyska_m":"21","umisteni":"v blízkosti hlavní komunikace","start_date":"1919-05-01","circumference":5.7}},{"type":"Feature","geometry":{"type":"Point","coordinates":[14.531679,50.692712]},"properties":{"ID":3,"obec":"Česká Lípa","nazev":"Lípa svobody","status_ochrany":"Památný strom","vyska_m":"16","umisteni":"kruhovitý pozemek na křižovatce ulic Českoamerická, Slovanka a Železničářská","start_date":"1947-10-28","circumference":2.1}},{"type":"Feature","geometry":{"type":"Point","coordinates":[14.535,50.691745]},"properties":{"ID":4,"obec":"Česká Lípa","nazev":"Lípa republiky v České lípě","umisteni":"kousek od ubytování U parku","start_date":"1995-10-28"}},{"type":"Feature","geometry":{"type":"Point","coordinates":[14.531718,50.69266]},"properties":{"ID":5,"obec":"Česká Lípa","nazev":"Lípa svobody v České Lípě","umisteni":"na křižovatce ul. Českokamenická a ul. Železničářská ","start_date":"1947"}},{"type":"Feature","geometry":{"type":"Point","coordinates":[15.184606,50.684055]},"properties":{"ID":6,"obec":"Dalešice","nazev":"Lípa svobody v Dalešicích","umisteni":"u hasičské zbrojnice","start_date":"1919-05-09"}},{"type":"Feature","geometry":{"type":"Point","coordinates":[15.302765,50.687836]},"properties":{"ID":8,"obec":"Držkov","umisteni":"travnatá plocha u kostela sv. Bartoloměje","start_date":"1919-04-20","circumference":2.9}},{"type":"Feature","geometry":{"type":"Point","coordinates":[14.541027,50.54121]},"properties":{"ID":9,"obec":"Dubá","nazev":"Lípa republiky v Dubé","umisteni":"kousek od restaurace a penzionu Tam vedle","start_date":"2018-10-26"}},{"type":"Feature","geometry":{"type":"Point","coordinates":[15.157416,50.65437]},"properties":{"ID":10,"obec":"Frýdštejn","umisteni":"v blízkosti místního koupaliště","start_date":"1919-04-13"}},{"type":"Feature","geometry":{"type":"Point","coordinates":[15.128073,50.657699]},"properties":{"ID":11,"obec":"Frýdštejn","nazev":"Bezděčín","vyska_m":"20","umisteni":"trojúhelníkový zatravněný pozemek na křižovatce, před bývalým hostincem, část obce Frýdštejn","start_date":"1919-04-13","circumference":2.11}},{"type":"Feature","geometry":{"type":"Point","coordinates":[15.405539,50.614295]},"properties":{"ID":12,"obec":"Háje nad Jizerou","umisteni":"v blízkosti kostela sv. Stanislava, po obou stranách vstupu na hřbitov, část obce Háje nad Jizerou","start_date":"1918-10-31","circumference":1.85}},{"type":"Feature","geometry":{"type":"Point","coordinates":[15.300231,50.520394]},"properties":{"ID":13,"obec":"Holenice","umisteni":"u silnice naproti obecnímu úřadu","start_date":"1919-05-29","circumference":2.3}},{"type":"Feature","geometry":{"type":"Point","coordinates":[14.965489,50.816661]},"properties":{"ID":14,"obec":"Chrastava","nazev":"Lípa skautů","status_ochrany":"Památný strom","vyska_m":"20","umisteni":"uprostřed kruhovité zatravněné plochy u autobusového nádraží","start_date":"1968-10-27","circumference":2.21}},{"type":"Feature","geometry":{"type":"Point","coordinates":[15.170015,50.729123]},"properties":{"ID":15,"obec":"Jablonec nad Nisou","nazev":"Skautská lípa v Palackého ulici v Jablonci nad Nisou","umisteni":"u penzionu Pokorný","start_date":"2010-04-24","circumference":0.54}},{"type":"Feature","geometry":{"type":"Point","coordinates":[15.171278,50.726702]},"properties":{"ID":16,"obec":"Jablonec nad Nisou","nazev":"Lípa svobody na Horním náměstí v Jablonci nad Nisou","umisteni":"před kostelem Nejsvětějšího Srdce Páně na Horním náměstí","start_date":"1946-05-05","circumference":2.6}},{"type":"Feature","geometry":{"type":"Point","coordinates":[15.510785,50.662717]},"properties":{"ID":17,"obec":"Jestřabí v Krkonoších","umisteni":"v těsné blízkosti místní komunikace, naproti bývalé hasičské zbrojnici, část obce Jestřabí v Krkonoších","start_date":"1919-04-13"}},{"type":"Feature","geometry":{"type":"Point","coordinates":[15.510791,50.661249]},"properties":{"ID":18,"obec":"Jestřabí v Krkonoších","umisteni":"u pomníku padlých","start_date":"1928-09-02"}},{"type":"Feature","geometry":{"type":"Point","coordinates":[15.510791,50.661249]},"properties":{"ID":19,"obec":"Jestřabí v Krkonoších","umisteni":"u pomníku padlých","start_date":"1928-09-02"}},{"type":"Feature","geometry":{"type":"Point","coordinates":[15.247247,50.960911]},"properties":{"ID":20,"obec":"Jindřichovice pod Smrkem","nazev":"Strom republiky v Jindřichovicích pod Smrkem","umisteni":"v blízkosti místní samoobsluhy","start_date":"2018-10-28","circumference":0.2}},{"type":"Feature","geometry":{"type":"Point","coordinates":[15.244954,50.960816]},"properties":{"ID":21,"obec":"Jindřichovice pod Smrkem","nazev":"Lípa svobody v Jindřichovicích pod Smrkem","umisteni":"kousek od ZŠ a MŠ","start_date":"1968"}},{"type":"Feature","geometry":{"type":"Point","coordinates":[15.143093,50.556054]},"properties":{"ID":22,"obec":"Kacanovy","umisteni":"na hranici pozemků p.č. 1132/2 a 194 v k.ú. Kacanovy, naproti hotelu Králíček, v blízkosti silnice vedoucí k Turnovu","start_date":"1919-05-01","circumference":3.5}},{"type":"Feature","geometry":{"type":"Point","coordinates":[14.470429,50.776528]},"properties":{"ID":23,"obec":"Kamenický Šenov","nazev":"Lípa republiky u ZŠ Kamenický Šenov","umisteni":"u školy","start_date":"2018-10-24","circumference":0.15}},{"type":"Feature","geometry":{"type":"Point","coordinates":[14.470503,50.775925]},"properties":{"ID":24,"obec":"Kamenický Šenov","nazev":"Lípa republiky v Kamenickém Šenově","umisteni":"v sadu nad Sklářským muzeem","start_date":"1968"}},{"type":"Feature","geometry":{"type":"Point","coordinates":[15.20924,50.55985]},"properties":{"ID":25,"obec":"Karlovice","vyska_m":"10","umisteni":"travnatá plocha v blízkosti obecního úřadu","start_date":"1968-10-27","circumference":1.38}},{"type":"Feature","geometry":{"type":"Point","coordinates":[15.012378,50.620837]},"properties":{"ID":26,"obec":"Kobyly","nazev":"Podhora","umisteni":"Podhora – v blízkosti zastávky autobusu","start_date":"1968-10"}},{"type":"Feature","geometry":{"type":"Point","coordinates":[14.990405,50.605421]},"properties":{"ID":27,"obec":"Kobyly","nazev":"Sedlisko","umisteni":"Sedlisko – blízko komunikace, u lípy lavička","start_date":"1968-10"}},{"type":"Feature","geometry":{"type":"Point","coordinates":[15.012896,50.620097]},"properties":{"ID":28,"obec":"Kobyly","nazev":"Vorklebice","umisteni":"Vorklebice – na okraji obce, navazuje na ní třešňová alej","start_date":"1968-10"}},{"type":"Feature","geometry":{"type":"Point","coordinates":[15.005969,50.608544]},"properties":{"ID":29,"obec":"Kobyly","nazev":"Kobyly","umisteni":"Kobyly – malý zatravněný pozemek na okraji obce, částečně se ztrácí v navazujícím porostu","start_date":"1968-10"}},{"type":"Feature","geometry":{"type":"Point","coordinates":[15.184606,50.684055]},"properties":{"ID":30,"obec":"Dalešice","nazev":"Lípa svobody v Dalešicích","umisteni":"zahrada","start_date":"1919"}},{"type":"Feature","geometry":{"type":"Point","coordinates":[15.023075,50.916922]},"properties":{"ID":31,"obec":"Kunratice","umisteni":"menší parkově upravená plocha, označena informativní cedulí","start_date":"2013-10-28","circumference":0.23}},{"type":"Feature","geometry":{"type":"Point","coordinates":[15.533212,50.527343]},"properties":{"ID":32,"obec":"Levínská Olešnice","nazev":"Pmětní lípa svobody v Levínské Olešnici","umisteni":"na rozcestí v blízkosti fary","start_date":"1919-04-13","circumference":3.6}},{"type":"Feature","geometry":{"type":"Point","coordinates":[15.535708,50.527168]},"properties":{"ID":33,"obec":"Levínská Olešnice","nazev":"Lípa svobody","umisteni":"před prodejnou smíšeného zboží","start_date":"1968-10-28"}},{"type":"Feature","geometry":{"type":"Point","coordinates":[15.047637,50.770266]},"properties":{"ID":34,"obec":"Liberec","vyska_m":"20","umisteni":"zatravněná plocha, která je součástí školní zahrady. Lipka je dobře viditelná z ulice, naproti ní přes ulici je budova Základní školy U Soudu.","start_date":"1998-10-27","circumference":0.65}},{"type":"Feature","geometry":{"type":"Point","coordinates":[15.083327,50.764027]},"properties":{"ID":35,"obec":"Liberec","nazev":"Lípa republiky Aloisiny výšiny v Liberci","umisteni":"kousek od hospody Pohoda","start_date":"2018-10-28","circumference":0.14}},{"type":"Feature","geometry":{"type":"Point","coordinates":[15.081739,50.777371]},"properties":{"ID":36,"obec":"Liberec","nazev":"Skautská lípa republiky v Lidových sadech v Liberci","umisteni":"Naproti kulturnímu a společenskému centru Lidové sady","start_date":"1968-10-28"}},{"type":"Feature","geometry":{"type":"Point","coordinates":[15.047647,50.770275]},"properties":{"ID":37,"obec":"Liberec","nazev":"Lípa republiky na Novém městě v Liberci","umisteni":"na pozemku školy ZŠ U Soudu","start_date":"1998-10-28","circumference":0.74}},{"type":"Feature","geometry":{"type":"Point","coordinates":[15.373411,50.530791]},"properties":{"ID":38,"obec":"Lomnice nad Popelkou","umisteni":"dolní část Husova náměstí","start_date":"1919-04-13","circumference":2.0}},{"type":"Feature","geometry":{"type":"Point","coordinates":[15.374367,50.529666]},"properties":{"ID":39,"obec":"Lomnice nad Popelkou","umisteni":"park u školy (Školní náměstí)","start_date":"1968-04-13","circumference":1.4}},{"type":"Feature","geometry":{"type":"Point","coordinates":[15.374528,50.529403]},"properties":{"ID":40,"obec":"Lomnice nad Popelkou","nazev":"Lípa svobody před ZŠ TG Masaryka v Lomnici nad Popelkou","umisteni":"v parku před školou","start_date":"1968"}},{"type":"Feature","geometry":{"type":"Point","coordinates":[15.193095,50.640368]},"properties":{"ID":42,"obec":"Malá Skála","umisteni":"naproti poště, nedaleko jezu a Žluté plovárny","start_date":"1919-04-13","circumference":3.0}},{"type":"Feature","geometry":{"type":"Point","coordinates":[15.193084,50.64034]},"properties":{"ID":43,"obec":"Malá Skála","nazev":"Lípa svobody v Malé skále","umisteni":"u privatu U Splavu","start_date":"1928-10-28"}},{"type":"Feature","geometry":{"type":"Point","coordinates":[15.198397,50.696583]},"properties":{"ID":44,"obec":"Maršovice","nazev":"Lípa republiky u Maršovic","umisteni":"nachází se na soukromém pozemku na hranici s obecní cestou","start_date":"2018-10-28","circumference":0.07}},{"type":"Feature","geometry":{"type":"Point","coordinates":[15.531265,50.582909]},"properties":{"ID":45,"obec":"Martinice v Krkonoších","umisteni":"u křižovatky hlavní silnice Studenec – Jilemnice a odbočky do Martinic, u pomníku K. H. Borovského","start_date":"1921-10-28"}},{"type":"Feature","geometry":{"type":"Point","coordinates":[15.544585,50.583554]},"properties":{"ID":46,"obec":"Martinice v Krkonoších","umisteni":"u pomníku padlých na místním hřbitově","start_date":"1998-10-28"}},{"type":"Feature","geometry":{"type":"Point","coordinates":[15.544718,50.583581]},"properties":{"ID":47,"obec":"Martinice v Krkonoších","umisteni":"u pomníku padlých na místním hřbitově","start_date":"1998-10-28"}},{"type":"Feature","geometry":{"type":"Point","coordinates":[15.258569,50.676236]},"properties":{"ID":48,"obec":"Pěnčín","nazev":"Bratříkov","umisteni":"v blízkosti hlavní komunikace, okolo kmene oplocení s lavičkou, část obce Pěnčín","start_date":"1919-05-01"}},{"type":"Feature","geometry":{"type":"Point","coordinates":[14.721707,50.678024]},"properties":{"ID":49,"obec":"Pertoltice pod Ralskem","nazev":"Pertolická lípa republiky","umisteni":"kousek od Perlotického rybníku","start_date":"2018-10-23","circumference":0.22}},{"type":"Feature","geometry":{"type":"Point","coordinates":[15.323792,50.702396]},"properties":{"ID":50,"obec":"Plavy","nazev":"Haratice","umisteni":"součástí oplocené zahrady rodinného domu, při křižovatce silnic, část obce Plavy","start_date":"1919"}},{"type":"Feature","geometry":{"type":"Point","coordinates":[15.112633,50.582566]},"properties":{"ID":51,"obec":"Přepeře","umisteni":"v blízkosti základní školy, naproti pomníku padlým","start_date":"1919-04-27","circumference":2.0}},{"type":"Feature","geometry":{"type":"Point","coordinates":[15.084531,50.578185]},"properties":{"ID":52,"obec":"Příšovice","umisteni":"menší zatravněná plocha, v blízkosti kaple sv. Václava","start_date":"1919-05-01"}},{"type":"Feature","geometry":{"type":"Point","coordinates":[15.153736,50.74402]},"properties":{"ID":53,"obec":"Rýnovice","nazev":"Rýnovická lípa svobody","umisteni":"nachází se v parku na křižovatce ulic Československé armády a J. K. Tyla","start_date":"1968","circumference":0.95}},{"type":"Feature","geometry":{"type":"Point","coordinates":[14.602417,50.722333]},"properties":{"ID":54,"obec":"Svojkov","umisteni":"u vstupní brány na místní hřbitov","start_date":"1968-10"}},{"type":"Feature","geometry":{"type":"Point","coordinates":[14.597204,50.792935]},"properties":{"ID":55,"obec":"Svor","vyska_m":"19","umisteni":"menší parkově upravená plocha v intravilánu obce, místního názvu „na Richtrově“","start_date":"1968-10-24","circumference":2.15}},{"type":"Feature","geometry":{"type":"Point","coordinates":[15.216054,50.5049]},"properties":{"ID":57,"obec":"Troskovice","nazev":"Lípa Milénia v Troskovicích","umisteni":"na travnaté ploše","start_date":"2000"}},{"type":"Feature","geometry":{"type":"Point","coordinates":[15.161699,50.591294]},"properties":{"ID":58,"obec":"Turnov","nazev":"Lípa svobody","status_ochrany":"Památný strom","umisteni":"na parkově upravené zatravněné ploše před Střední uměleckou průmyslovou školou, v blízkosti křižovatky ulic Skálova a Husova","start_date":"1919-05-11","circumference":2.3}},{"type":"Feature","geometry":{"type":"Point","coordinates":[15.149214,50.572781]},"properties":{"ID":59,"obec":"Turnov","nazev":"Mašov","umisteni":"severozápadní část návsi, část města Turnov","start_date":"1919-05-04","circumference":2.0}},{"type":"Feature","geometry":{"type":"Point","coordinates":[15.052855,50.617708]},"properties":{"ID":60,"obec":"Vlastibořice","umisteni":"malý zatravněný pozemek v blízkosti restaurace","start_date":"1919-04-13"}},{"type":"Feature","geometry":{"type":"Point","coordinates":[15.052509,50.618105]},"properties":{"ID":61,"obec":"Vlastibořice","umisteni":"vlevo od vchodu na hřbitov a ke kostelu sv. Kateřiny","start_date":"1938-04-13"}},{"type":"Feature","geometry":{"type":"Point","coordinates":[15.17692,50.70753]},"properties":{"ID":62,"obec":"Vrkoslavice","nazev":"Lípa republiky na Vrkoslavích","vyska_m":"15 až 20","umisteni":"lípa se nachází v ulici Pražská mezi bytovými domy","start_date":"1945","circumference":1.9}},{"type":"Feature","geometry":{"type":"Point","coordinates":[15.105047,50.557231]},"properties":{"ID":63,"obec":"Všeň","umisteni":"menší zatravněná plocha při křižovatce silnic na Olešnici a Žďár","start_date":"1919-04","circumference":2.23}},{"type":"Feature","geometry":{"type":"Point","coordinates":[15.402869,50.684828]},"properties":{"ID":64,"obec":"Vysoké nad Jizerou","umisteni":" menší zatravněná plocha v blízkosti kostela Sv. Kateřiny, u pomníku padlým z I. světové války","start_date":"1919-04-22"}},{"type":"Feature","geometry":{"type":"Point","coordinates":[15.274359,50.659211]},"properties":{"ID":65,"obec":"Železný Brod","nazev":"Jirkov","umisteni":"zatravněný pozemek s lavičkou a malým dětským hřištěm, část obce Železný Brod","start_date":"1919-05"}},{"type":"Feature","geometry":{"type":"Point","coordinates":[15.264253,50.644998]},"properties":{"ID":66,"obec":"Železný Brod","nazev":"Hrubá Horka","umisteni":"ulice Františka Balatky, součástí travnaté plochy v blízkosti studánky, část obce Železný Brod","start_date":"1919-04-13","circumference":2.7}},{"type":"Feature","geometry":{"type":"Point","coordinates":[15.259981,50.643496]},"properties":{"ID":67,"obec":"Železný Brod","umisteni":"pozemek součástí areálu základní školy (ZŠ Železný Brod, Školní)","start_date":"1968-10-28","circumference":1.75}}]}