{"type":"FeatureCollection","features":[{"type":"Feature","geometry":{"type":"Point","coordinates":[17.220443,49.602248]},"properties":{"ref:SUKL":"00203743916","name":"BENU Lékárna","addr":"Pražská 255/41","TYP_LEKARNY":"Z","opening_hours":"Mo 08:00-20:00; Tu 08:00-20:00; We 08:00-20:00; Th 08:00-20:00; Fr 08:00-20:00; Sa 08:00-18:00; Su 08:00-18:00; PH 08:00-18:00","website":"www.benu.cz","phone":"705 837 301","ruian_adm":"26238772","geocoded":"RÚIAN address point"}},{"type":"Feature","geometry":{"type":"Point","coordinates":[17.277855,49.592897]},"properties":{"ref:SUKL":"00201162013","name":"BENU Lékárna","addr":"Jeremenkova 103/23","TYP_LEKARNY":"Z","opening_hours":"Mo 06:30-18:00; Tu 06:30-18:00; We 06:30-18:00; Th 06:30-18:00; Fr 06:30-18:00; Sa 08:00-12:00","website":"http://www.benu.cz","phone":"703 462 261","ruian_adm":"23275791","geocoded":"RÚIAN address point"}},{"type":"Feature","geometry":{"type":"Point","coordinates":[17.226566,49.574516]},"properties":{"ref:SUKL":"00213903167","name":"BENU Lékárna","addr":"Kafkova 465/47a","TYP_LEKARNY":"Z","opening_hours":"Mo 08:00-18:00; Tu 08:00-18:00; We 08:00-18:00; Th 08:00-18:00; Fr 08:00-18:00; Sa 08:00-18:00; Su 08:00-18:00; PH 08:00-18:00","website":"www.benu.cz","phone":"705 837 323","ruian_adm":"26228769","geocoded":"RÚIAN address point"}},{"type":"Feature","geometry":{"type":"Point","coordinates":[17.250165,49.595286]},"properties":{"ref:SUKL":"89947000001","name":"BENU Lékárna","addr":"8. května 465/24","TYP_LEKARNY":"Z","opening_hours":"Mo 08:00-19:00; Tu 08:00-19:00; We 08:00-19:00; Th 08:00-19:00; Fr 08:00-19:00; Sa 08:00-19:00; Su 08:00-19:00; PH 08:00-19:00","website":"http://www.benu.cz/","phone":"731 638 157","ruian_adm":"25018434","geocoded":"RÚIAN address point"}},{"type":"Feature","geometry":{"type":"Point","coordinates":[17.247713,49.575939]},"properties":{"ref:SUKL":"00202892525","name":"BENU Lékárna, OC BILLA","addr":"Jeremiášova 486/1","TYP_LEKARNY":"Z","opening_hours":"Mo 08:00-20:00; Tu 08:00-20:00; We 08:00-20:00; Th 08:00-20:00; Fr 08:00-20:00; Sa 08:00-20:00; Su 08:00-20:00; PH 08:00-20:00","website":"http://www.benu.cz/","phone":"703 462 277","ruian_adm":"25430289","geocoded":"RÚIAN address point"}},{"type":"Feature","geometry":{"type":"Point","coordinates":[17.271882,49.588445]},"properties":{"ref:SUKL":"89203000000","name":"Dr. Max LÉKÁRNA","addr":"Štursova 1124/3","TYP_LEKARNY":"Z","opening_hours":"Mo 08:00-20:00; Tu 08:00-20:00; We 08:00-20:00; Th 08:00-20:00; Fr 08:00-20:00; Sa 08:00-20:00; Su 08:00-20:00; PH 08:00-20:00","website":"http://www.drmax.cz","phone":"225574015","ruian_adm":"23284366","geocoded":"RÚIAN address point"}},{"type":"Feature","geometry":{"type":"Point","coordinates":[17.223077,49.601531]},"properties":{"ref:SUKL":"89208000000","name":"Dr.Max LÉKÁRNA","addr":"Pražská 248/39","TYP_LEKARNY":"Z","opening_hours":"Mo 08:00-20:00; Tu 08:00-20:00; We 08:00-20:00; Th 08:00-20:00; Fr 08:00-20:00; Sa 08:00-20:00; Su 08:00-20:00; PH 08:00-20:00","website":"http://www.drmax.cz","phone":"225574431","ruian_adm":"25325752","geocoded":"RÚIAN address point"}},{"type":"Feature","geometry":{"type":"Point","coordinates":[17.228165,49.57537]},"properties":{"ref:SUKL":"00202973336","name":"Dr.Max LÉKÁRNA","addr":"Kafkova 1223/8","TYP_LEKARNY":"Z","opening_hours":"Mo 09:00-20:00; Tu 09:00-20:00; We 09:00-20:00; Th 09:00-20:00; Fr 09:00-20:00; Sa 09:00-20:00; Su 09:00-20:00","website":"www.drmax.cz","phone":"225574654","ruian_adm":"25662287","geocoded":"RÚIAN address point"}},{"type":"Feature","geometry":{"type":"Point","coordinates":[17.278348,49.601629]},"properties":{"ref:SUKL":"89100140000","name":"Dr.Max LÉKÁRNA","addr":"Pavlovická 272/18","TYP_LEKARNY":"Z","opening_hours":"Mo 08:00-19:00; Tu 08:00-19:00; We 08:00-19:00; Th 08:00-19:00; Fr 08:00-19:00; Sa 08:00-13:00; Su -; PH -","website":"http://www.drmax.cz","phone":"225574334","ruian_adm":"74172476","geocoded":"RÚIAN address point"}},{"type":"Feature","geometry":{"type":"Point","coordinates":[17.225075,49.584294]},"properties":{"ref:SUKL":"00201647684","name":"Dr.Max LÉKÁRNA","addr":"Hněvotínská 984/56","TYP_LEKARNY":"Z","opening_hours":"Mo 08:00-20:00; Tu 08:00-20:00; We 08:00-20:00; Th 08:00-20:00; Fr 08:00-20:00; Sa 08:00-20:00; Su 08:00-20:00; PH -","website":"www.drmax.cz","phone":"225574639","ruian_adm":"83068074","geocoded":"RÚIAN address point"}},{"type":"Feature","geometry":{"type":"Point","coordinates":[17.24947,49.595544]},"properties":{"ref:SUKL":"89923000000","name":"Dr.Max LÉKÁRNA","addr":"8. května 515/19","TYP_LEKARNY":"Z","opening_hours":"Mo 08:00-17:00; Tu 08:00-17:00; We 08:00-17:00; Th 08:00-17:00; Fr 08:00-17:00; Sa -; Su -; PH -","website":"http://www.drmax.cz","phone":"225 574 192","ruian_adm":"27019632","geocoded":"RÚIAN address point"}},{"type":"Feature","geometry":{"type":"Point","coordinates":[17.257924,49.587425]},"properties":{"ref:SUKL":"89965000000","name":"Dr.Max LÉKÁRNA","addr":"Polská 1201/1","TYP_LEKARNY":"Z","opening_hours":"Mo 08:00-20:00; Tu 08:00-20:00; We 08:00-20:00; Th 08:00-20:00; Fr 08:00-20:00; Sa 08:00-20:00; Su 08:00-20:00; PH 08:00-20:00","website":"http://www.drmax.cz","phone":"225 574 324","ruian_adm":"42678803","geocoded":"RÚIAN address point"}},{"type":"Feature","geometry":{"type":"Point","coordinates":[17.242983,49.595933]},"properties":{"ref:SUKL":"00200826271","name":"EUC Lékárna","addr":"Wellnerova 1215/3a","TYP_LEKARNY":"Z","opening_hours":"Mo 07:15-17:00; Tu 07:15-17:00; We 07:15-17:00; Th 07:15-17:00; Fr 07:15-14:00; Sa -; Su -; PH -","website":"www.euc.cz","phone":"588519074","ruian_adm":"25475568","geocoded":"RÚIAN address point"}},{"type":"Feature","geometry":{"type":"Point","coordinates":[17.249588,49.574603]},"properties":{"ref:SUKL":"89100530000","name":"Fit Lékárna","addr":"Družební 768/2b","TYP_LEKARNY":"Z/OOVL","opening_hours":"Mo 08:00-17:30; Tu 08:00-17:30; We 08:00-17:30; Th 08:00-17:30; Fr 08:00-17:30; Sa -; Su -; PH -","website":"www.fitlekarna.com","phone":"730 778 301","ruian_adm":"27705269","geocoded":"RÚIAN address point"}},{"type":"Feature","geometry":{"type":"Point","coordinates":[17.276321,49.59165]},"properties":{"ref:SUKL":"89295000000","name":"LÉKÁRNA  AGEL","addr":"Jeremenkova 1056/40","TYP_LEKARNY":"Z","opening_hours":"Mo 07:00-16:30; Tu 07:00-16:30; We 07:00-16:30; Th 07:00-16:30; Fr 07:00-14:30; Sa -; Su -; PH -","website":"http://www.poliklinika.agel.cz","phone":"581 071 553, 725 843 523","ruian_adm":"25009672","geocoded":"RÚIAN address point"}},{"type":"Feature","geometry":{"type":"Point","coordinates":[17.27541,49.592154]},"properties":{"ref:SUKL":"89958000000","name":"Lékárna AVE","addr":"tř. Kosmonautů 1294/29","TYP_LEKARNY":"Z","opening_hours":"Mo 08:00-17:00; Tu 08:00-17:00; We 08:00-17:00; Th 08:00-17:00; Fr 08:00-17:00; Sa -; Su -; PH -","website":"http://www.lekarnaave.cz","phone":"585 220 936, 607 041 960","ruian_adm":"56890672","geocoded":"RÚIAN address point"}},{"type":"Feature","geometry":{"type":"Point","coordinates":[17.279251,49.581631]},"properties":{"ref:SUKL":"00202107353","name":"Lékárna Avenier Olomouc","addr":"Holická 1173/49a","TYP_LEKARNY":"Z","opening_hours":"We 07:30-08:30","phone":"720054011","ruian_adm":"25244477","geocoded":"RÚIAN address point"}},{"type":"Feature","geometry":{"type":"Point","coordinates":[17.232766,49.591709]},"properties":{"ref:SUKL":"89263000000","name":"Lékárna BENU","addr":"Kmochova 926/18","TYP_LEKARNY":"Z","opening_hours":"Mo 08:00-18:00; Tu 08:00-18:00; We 08:00-18:00; Th 08:00-18:00; Fr 08:00-17:00; Sa 08:00-12:00","website":"http://lekarna-kalman.webnode.cz/, www.benu.cz","phone":"585 419 785","ruian_adm":"27019098","geocoded":"RÚIAN address point"}},{"type":"Feature","geometry":{"type":"Point","coordinates":[17.255704,49.586878]},"properties":{"ref:SUKL":"89237000000","name":"Lékárna Domovina","addr":"Domovina 774/2","TYP_LEKARNY":"Z","opening_hours":"Mo 07:45-18:00; Tu 07:45-18:00; We 07:45-18:00; Th 07:45-18:00; Fr 07:45-16:00; Sa -; Su -; PH -","website":"http://www.vilazdravi.cz/","phone":"588 500 566","ruian_adm":"23325020","geocoded":"RÚIAN address point"}},{"type":"Feature","geometry":{"type":"Point","coordinates":[17.234227,49.578715]},"properties":{"ref:SUKL":"89100270000","name":"Lékárna Eso","addr":"Čajkovského 67/14","TYP_LEKARNY":"Z","opening_hours":"Mo 08:00-17:00; Tu 08:00-17:00; We 08:00-17:00; Th 08:00-17:00; Fr 08:00-16:00; Sa -; Su -; PH -","website":"http://www.lekarna-eso.cz","phone":"585 242 755","ruian_adm":"25250990","geocoded":"RÚIAN address point"}},{"type":"Feature","geometry":{"type":"Point","coordinates":[17.239605,49.585943]},"properties":{"ref:SUKL":"89302000000","name":"Lékárna FN Olomouc","addr":"Zdravotníků 248/7","TYP_LEKARNY":"NO","opening_hours":"Mo 07:30-17:00; Tu 07:30-17:00; We 07:30-17:00; Th 07:30-17:00; Fr 07:30-17:00; Sa 08:00-12:00; Su 00:00-23:59; PH 00:00-23:59","website":"https://lekarna.fnol.cz/","phone":"585 852 540, 585 854 395","ruian_adm":"31453996","geocoded":"RÚIAN address point"}},{"type":"Feature","geometry":{"type":"Point","coordinates":[17.231125,49.57691]},"properties":{"ref:SUKL":"00203154784","name":"LÉKÁRNA HORNÍ LÁN","addr":"Horní lán 1310/10a","TYP_LEKARNY":"Z","opening_hours":"Mo 07:30-17:00; Tu 07:30-17:00; We 07:30-17:00; Th 07:30-17:00; Fr 07:30-14:00; Sa -; Su -; PH -","website":"horni-lan.cz","phone":"601 100 001","ruian_adm":"28120272","geocoded":"RÚIAN address point"}},{"type":"Feature","geometry":{"type":"Point","coordinates":[17.230881,49.575175]},"properties":{"ref:SUKL":"00215446968","name":"Lékárna LEMON","addr":"Horní lán 1196/9","TYP_LEKARNY":"Z","opening_hours":"Mo 08:00-18:00; Tu 08:00-18:00; We 08:00-18:00; Th 08:00-18:00; Fr 08:00-18:00; Sa 08:00-13:00; Su -; PH -","phone":"603 375 996","ruian_adm":"24986062","geocoded":"RÚIAN address point"}},{"type":"Feature","geometry":{"type":"Point","coordinates":[17.258355,49.602065]},"properties":{"ref:SUKL":"89300000000","name":"Lékárna Na Letné","addr":"Dlouhá 521/34","TYP_LEKARNY":"Z","opening_hours":"Mo 07:30-17:00; Tu 07:30-17:00; We 07:30-17:00; Th 07:30-17:00; Fr 07:30-17:00; Sa -; Su -; PH -","website":"http://www.mujlekarnik.cz","phone":"585 235 273","ruian_adm":"25533665","geocoded":"RÚIAN address point"}},{"type":"Feature","geometry":{"type":"Point","coordinates":[17.253202,49.589315]},"properties":{"ref:SUKL":"89924000001","name":"Lékárna na Poliklinice II","addr":"tř. Svobody 1067/32","TYP_LEKARNY":"Z","opening_hours":"Mo 07:30-17:00; Tu 07:30-17:00; We 07:30-17:00; Th 07:30-17:00; Fr 07:30-16:00; Sa -; Su -; PH -","phone":"585 506 114","ruian_adm":"25057413","geocoded":"RÚIAN address point"}},{"type":"Feature","geometry":{"type":"Point","coordinates":[17.243102,49.578641]},"properties":{"ref:SUKL":"89211000000","name":"Lékárna Na středisku","addr":"Janského 463/24","TYP_LEKARNY":"Z","opening_hours":"Mo 07:00-17:00; Tu 07:00-17:00; We 07:00-17:00; Th 07:00-17:00; Fr 07:00-14:30; Sa -; Su -; PH -","phone":"585 415 188","ruian_adm":"25534785","geocoded":"RÚIAN address point"}},{"type":"Feature","geometry":{"type":"Point","coordinates":[17.243529,49.578531]},"properties":{"ref:SUKL":"89275000000","name":"Lékárna Povel","addr":"Janského 464/26","TYP_LEKARNY":"Z/OOVL","opening_hours":"Mo 08:00-17:00; Tu 08:00-17:00; We 08:00-17:00; Th 08:00-17:00; Fr 08:00-17:00; Sa 08:00-11:00; Su -; PH -","website":"http://lekarnapovel.cz","phone":"585 750 040","ruian_adm":"25534793","geocoded":"RÚIAN address point"}},{"type":"Feature","geometry":{"type":"Point","coordinates":[17.23433,49.591177]},"properties":{"ref:SUKL":"89266000002","name":"Lékárna REMEDIA s.r.o.","addr":"Dobnerova 718/26","TYP_LEKARNY":"Z","opening_hours":"Mo 08:00-17:00; Tu 08:00-17:00; We 08:00-17:00; Th 08:00-17:00; Fr 08:00-16:30","website":"www.lekarnaremedia.cz","phone":"585415385","ruian_adm":"25279432","geocoded":"RÚIAN address point"}},{"type":"Feature","geometry":{"type":"Point","coordinates":[17.25533,49.577241]},"properties":{"ref:SUKL":"89294000000","name":"Lékárna Rena Olomouc s.r.o.","addr":"Zikova 736/1","TYP_LEKARNY":"Z","opening_hours":"Mo 08:00-18:30; Tu 08:00-18:30; We 08:00-18:30; Th 08:00-18:30; Fr 08:00-18:30; Sa 08:00-12:00; Su -; PH -","phone":"585 435 247","ruian_adm":"25063570","geocoded":"RÚIAN address point"}},{"type":"Feature","geometry":{"type":"Point","coordinates":[17.247753,49.595788]},"properties":{"ref:SUKL":"89340000000","name":"Lékárna SPEA","addr":"nám. Národních hrdinů 769/2","TYP_LEKARNY":"Z","opening_hours":"Mo 06:45-18:00; Tu 06:45-18:00; We 06:45-18:00; Th 06:45-18:00; Fr 06:45-18:00; Sa -; Su -; PH -","website":"http://www.spea.cz","phone":"585 505 115","ruian_adm":"25056913","geocoded":"RÚIAN address point"}},{"type":"Feature","geometry":{"type":"Point","coordinates":[17.236409,49.597267]},"properties":{"ref:SUKL":"00203291026","name":"Lékárna Šibeník","addr":"Na Šibeníku 914/1","TYP_LEKARNY":"Z","opening_hours":"Mo 07:30-18:00; Tu 07:30-18:00; We 07:30-18:00; Th 07:30-18:00; Fr 07:30-16:00","website":"www.lekarnasibenik.cz","phone":"736 703 255","ruian_adm":"25823965","geocoded":"RÚIAN address point"}},{"type":"Feature","geometry":{"type":"Point","coordinates":[17.247028,49.5931]},"properties":{"ref:SUKL":"89100370000","name":"Lékárna U Červeného kostela s.r.o.","addr":"Tylova 1136/6","TYP_LEKARNY":"Z","opening_hours":"Mo 07:30-17:00; Tu 07:30-17:00; We 07:30-17:00; Th 07:30-17:00; Fr 07:30-15:30","phone":"585 227 126","ruian_adm":"23328088","geocoded":"RÚIAN address point"}},{"type":"Feature","geometry":{"type":"Point","coordinates":[17.246696,49.595595]},"properties":{"ref:SUKL":"89267000000","name":"Lékárna U Pöttingea","addr":"Palackého 626/3","TYP_LEKARNY":"Z","opening_hours":"Mo 07:30-18:00; Tu 07:30-18:00; We 07:30-18:00; Th 07:30-18:00; Fr 07:30-18:00; Sa -; Su -; PH -","website":"http://www.mujlekarnik.cz","phone":"585223782","ruian_adm":"23323752","geocoded":"RÚIAN address point"}},{"type":"Feature","geometry":{"type":"Point","coordinates":[17.285542,49.592597]},"properties":{"ref:SUKL":"89219000000","name":"LÉKÁRNA U RŮŽE","addr":"Hodolanská 27/6","TYP_LEKARNY":"Z/OOVL","opening_hours":"Mo 08:00-17:00; Tu 08:00-17:00; We 08:00-17:00; Th 08:00-17:00; Fr 08:00-17:00; Sa -; Su -; PH -","phone":"585 313 393","ruian_adm":"25533151","geocoded":"RÚIAN address point"}},{"type":"Feature","geometry":{"type":"Point","coordinates":[17.251713,49.593156]},"properties":{"ref:SUKL":"00214742595","name":"Lékárna U Spasitele","addr":"Dolní náměstí 15/51","TYP_LEKARNY":"Z","opening_hours":"Mo 08:00-16:00; Tu 08:00-16:00; We 08:00-16:00; Th 08:00-16:00; Fr 08:00-16:00; Sa -; Su -; PH -","phone":"606 756 326","ruian_adm":"23318635","geocoded":"RÚIAN address point"}},{"type":"Feature","geometry":{"type":"Point","coordinates":[17.25203,49.595168]},"properties":{"ref:SUKL":"89265000001","name":"Lékárna U sv. Mořice s.r.o.","addr":"Opletalova 475/6","TYP_LEKARNY":"Z","opening_hours":"Mo 07:00-18:00; Tu 07:00-18:00; We 07:00-18:00; Th 07:00-18:00; Fr 07:00-18:00; Sa 08:00-12:00; Su -; PH -","phone":"585 221 552, 585 225 367","ruian_adm":"23322551","geocoded":"RÚIAN address point"}},{"type":"Feature","geometry":{"type":"Point","coordinates":[17.265129,49.605608]},"properties":{"ref:SUKL":"89258000000","name":"Lékárna Vojenské nemocnice","addr":"Sušilovo nám. 1/5","TYP_LEKARNY":"A","opening_hours":"Mo 07:30-15:30; Tu 07:30-15:30; We 07:30-15:30; Th 07:30-15:30; Fr 07:30-14:00; Sa -; Su -; PH -","website":"http://www.vnol.cz/lekarna","phone":"973 407 054","ruian_adm":"25057171","geocoded":"RÚIAN address point"}},{"type":"Feature","geometry":{"type":"Point","coordinates":[17.289049,49.579879]},"properties":{"ref:SUKL":"89100620000","name":"Lékárna 510 Holice","addr":"U solných mlýnů 622/2","TYP_LEKARNY":"Z","opening_hours":"Mo 07:30-17:00; Tu 07:30-17:00; We 07:30-17:00; Th 07:30-17:00; Fr 07:30-17:00; Sa -; Su -; PH -","website":"http://www.lekarna2.cz","phone":"585313560","ruian_adm":"25533371","geocoded":"RÚIAN address point"}},{"type":"Feature","geometry":{"type":"Point","coordinates":[17.267699,49.590325]},"properties":{"ref:SUKL":"00212759282","name":"MAPO lékárna Olomouc","addr":"tř. Kosmonautů 1338/1c","TYP_LEKARNY":"Z","opening_hours":"Mo 07:30-16:00; Tu 07:30-16:00; We 07:30-16:00; Th 07:30-16:00; Fr 07:30-16:00; Sa -; Su -; PH -","phone":"737673812","ruian_adm":"81522282","geocoded":"RÚIAN address point"}}]}