{"type": "FeatureCollection", "features": [{"type": "Feature", "geometry": {"type": "Point", "coordinates": [14.037999, 50.590279]}, "properties": {"vrstva": "Neevidované drobné památky", "kategorie": "kříž", "nazev": "kříž", "popis": "kříž u hlavní silnice", "obec": "Ústí nad Labem", "katastr": "Církvice", "parcela": "211/1", "aktualizace": "2017_SJ119_00081531", "osm_nearest": "none"}}, {"type": "Feature", "geometry": {"type": "Point", "coordinates": [14.056716, 50.59438]}, "properties": {"vrstva": "Neevidované drobné památky", "kategorie": "kříž", "nazev": "kříž", "popis": "kříž u odbočky k nádraží při cestě do obce Církvice", "obec": "Ústí nad Labem", "katastr": "Sebuzín", "parcela": "147/5", "aktualizace": "2017_SJ119_00081531", "osm_nearest": "none"}}, {"type": "Feature", "geometry": {"type": "Point", "coordinates": [14.06681, 50.595406]}, "properties": {"vrstva": "Neevidované drobné památky", "kategorie": "ostatní", "nazev": "boží muka", "popis": "boží muka u odbočky do obce Sebuzín", "obec": "Ústí nad Labem", "katastr": "Sebuzín", "parcela": "867", "aktualizace": "2017_SJ119_00081531", "osm_nearest": "none"}}, {"type": "Feature", "geometry": {"type": "Point", "coordinates": [14.115981, 50.601343]}, "properties": {"vrstva": "Neevidované drobné památky", "kategorie": "kříž", "nazev": "kříž", "popis": "litinový kříž na návsi pod kostelem", "obec": "Malečov", "katastr": "Čeřeniště", "parcela": "164", "aktualizace": "2017_SJ119_00081531", "osm_nearest": "none"}}, {"type": "Feature", "geometry": {"type": "Point", "coordinates": [14.05876, 50.60177]}, "properties": {"vrstva": "Neevidované drobné památky", "kategorie": "pomník", "nazev": "pomník", "popis": "pomník zakladatelům vodovodu na návsi", "obec": "Stebno", "katastr": "Chvalov", "parcela": "1157/1", "aktualizace": "2017_SJ119_00081531", "osm_nearest": "<=30 m"}}, {"type": "Feature", "geometry": {"type": "Point", "coordinates": [13.968151, 50.603957]}, "properties": {"vrstva": "Neevidované drobné památky", "kategorie": "kříž", "nazev": "kříž", "popis": "kříž u křižovatky Stadice - Řehlovice ", "obec": "Řehlovice", "katastr": "Stadice", "parcela": "1829/6", "aktualizace": "2017_SJ119_00081531", "osm_nearest": "<=30 m"}}, {"type": "Feature", "geometry": {"type": "Point", "coordinates": [14.052042, 50.612259]}, "properties": {"vrstva": "Neevidované drobné památky", "kategorie": "kříž", "nazev": "kříž", "popis": "kříž nad obcí za křižovatkou na obec Stebno", "obec": "Stebno", "katastr": "Chvalov", "parcela": "316/1", "aktualizace": "2017_SJ119_00081531", "osm_nearest": "30-75 m"}}, {"type": "Feature", "geometry": {"type": "Point", "coordinates": [13.959125, 50.606233]}, "properties": {"vrstva": "Neevidované drobné památky", "kategorie": "socha", "nazev": "socha sv. Václava", "popis": "socha nad Řehlovicemi proti čp. 122", "obec": "Řehlovice", "katastr": "Řehlovice", "parcela": "112/1", "aktualizace": "2017_SJ119_00081531", "osm_nearest": "<=30 m"}}, {"type": "Feature", "geometry": {"type": "Point", "coordinates": [14.206108, 50.629122]}, "properties": {"vrstva": "Neevidované drobné památky", "kategorie": "kříž", "nazev": "sokl kříže", "popis": "sokl kříže na křižovatka silnic Bláhov - Doubravice", "obec": "Homole u Panny", "katastr": "Homole u Panny", "parcela": "433", "aktualizace": "2017_SJ119_00081531", "osm_nearest": "<=30 m"}}, {"type": "Feature", "geometry": {"type": "Point", "coordinates": [14.187299, 50.627585]}, "properties": {"vrstva": "Neevidované drobné památky", "kategorie": "kříž", "nazev": "kříž", "popis": "kříž u silnice na Řepčice", "obec": "Homole u Panny", "katastr": "Homole u Panny", "parcela": "206", "aktualizace": "2017_SJ119_00081531", "osm_nearest": "<=30 m"}}, {"type": "Feature", "geometry": {"type": "Point", "coordinates": [14.212289, 50.63002]}, "properties": {"vrstva": "Neevidované drobné památky", "kategorie": "kříž", "nazev": "kříž", "popis": "kříž u silnice za Doubravicemi směrem na Týniště", "obec": "Homole u Panny", "katastr": "Homole u Panny", "parcela": "566/1", "aktualizace": "2017_SJ119_00081531", "osm_nearest": "<=30 m"}}, {"type": "Feature", "geometry": {"type": "Point", "coordinates": [14.001528, 50.61238]}, "properties": {"vrstva": "Neevidované drobné památky", "kategorie": "kříž", "nazev": "sokl kříže", "popis": "sokl kříže za obcí Suchá při cestě na Stebno", "obec": "Stebno", "katastr": "Suchá", "parcela": "1159", "aktualizace": "2017_SJ119_00081531", "osm_nearest": "<=30 m"}}, {"type": "Feature", "geometry": {"type": "Point", "coordinates": [13.938013, 50.60803]}, "properties": {"vrstva": "Neevidované drobné památky", "kategorie": "kříž", "nazev": "kříž", "popis": "kamenný kříž s litinovým oplocením na návsi obce Brozánky", "obec": "Řehlovice", "katastr": "Řehlovice", "parcela": "1164/1", "aktualizace": "2017_SJ119_00081531", "osm_nearest": "<=30 m"}}, {"type": "Feature", "geometry": {"type": "Point", "coordinates": [14.150561, 50.628633]}, "properties": {"vrstva": "Neevidované drobné památky", "kategorie": "kříž", "nazev": "kříž", "popis": "kříž před hřbitovem", "obec": "Malečov", "katastr": "Proboštov", "parcela": "331", "aktualizace": "2017_SJ119_00081531", "osm_nearest": "none"}}, {"type": "Feature", "geometry": {"type": "Point", "coordinates": [14.133529, 50.627628]}, "properties": {"vrstva": "Neevidované drobné památky", "kategorie": "kříž", "nazev": "kříž", "popis": "litinový kříž na návsi", "obec": "Malečov", "katastr": "Pohoří", "parcela": "13/1", "aktualizace": "2017_SJ119_00081531", "osm_nearest": "<=30 m"}}, {"type": "Feature", "geometry": {"type": "Point", "coordinates": [14.058264, 50.622756]}, "properties": {"vrstva": "Neevidované drobné památky", "kategorie": "kříž", "nazev": "kříž", "popis": "oboustranný kříž v zahrádce v ul. Kruhová", "obec": "Ústí nad Labem", "katastr": "Vaňov", "parcela": "87", "aktualizace": "2017_SJ119_00081531", "osm_nearest": "<=30 m"}}, {"type": "Feature", "geometry": {"type": "Point", "coordinates": [14.035347, 50.622654]}, "properties": {"vrstva": "Neevidované drobné památky", "kategorie": "kříž", "nazev": "kříž", "popis": "kříž na návsi před čp. 24", "obec": "Stebno", "katastr": "Podlešín", "parcela": "1121/3", "aktualizace": "2017_SJ119_00081531", "osm_nearest": "<=30 m"}}, {"type": "Feature", "geometry": {"type": "Point", "coordinates": [14.033606, 50.623074]}, "properties": {"vrstva": "Neevidované drobné památky", "kategorie": "kříž", "nazev": "kříž", "popis": "kříž v zahradě domu čp. 36", "obec": "Stebno", "katastr": "Podlešín", "parcela": "46", "aktualizace": "2017_SJ119_00081531", "osm_nearest": "<=30 m"}}, {"type": "Feature", "geometry": {"type": "Point", "coordinates": [14.115166, 50.631407]}, "properties": {"vrstva": "Neevidované drobné památky", "kategorie": "kříž", "nazev": "kříž", "popis": "kříž na pravé straně silnice na okraji obce ", "obec": "Malečov", "katastr": "Malečov", "parcela": "346/4", "aktualizace": "2017_SJ119_00081531", "osm_nearest": "<=30 m"}}, {"type": "Feature", "geometry": {"type": "Point", "coordinates": [14.168255, 50.641105]}, "properties": {"vrstva": "Neevidované drobné památky", "kategorie": "ostatní", "nazev": "renesanční reliéf", "popis": "reliéf u studánky v obci Suletice", "obec": "Homole u Panny", "katastr": "Suletice", "parcela": "68/1", "aktualizace": "2017_SJ119_00081531", "osm_nearest": "30-75 m"}}, {"type": "Feature", "geometry": {"type": "Point", "coordinates": [14.168923, 50.641955]}, "properties": {"vrstva": "Neevidované drobné památky", "kategorie": "kříž", "nazev": "kříž", "popis": "zděný kříž v zahradě domu če. 17", "obec": "Homole u Panny", "katastr": "Suletice", "parcela": "44", "aktualizace": "2017_SJ119_00081531", "osm_nearest": "<=30 m"}}, {"type": "Feature", "geometry": {"type": "Point", "coordinates": [14.22027, 50.649144]}, "properties": {"vrstva": "Neevidované drobné památky", "kategorie": "kříž", "nazev": "kříž", "popis": "kamenný kříž před kostelem sv. Maří Magdalény", "obec": "Zubrnice", "katastr": "Zubrnice", "parcela": "126/1", "aktualizace": "2017_SJ119_00081531", "osm_nearest": "<=30 m"}}, {"type": "Feature", "geometry": {"type": "Point", "coordinates": [14.220385, 50.650057]}, "properties": {"vrstva": "Neevidované drobné památky", "kategorie": "kříž", "nazev": "kříž", "popis": "kříž před čp. 34", "obec": "Zubrnice", "katastr": "Zubrnice", "parcela": "54", "aktualizace": "2017_SJ119_00081531", "osm_nearest": "<=30 m"}}, {"type": "Feature", "geometry": {"type": "Point", "coordinates": [14.219841, 50.650373]}, "properties": {"vrstva": "Neevidované drobné památky", "kategorie": "kříž", "nazev": "kříž", "popis": "kříž z r. 1867", "obec": "Zubrnice", "katastr": "Zubrnice", "parcela": "63", "aktualizace": "2017_SJ119_00081531", "osm_nearest": "<=30 m"}}, {"type": "Feature", "geometry": {"type": "Point", "coordinates": [14.222277, 50.651204]}, "properties": {"vrstva": "Neevidované drobné památky", "kategorie": "kříž", "nazev": "torzo kříže", "popis": "torzo kříže při cestě ke kravínu", "obec": "Zubrnice", "katastr": "Zubrnice", "parcela": "538/1", "aktualizace": "2017_SJ119_00081531", "osm_nearest": "none"}}, {"type": "Feature", "geometry": {"type": "Point", "coordinates": [14.096575, 50.642463]}, "properties": {"vrstva": "Neevidované drobné památky", "kategorie": "kříž", "nazev": "kříž", "popis": "kříž na křižovatce Březí - Malečov", "obec": "Ústí nad Labem", "katastr": "Kojetice", "parcela": "363", "aktualizace": "2017_SJ119_00081531", "osm_nearest": "<=30 m"}}, {"type": "Feature", "geometry": {"type": "Point", "coordinates": [14.112335, 50.649753]}, "properties": {"vrstva": "Neevidované drobné památky", "kategorie": "kříž", "nazev": "kříž", "popis": "kříž u silnice před obcí směrem od Svádova", "obec": "Malečov", "katastr": "Březí", "parcela": "493", "aktualizace": "2017_SJ119_00081531", "osm_nearest": "<=30 m"}}, {"type": "Feature", "geometry": {"type": "Point", "coordinates": [14.116164, 50.661398]}, "properties": {"vrstva": "Neevidované drobné památky", "kategorie": "kříž", "nazev": "kříž", "popis": "kříž u křižovatky na Budov", "obec": "Ústí nad Labem", "katastr": "Olešnice", "parcela": "182/2", "aktualizace": "2017_SJ119_00081531", "osm_nearest": "<=30 m"}}, {"type": "Feature", "geometry": {"type": "Point", "coordinates": [14.129232, 50.665723]}, "properties": {"vrstva": "Neevidované drobné památky", "kategorie": "kříž", "nazev": "Janíkův kříž", "popis": "kříž nad benzinovou pumpou", "obec": "Velké Březno", "katastr": "Valtířov", "parcela": "332", "aktualizace": "2017_SJ119_00081531", "osm_nearest": "<=30 m"}}, {"type": "Feature", "geometry": {"type": "Point", "coordinates": [14.144463, 50.669434]}, "properties": {"vrstva": "Neevidované drobné památky", "kategorie": "kříž", "nazev": "kříž", "popis": "litinový kříž u železničního přejezdu", "obec": "Povrly", "katastr": "Neštědice", "parcela": "214/1", "aktualizace": "2017_SJ119_00081531", "osm_nearest": "<=30 m"}}, {"type": "Feature", "geometry": {"type": "Point", "coordinates": [14.087722, 50.66433]}, "properties": {"vrstva": "Neevidované drobné památky", "kategorie": "kříž", "nazev": "torzo kříže s Maří Magdalenou", "popis": "torzo kříže u železničního podjezdu v ulici Nový Svět", "obec": "Ústí nad Labem", "katastr": "Krásné Březno", "parcela": "322/1", "aktualizace": "2017_SJ119_00081531", "osm_nearest": "<=30 m"}}, {"type": "Feature", "geometry": {"type": "Point", "coordinates": [14.039917, 50.660374]}, "properties": {"vrstva": "Neevidované drobné památky", "kategorie": "ostatní", "nazev": "sloup sv. Antonína", "popis": "sloup na Mírovém náměstí", "obec": "Ústí nad Labem", "katastr": "Ústí nad Labem", "parcela": "4257", "aktualizace": "2017_SJ119_00081531", "osm_nearest": "<=30 m"}}, {"type": "Feature", "geometry": {"type": "Point", "coordinates": [13.995049, 50.657702]}, "properties": {"vrstva": "Neevidované drobné památky", "kategorie": "kříž", "nazev": "kříž", "popis": "kříž před kostelem sv. Josefa", "obec": "Ústí nad Labem", "katastr": "Předlice", "parcela": "7", "aktualizace": "2017_SJ119_00081531", "osm_nearest": "<=30 m"}}, {"type": "Feature", "geometry": {"type": "Point", "coordinates": [14.0431, 50.663003]}, "properties": {"vrstva": "Neevidované drobné památky", "kategorie": "ostatní", "nazev": "wolfrum", "popis": null, "obec": "Ústí nad Labem", "katastr": "Ústí nad Labem", "parcela": "1377/3", "aktualizace": "2017_SJ119_00081531", "osm_nearest": "30-75 m"}}, {"type": "Feature", "geometry": {"type": "Point", "coordinates": [14.030717, 50.663964]}, "properties": {"vrstva": "Neevidované drobné památky", "kategorie": "pomník", "nazev": "torzo pomníku", "popis": "torzo pomníku v Mánesových sadech", "obec": "Ústí nad Labem", "katastr": "Ústí nad Labem", "parcela": "593/2", "aktualizace": "2017_SJ119_00081531", "osm_nearest": "none"}}, {"type": "Feature", "geometry": {"type": "Point", "coordinates": [14.05115, 50.666683]}, "properties": {"vrstva": "Neevidované drobné památky", "kategorie": "kříž", "nazev": "sokl kříže", "popis": "sokl kříže při cestě na Mariánskou skálu", "obec": "Ústí nad Labem", "katastr": "Ústí nad Labem", "parcela": "4868", "aktualizace": "2017_SJ119_00081531", "osm_nearest": "<=30 m"}}, {"type": "Feature", "geometry": {"type": "Point", "coordinates": [14.120411, 50.673668]}, "properties": {"vrstva": "Neevidované drobné památky", "kategorie": "pomník", "nazev": "pomník T. G. Masaryka", "popis": "pomník v parku vedle Chotkovské kaple", "obec": "Velké Březno", "katastr": "Valtířov", "parcela": "4/7", "aktualizace": "2017_SJ119_00081531", "osm_nearest": "<=30 m"}}, {"type": "Feature", "geometry": {"type": "Point", "coordinates": [14.028244, 50.666221]}, "properties": {"vrstva": "Neevidované drobné památky", "kategorie": "pomník", "nazev": "pomník holokaustu", "popis": "pomník v Městských sadech", "obec": "Ústí nad Labem", "katastr": "Ústí nad Labem", "parcela": "721/1", "aktualizace": "2017_SJ119_00081531", "osm_nearest": "30-75 m"}}, {"type": "Feature", "geometry": {"type": "Point", "coordinates": [14.079099, 50.671856]}, "properties": {"vrstva": "Neevidované drobné památky", "kategorie": "ostatní", "nazev": "strom života", "popis": "strom života v bývalém parku Na Vinici", "obec": "Ústí nad Labem", "katastr": "Krásné Březno", "parcela": "1051/1", "aktualizace": "2017_SJ119_00081531", "osm_nearest": "<=30 m"}}, {"type": "Feature", "geometry": {"type": "Point", "coordinates": [14.079657, 50.672272]}, "properties": {"vrstva": "Neevidované drobné památky", "kategorie": "ostatní", "nazev": "náhrobky rodiny Wolfrumů a Ecklmannů", "popis": "náhrobky v bývalém parku Na Vinici", "obec": "Ústí nad Labem", "katastr": "Krásné Březno", "parcela": "1052", "aktualizace": "2017_SJ119_00081531", "osm_nearest": "30-75 m"}}, {"type": "Feature", "geometry": {"type": "Point", "coordinates": [14.024513, 50.668231]}, "properties": {"vrstva": "Neevidované drobné památky", "kategorie": "pomník", "nazev": "památník národního odboje", "popis": "památník v Městských sadech", "obec": "Ústí nad Labem", "katastr": "Ústí nad Labem", "parcela": "721/1", "aktualizace": "2017_SJ119_00081531", "osm_nearest": "<=30 m"}}, {"type": "Feature", "geometry": {"type": "Point", "coordinates": [14.024678, 50.669093]}, "properties": {"vrstva": "Neevidované drobné památky", "kategorie": "pomník", "nazev": "pomník obětem komunismu", "popis": "pomník v Městských sadech", "obec": "Ústí nad Labem", "katastr": "Ústí nad Labem", "parcela": "721/1", "aktualizace": "2017_SJ119_00081531", "osm_nearest": "30-75 m"}}, {"type": "Feature", "geometry": {"type": "Point", "coordinates": [14.047102, 50.673073]}, "properties": {"vrstva": "Neevidované drobné památky", "kategorie": "pomník", "nazev": "pomník", "popis": "pomník ve Stříbrníkách, na Hůrce", "obec": "Ústí nad Labem", "katastr": "Ústí nad Labem", "parcela": "5184", "aktualizace": "2017_SJ119_00081531", "osm_nearest": "30-75 m"}}, {"type": "Feature", "geometry": {"type": "Point", "coordinates": [14.046564, 50.673046]}, "properties": {"vrstva": "Neevidované drobné památky", "kategorie": "ostatní", "nazev": "sokl kříže", "popis": "sokl kříže ve Stříbrníkách, na Hůrce", "obec": "Ústí nad Labem", "katastr": "Ústí nad Labem", "parcela": "5184", "aktualizace": "2017_SJ119_00081531", "osm_nearest": "<=30 m"}}, {"type": "Feature", "geometry": {"type": "Point", "coordinates": [14.04476, 50.673358]}, "properties": {"vrstva": "Neevidované drobné památky", "kategorie": "kříž", "nazev": "sokl kříže", "popis": "sokl kříže ve Stříbrníkách v ulici Pod Hůrkou u čp. 3000", "obec": "Ústí nad Labem", "katastr": "Ústí nad Labem", "parcela": "5092", "aktualizace": "2017_SJ119_00081531", "osm_nearest": "none"}}, {"type": "Feature", "geometry": {"type": "Point", "coordinates": [14.114236, 50.679708]}, "properties": {"vrstva": "Neevidované drobné památky", "kategorie": "pomník", "nazev": "pomník", "popis": "pomník v parku u křižovatky ulic Hlavní - K Haldě", "obec": "Ústí nad Labem", "katastr": "Mojžíř", "parcela": "192/1", "aktualizace": "2017_SJ119_00081531", "osm_nearest": "<=30 m"}}, {"type": "Feature", "geometry": {"type": "Point", "coordinates": [14.180912, 50.686725]}, "properties": {"vrstva": "Neevidované drobné památky", "kategorie": "kříž", "nazev": "kříž", "popis": "kříž pod kostelem v zahradě čp. 22", "obec": "Povrly", "katastr": "Roztoky", "parcela": "6", "aktualizace": "2017_SJ119_00081531", "osm_nearest": "<=30 m"}}, {"type": "Feature", "geometry": {"type": "Point", "coordinates": [14.113302, 50.681231]}, "properties": {"vrstva": "Neevidované drobné památky", "kategorie": "socha", "nazev": "socha sv. Floriána", "popis": "socha před domem čp. 58", "obec": "Ústí nad Labem", "katastr": "Mojžíř", "parcela": "78", "aktualizace": "2017_SJ119_00081531", "osm_nearest": "<=30 m"}}, {"type": "Feature", "geometry": {"type": "Point", "coordinates": [14.114977, 50.681793]}, "properties": {"vrstva": "Neevidované drobné památky", "kategorie": "kříž", "nazev": "kříž", "popis": "kříž u kostela sv. Šimona a Judy", "obec": "Ústí nad Labem", "katastr": "Mojžíř", "parcela": "2", "aktualizace": "2017_SJ119_00081531", "osm_nearest": "<=30 m"}}, {"type": "Feature", "geometry": {"type": "Point", "coordinates": [14.009726, 50.678779]}, "properties": {"vrstva": "Neevidované drobné památky", "kategorie": "pomník", "nazev": "pomník J. Fučíka", "popis": "pomník v parku u pošty", "obec": "Ústí nad Labem", "katastr": "Bukov", "parcela": "552/5", "aktualizace": "2017_SJ119_00081531", "osm_nearest": "<=30 m"}}, {"type": "Feature", "geometry": {"type": "Point", "coordinates": [14.007669, 50.679764]}, "properties": {"vrstva": "Neevidované drobné památky", "kategorie": "pomník", "nazev": "pomník tramvajového neštěstí", "popis": "pomník v ulici Masarykova, u kruhového objezdu", "obec": "Ústí nad Labem", "katastr": "Bukov", "parcela": "517/2", "aktualizace": "2017_SJ119_00081531", "osm_nearest": "<=30 m"}}, {"type": "Feature", "geometry": {"type": "Point", "coordinates": [13.937035, 50.673901]}, "properties": {"vrstva": "Neevidované drobné památky", "kategorie": "kříž", "nazev": "smírčí kříž", "popis": "smírčí kříž v Nádražní ulici u čp. 63", "obec": "Chabařovice", "katastr": "Chabařovice", "parcela": "722/2", "aktualizace": "2017_SJ119_00081531", "osm_nearest": "<=30 m"}}, {"type": "Feature", "geometry": {"type": "Point", "coordinates": [13.980157, 50.678899]}, "properties": {"vrstva": "Neevidované drobné památky", "kategorie": "kříž", "nazev": "smírčí kříž", "popis": "smírčí kříž na návsi", "obec": "Chlumec", "katastr": "Střížovice", "parcela": "20/1", "aktualizace": "2017_SJ119_00081531", "osm_nearest": "<=30 m"}}, {"type": "Feature", "geometry": {"type": "Point", "coordinates": [14.039906, 50.684448]}, "properties": {"vrstva": "Neevidované drobné památky", "kategorie": "pomník", "nazev": "památník Rudé armádě", "popis": "památník u křižovatky ulic Kočkovská - Severní", "obec": "Ústí nad Labem", "katastr": "Ústí nad Labem", "parcela": "4690", "aktualizace": "2017_SJ119_00081531", "osm_nearest": "<=30 m"}}, {"type": "Feature", "geometry": {"type": "Point", "coordinates": [13.980015, 50.67896]}, "properties": {"vrstva": "Neevidované drobné památky", "kategorie": "kříž", "nazev": "kříž", "popis": "kříž na návsi z r. 1736", "obec": "Chlumec", "katastr": "Střížovice", "parcela": "20/1", "aktualizace": "2017_SJ119_00081531", "osm_nearest": "<=30 m"}}, {"type": "Feature", "geometry": {"type": "Point", "coordinates": [14.069774, 50.687503]}, "properties": {"vrstva": "Neevidované drobné památky", "kategorie": "kříž", "nazev": "kříž", "popis": "kříž při křižovatce na Chuderov", "obec": "Chuderov", "katastr": "Žežice", "parcela": "32", "aktualizace": "2017_SJ119_00081531", "osm_nearest": "<=30 m"}}, {"type": "Feature", "geometry": {"type": "Point", "coordinates": [13.978657, 50.679601]}, "properties": {"vrstva": "Neevidované drobné památky", "kategorie": "kříž", "nazev": "kříž", "popis": "kříž z r. 1804 u silnice z Českého Újezdu", "obec": "Chlumec", "katastr": "Střížovice", "parcela": "49/1", "aktualizace": "2017_SJ119_00081531", "osm_nearest": "<=30 m"}}, {"type": "Feature", "geometry": {"type": "Point", "coordinates": [14.003751, 50.682304]}, "properties": {"vrstva": "Neevidované drobné památky", "kategorie": "pomník", "nazev": "pomník kpt. Jaroše", "popis": "pomník na křižovatce ulic Masarykova - Kpt. Jaroše", "obec": "Ústí nad Labem", "katastr": "Bukov", "parcela": "300", "aktualizace": "2017_SJ119_00081531", "osm_nearest": "<=30 m"}}, {"type": "Feature", "geometry": {"type": "Point", "coordinates": [14.001721, 50.683139]}, "properties": {"vrstva": "Neevidované drobné památky", "kategorie": "pomník", "nazev": "pomník Rudé armády", "popis": "pomník na křižovatce ulic Masarykova - Kosmova", "obec": "Ústí nad Labem", "katastr": "Bukov", "parcela": "1333/1", "aktualizace": "2017_SJ119_00081531", "osm_nearest": "<=30 m"}}, {"type": "Feature", "geometry": {"type": "Point", "coordinates": [13.938738, 50.677471]}, "properties": {"vrstva": "Neevidované drobné památky", "kategorie": "pomník", "nazev": "pomník T. G. Masaryka", "popis": "pomník v parku u křižovatky ulic Smetanova - Masarykova", "obec": "Chabařovice", "katastr": "Chabařovice", "parcela": "1146", "aktualizace": "2017_SJ119_00081531", "osm_nearest": "<=30 m"}}, {"type": "Feature", "geometry": {"type": "Point", "coordinates": [13.993144, 50.6838]}, "properties": {"vrstva": "Neevidované drobné památky", "kategorie": "kříž", "nazev": "kříž", "popis": "kříž před kostelem", "obec": "Ústí nad Labem", "katastr": "Všebořice", "parcela": "12/1", "aktualizace": "2017_SJ119_00081531", "osm_nearest": "<=30 m"}}, {"type": "Feature", "geometry": {"type": "Point", "coordinates": [14.024245, 50.688225]}, "properties": {"vrstva": "Neevidované drobné památky", "kategorie": "kříž", "nazev": "kříž", "popis": "kříž nad Božtěšicemi v ulici Chuderovská", "obec": "Ústí nad Labem", "katastr": "Ústí nad Labem", "parcela": "4813/1", "aktualizace": "2017_SJ119_00081531", "osm_nearest": "<=30 m"}}, {"type": "Feature", "geometry": {"type": "Point", "coordinates": [14.012633, 50.687801]}, "properties": {"vrstva": "Neevidované drobné památky", "kategorie": "kříž", "nazev": "kříž", "popis": "kříž u bývalé školy v ulici Osvoboditelů", "obec": "Ústí nad Labem", "katastr": "Skorotice", "parcela": "713", "aktualizace": "2017_SJ119_00081531", "osm_nearest": "<=30 m"}}, {"type": "Feature", "geometry": {"type": "Point", "coordinates": [14.150377, 50.700642]}, "properties": {"vrstva": "Neevidované drobné památky", "kategorie": "kříž", "nazev": "kříž", "popis": "kříž na návsi", "obec": "Povrly", "katastr": "Český Bukov", "parcela": "14/1", "aktualizace": "2017_SJ119_00081531", "osm_nearest": "<=30 m"}}, {"type": "Feature", "geometry": {"type": "Point", "coordinates": [13.995659, 50.687128]}, "properties": {"vrstva": "Neevidované drobné památky", "kategorie": "kříž", "nazev": "kříž", "popis": "kříž na křižovatce ulic Plynárenská - Masarykova", "obec": "Ústí nad Labem", "katastr": "Všebořice", "parcela": "451/1", "aktualizace": "2017_SJ119_00081531", "osm_nearest": "<=30 m"}}, {"type": "Feature", "geometry": {"type": "Point", "coordinates": [14.149493, 50.701206]}, "properties": {"vrstva": "Neevidované drobné památky", "kategorie": "kříž", "nazev": "kříž", "popis": "dřevěný kříž za obcí u silnice na Šachov", "obec": "Povrly", "katastr": "Český Bukov", "parcela": "74/1", "aktualizace": "2017_SJ119_00081531", "osm_nearest": "<=30 m"}}, {"type": "Feature", "geometry": {"type": "Point", "coordinates": [14.153028, 50.701553]}, "properties": {"vrstva": "Neevidované drobné památky", "kategorie": "kříž", "nazev": "kříž", "popis": "kříž za obcí při cestě na Maškovice", "obec": "Povrly", "katastr": "Český Bukov", "parcela": "293/5", "aktualizace": "2017_SJ119_00081531", "osm_nearest": "<=30 m"}}, {"type": "Feature", "geometry": {"type": "Point", "coordinates": [14.022407, 50.690379]}, "properties": {"vrstva": "Neevidované drobné památky", "kategorie": "kříž", "nazev": "kříž", "popis": "kříž  na návsi", "obec": "Ústí nad Labem", "katastr": "Božtěšice", "parcela": "146/1", "aktualizace": "2017_SJ119_00081531", "osm_nearest": "<=30 m"}}, {"type": "Feature", "geometry": {"type": "Point", "coordinates": [14.076907, 50.695471]}, "properties": {"vrstva": "Neevidované drobné památky", "kategorie": "kříž", "nazev": "kříž", "popis": "kříž na návsi", "obec": "Chuderov", "katastr": "Žežice", "parcela": "449", "aktualizace": "2017_SJ119_00081531", "osm_nearest": "<=30 m"}}, {"type": "Feature", "geometry": {"type": "Point", "coordinates": [14.007548, 50.689227]}, "properties": {"vrstva": "Neevidované drobné památky", "kategorie": "pomník", "nazev": "pomník II. světové války", "popis": "pomník naproti mateřské škole", "obec": "Ústí nad Labem", "katastr": "Skorotice", "parcela": "23", "aktualizace": "2017_SJ119_00081531", "osm_nearest": "<=30 m"}}, {"type": "Feature", "geometry": {"type": "Point", "coordinates": [14.022033, 50.690721]}, "properties": {"vrstva": "Neevidované drobné památky", "kategorie": "socha", "nazev": "torzo sochy sv. Jana Nepomuckého", "popis": "torzo sochy u kaple", "obec": "Ústí nad Labem", "katastr": "Božtěšice", "parcela": "44", "aktualizace": "2017_SJ119_00081531", "osm_nearest": "<=30 m"}}, {"type": "Feature", "geometry": {"type": "Point", "coordinates": [14.022265, 50.690859]}, "properties": {"vrstva": "Neevidované drobné památky", "kategorie": "ostatní", "nazev": "zvonička vidlák", "popis": "zvonička u kaple", "obec": "Ústí nad Labem", "katastr": "Božtěšice", "parcela": "196", "aktualizace": "2017_SJ119_00081531", "osm_nearest": "<=30 m"}}, {"type": "Feature", "geometry": {"type": "Point", "coordinates": [14.007342, 50.690041]}, "properties": {"vrstva": "Neevidované drobné památky", "kategorie": "kříž", "nazev": "kříž", "popis": "kříž pod kostelem", "obec": "Ústí nad Labem", "katastr": "Skorotice", "parcela": "10", "aktualizace": "2017_SJ119_00081531", "osm_nearest": "<=30 m"}}, {"type": "Feature", "geometry": {"type": "Point", "coordinates": [14.006673, 50.690229]}, "properties": {"vrstva": "Neevidované drobné památky", "kategorie": "kříž", "nazev": "kříž", "popis": "kříž pod kostelem v ulici Polní", "obec": "Ústí nad Labem", "katastr": "Skorotice", "parcela": "498", "aktualizace": "2017_SJ119_00081531", "osm_nearest": "<=30 m"}}, {"type": "Feature", "geometry": {"type": "Point", "coordinates": [14.10307, 50.699338]}, "properties": {"vrstva": "Neevidované drobné památky", "kategorie": "kříž", "nazev": "kříž", "popis": "kříž u odbočky ze silnice na hrad Blansko", "obec": "Povrly", "katastr": "Mírkov", "parcela": "249/1", "aktualizace": "2017_SJ119_00081531", "osm_nearest": "<=30 m"}}, {"type": "Feature", "geometry": {"type": "Point", "coordinates": [14.008423, 50.691247]}, "properties": {"vrstva": "Neevidované drobné památky", "kategorie": "kříž", "nazev": "kříž", "popis": "kříž v ulici Polní směrem k hřbitovu", "obec": "Ústí nad Labem", "katastr": "Skorotice", "parcela": "40", "aktualizace": "2017_SJ119_00081531", "osm_nearest": "<=30 m"}}, {"type": "Feature", "geometry": {"type": "Point", "coordinates": [14.125403, 50.703574]}, "properties": {"vrstva": "Neevidované drobné památky", "kategorie": "kříž", "nazev": "sokl kříže", "popis": "sokl kříže před kaplí na návsi", "obec": "Povrly", "katastr": "Lysá", "parcela": "10/1", "aktualizace": "2017_SJ119_00081531", "osm_nearest": "none"}}, {"type": "Feature", "geometry": {"type": "Point", "coordinates": [13.980349, 50.692981]}, "properties": {"vrstva": "Neevidované drobné památky", "kategorie": "kříž", "nazev": "kříž", "popis": "kříž na bývalé návsi v obci Podhoří", "obec": "Ústí nad Labem", "katastr": "Všebořice", "parcela": "755", "aktualizace": "2017_SJ119_00081531", "osm_nearest": "<=30 m"}}, {"type": "Feature", "geometry": {"type": "Point", "coordinates": [14.068377, 50.702293]}, "properties": {"vrstva": "Neevidované drobné památky", "kategorie": "kříž", "nazev": "kříž", "popis": "kříž na návsi z r. 1877", "obec": "Chuderov", "katastr": "Radešín", "parcela": "3", "aktualizace": "2017_SJ119_00081531", "osm_nearest": "<=30 m"}}, {"type": "Feature", "geometry": {"type": "Point", "coordinates": [14.002777, 50.702944]}, "properties": {"vrstva": "Neevidované drobné památky", "kategorie": "kříž", "nazev": "kříž", "popis": "kříž u parčíku ve středu obce", "obec": "Ústí nad Labem", "katastr": "Habrovice", "parcela": "27", "aktualizace": "2017_SJ119_00081531", "osm_nearest": "<=30 m"}}, {"type": "Feature", "geometry": {"type": "Point", "coordinates": [13.940368, 50.699277]}, "properties": {"vrstva": "Neevidované drobné památky", "kategorie": "kříž", "nazev": "kříž", "popis": "kříž z r. 1696 před kostelem sv. Havla", "obec": "Chlumec", "katastr": "Chlumec", "parcela": "47", "aktualizace": "2017_SJ119_00081531", "osm_nearest": "<=30 m"}}, {"type": "Feature", "geometry": {"type": "Point", "coordinates": [13.940331, 50.699463]}, "properties": {"vrstva": "Neevidované drobné památky", "kategorie": "kříž", "nazev": "smírčí kříž", "popis": "smírčí kříž s vyobrazením meče z r. 1760 u stěny kostela sv. Havla", "obec": "Chlumec", "katastr": "Chlumec", "parcela": "1", "aktualizace": "2017_SJ119_00081531", "osm_nearest": "<=30 m"}}, {"type": "Feature", "geometry": {"type": "Point", "coordinates": [13.940275, 50.699613]}, "properties": {"vrstva": "Neevidované drobné památky", "kategorie": "kříž", "nazev": "smírčí kříž", "popis": "smírčí kříž s vyobrazením zahnutého meče u kostela sv. Havla", "obec": "Chlumec", "katastr": "Chlumec", "parcela": "1", "aktualizace": "2017_SJ119_00081531", "osm_nearest": "<=30 m"}}, {"type": "Feature", "geometry": {"type": "Point", "coordinates": [14.014143, 50.707798]}, "properties": {"vrstva": "Neevidované drobné památky", "kategorie": "kříž", "nazev": "kříž", "popis": "kříž u křižovatky na obec Habrovice", "obec": "Ústí nad Labem", "katastr": "Strážky", "parcela": "213", "aktualizace": "2017_SJ119_00081531", "osm_nearest": "<=30 m"}}, {"type": "Feature", "geometry": {"type": "Point", "coordinates": [13.938489, 50.701028]}, "properties": {"vrstva": "Neevidované drobné památky", "kategorie": "kříž", "nazev": "kříž", "popis": "kříž  na křižovatce ulic Krušnohorská - Příkrá", "obec": "Chlumec", "katastr": "Chlumec", "parcela": "506/1", "aktualizace": "2017_SJ119_00081531", "osm_nearest": "<=30 m"}}, {"type": "Feature", "geometry": {"type": "Point", "coordinates": [14.04564, 50.710877]}, "properties": {"vrstva": "Neevidované drobné památky", "kategorie": "kříž", "nazev": "kříž", "popis": "kříž před obcí při pří jezdu z Ústí nad Labem", "obec": "Velké Chvojno", "katastr": "Arnultovice", "parcela": "156", "aktualizace": "2017_SJ119_00081531", "osm_nearest": "<=30 m"}}, {"type": "Feature", "geometry": {"type": "Point", "coordinates": [14.045551, 50.712791]}, "properties": {"vrstva": "Neevidované drobné památky", "kategorie": "kříž", "nazev": "kříž", "popis": "kříž na návsi", "obec": "Velké Chvojno", "katastr": "Arnultovice", "parcela": "13", "aktualizace": "2017_SJ119_00081531", "osm_nearest": "<=30 m"}}, {"type": "Feature", "geometry": {"type": "Point", "coordinates": [14.046198, 50.714505]}, "properties": {"vrstva": "Neevidované drobné památky", "kategorie": "kříž", "nazev": "kříž", "popis": "kříž pod obcí", "obec": "Velké Chvojno", "katastr": "Arnultovice", "parcela": "72/1", "aktualizace": "2017_SJ119_00081531", "osm_nearest": "none"}}, {"type": "Feature", "geometry": {"type": "Point", "coordinates": [14.042255, 50.716735]}, "properties": {"vrstva": "Neevidované drobné památky", "kategorie": "kříž", "nazev": "kříž", "popis": "kříž za obcí při cestě na Žďár", "obec": "Velké Chvojno", "katastr": "Arnultovice", "parcela": "38/1", "aktualizace": "2017_SJ119_00081531", "osm_nearest": "<=30 m"}}, {"type": "Feature", "geometry": {"type": "Point", "coordinates": [14.080958, 50.73425]}, "properties": {"vrstva": "Neevidované drobné památky", "kategorie": "kříž", "nazev": "kříž", "popis": "kamenný kříž za obcí Čermná směrem na Mnichov", "obec": "Libouchec", "katastr": "Čermná", "parcela": "591", "aktualizace": "2017_SJ119_00081531", "osm_nearest": "none"}}, {"type": "Feature", "geometry": {"type": "Point", "coordinates": [13.9527, 50.72423]}, "properties": {"vrstva": "Neevidované drobné památky", "kategorie": "kříž", "nazev": "kříž", "popis": "kříž za odbočkou k chatám", "obec": "Telnice", "katastr": "Liboňov", "parcela": "408/2", "aktualizace": "2017_SJ119_00081531", "osm_nearest": "<=30 m"}}, {"type": "Feature", "geometry": {"type": "Point", "coordinates": [14.000533, 50.73562]}, "properties": {"vrstva": "Neevidované drobné památky", "kategorie": "ostatní", "nazev": "boží muka", "popis": "sloupcová boží muka u kapličky", "obec": "Libouchec", "katastr": "Knínice", "parcela": "167/2", "aktualizace": "2017_SJ119_00081531", "osm_nearest": "<=30 m"}}, {"type": "Feature", "geometry": {"type": "Point", "coordinates": [13.968112, 50.731909]}, "properties": {"vrstva": "Neevidované drobné památky", "kategorie": "ostatní", "nazev": "hrobka rodiny Ledebourů", "popis": "hrobka rodiny Ledebourů poblíž zámecké kaple", "obec": "Telnice", "katastr": "Telnice", "parcela": "133/1", "aktualizace": "2017_SJ119_00081531", "osm_nearest": "<=30 m"}}, {"type": "Feature", "geometry": {"type": "Point", "coordinates": [14.083357, 50.744888]}, "properties": {"vrstva": "Neevidované drobné památky", "kategorie": "kříž", "nazev": "kříž", "popis": "kříž při levé straně silnice z obce Čermná", "obec": "Velké Chvojno", "katastr": "Mnichov", "parcela": "140/1", "aktualizace": "2017_SJ119_00081531", "osm_nearest": "none"}}, {"type": "Feature", "geometry": {"type": "Point", "coordinates": [14.084628, 50.745503]}, "properties": {"vrstva": "Neevidované drobné památky", "kategorie": "kříž", "nazev": "kříž", "popis": "kamenný kříž při staré cestě z obce Čermná na Jílové", "obec": "Libouchec", "katastr": "Čermná", "parcela": "135", "aktualizace": "2017_SJ119_00081531", "osm_nearest": "<=30 m"}}, {"type": "Feature", "geometry": {"type": "Point", "coordinates": [13.978994, 50.743194]}, "properties": {"vrstva": "Neevidované drobné památky", "kategorie": "kříž", "nazev": "kříž", "popis": "pamětní kříž na místě bývalého kostela", "obec": "Petrovice", "katastr": "Nakléřov", "parcela": "1019", "aktualizace": "2017_SJ119_00081531", "osm_nearest": "<=30 m"}}, {"type": "Feature", "geometry": {"type": "Point", "coordinates": [14.010551, 50.748324]}, "properties": {"vrstva": "Neevidované drobné památky", "kategorie": "kříž", "nazev": "kříž", "popis": "kříž u historického rozvodí v zadním Libouchci", "obec": "Libouchec", "katastr": "Libouchec", "parcela": "2792/2", "aktualizace": "2017_SJ119_00081531", "osm_nearest": "<=30 m"}}, {"type": "Feature", "geometry": {"type": "Point", "coordinates": [14.03422, 50.753377]}, "properties": {"vrstva": "Neevidované drobné památky", "kategorie": "kříž", "nazev": "kříž", "popis": "kříž po levé straně hlavní silnice při příjezdu od Ústí nad Labem", "obec": "Libouchec", "katastr": "Libouchec", "parcela": "3879", "aktualizace": "2017_SJ119_00081531", "osm_nearest": "<=30 m"}}, {"type": "Feature", "geometry": {"type": "Point", "coordinates": [14.043556, 50.760534]}, "properties": {"vrstva": "Neevidované drobné památky", "kategorie": "kříž", "nazev": "kříž", "popis": "kříž pod kostelem", "obec": "Libouchec", "katastr": "Libouchec", "parcela": "3882", "aktualizace": "2017_SJ119_00081531", "osm_nearest": "<=30 m"}}, {"type": "Feature", "geometry": {"type": "Point", "coordinates": [13.91232, 50.748717]}, "properties": {"vrstva": "Neevidované drobné památky", "kategorie": "kříž", "nazev": "kříž", "popis": "kamenný kříž u lesní cesty", "obec": "Petrovice", "katastr": "Větrov", "parcela": "831/4", "aktualizace": "2017_SJ119_00081531", "osm_nearest": "30-75 m"}}, {"type": "Feature", "geometry": {"type": "Point", "coordinates": [13.920808, 50.772543]}, "properties": {"vrstva": "Neevidované drobné památky", "kategorie": "kříž", "nazev": "kříž", "popis": "kříž u silnice ke hranici", "obec": "Petrovice", "katastr": "Krásný Les", "parcela": "4493/1", "aktualizace": "2017_SJ119_00081531", "osm_nearest": "<=30 m"}}, {"type": "Feature", "geometry": {"type": "Point", "coordinates": [13.915714, 50.774954]}, "properties": {"vrstva": "Neevidované drobné památky", "kategorie": "kříž", "nazev": "kříž", "popis": "kříž u silnice ke hranici", "obec": "Petrovice", "katastr": "Krásný Les", "parcela": "3482/4", "aktualizace": "2017_SJ119_00081531", "osm_nearest": "<=30 m"}}, {"type": "Feature", "geometry": {"type": "Point", "coordinates": [13.974196, 50.789533]}, "properties": {"vrstva": "Neevidované drobné památky", "kategorie": "kříž", "nazev": "kříž s Kristem a Máří Magdalenou", "popis": "kříž na hřbitově", "obec": "Petrovice", "katastr": "Petrovice", "parcela": "1403", "aktualizace": "2017_SJ119_00081531", "osm_nearest": "<=30 m"}}, {"type": "Feature", "geometry": {"type": "Point", "coordinates": [14.024308, 50.79464]}, "properties": {"vrstva": "Neevidované drobné památky", "kategorie": "kříž", "nazev": "kříž", "popis": "kříž při cestě z Tisé do Rájce", "obec": "Tisá", "katastr": "Tisá", "parcela": "1747", "aktualizace": "2017_SJ119_00081531", "osm_nearest": "<=30 m"}}, {"type": "Feature", "geometry": {"type": "Point", "coordinates": [13.904477, 50.784141]}, "properties": {"vrstva": "Neevidované drobné památky", "kategorie": "kaple", "nazev": "kaple", "popis": "kaple u silnice směrem ke hranicím", "obec": "Petrovice", "katastr": "Krásný Les", "parcela": "363", "aktualizace": "2017_SJ119_00081531", "osm_nearest": "<=30 m"}}, {"type": "Feature", "geometry": {"type": "Point", "coordinates": [14.017211, 50.805927]}, "properties": {"vrstva": "Neevidované drobné památky", "kategorie": "kříž", "nazev": "kříž", "popis": "kříž v Rájci před če. 326", "obec": "Tisá", "katastr": "Tisá", "parcela": "3526", "aktualizace": "2017_SJ119_00081531", "osm_nearest": "<=30 m"}}, {"type": "Feature", "geometry": {"type": "Point", "coordinates": [13.99198, 50.631946]}, "properties": {"vrstva": "Neevidované drobné památky", "kategorie": "kříž", "nazev": "sokl kříže", "popis": "sokl kříže pod dálničním mostem u kaple", "obec": "Trmice", "katastr": "Koštov", "parcela": "91/2", "aktualizace": "2017_SJ119_00081531", "osm_nearest": "<=30 m"}}, {"type": "Feature", "geometry": {"type": "Point", "coordinates": [14.091472, 50.686476]}, "properties": {"vrstva": "Neevidované drobné památky", "kategorie": "kříž", "nazev": "kříž", "popis": "kříž nad vstupem do LDN", "obec": "Ryjice", "katastr": "Ryjice", "parcela": "134", "aktualizace": "2017_SJ119_00081531", "osm_nearest": "<=30 m"}}, {"type": "Feature", "geometry": {"type": "Point", "coordinates": [14.03867, 50.597329]}, "properties": {"vrstva": "Neevidované drobné památky", "kategorie": "socha", "nazev": "socha sv. Josefa", "popis": "socha v parku nad hřbitovem", "obec": "Dolní Zálezly", "katastr": "Dolní Zálezly", "parcela": "181", "aktualizace": "2017_SJ119_00081531", "osm_nearest": "<=30 m"}}, {"type": "Feature", "geometry": {"type": "Point", "coordinates": [13.993072, 50.735956]}, "properties": {"vrstva": "Neevidované drobné památky", "kategorie": "kříž", "nazev": "kříž", "popis": "kříž nad obcí směrem k odbočce na Nakléřov", "obec": "Libouchec", "katastr": "Knínice", "parcela": "312", "aktualizace": "2017_SJ119_00081531", "osm_nearest": "<=30 m"}}, {"type": "Feature", "geometry": {"type": "Point", "coordinates": [14.085107, 50.719134]}, "properties": {"vrstva": "Neevidované drobné památky", "kategorie": "kříž", "nazev": "kříž", "popis": "kříž z r. 1811 před obcí směrem na Mnichov", "obec": "Chuderov", "katastr": "Lipová pod Blanskem", "parcela": "378", "aktualizace": "2017_SJ119_00081531", "osm_nearest": "<=30 m"}}, {"type": "Feature", "geometry": {"type": "Point", "coordinates": [13.97435, 50.789031]}, "properties": {"vrstva": "Neevidované drobné památky", "kategorie": "kříž", "nazev": "kříž s litinovým Kristem", "popis": "kříž na hřbitově", "obec": "Petrovice", "katastr": "Petrovice u Chabařovic", "parcela": "1390/2", "aktualizace": "2017_SJ119_00081531", "osm_nearest": "<=30 m"}}, {"type": "Feature", "geometry": {"type": "Point", "coordinates": [14.07314, 50.704003]}, "properties": {"vrstva": "Neevidované drobné památky", "kategorie": "kříž", "nazev": "kříž", "popis": "kamenný kříž pod Radešínem před odbočkou na Sovolusky", "obec": "Chuderov", "katastr": "Libov", "parcela": "56", "aktualizace": "2017_SJ119_00081531", "osm_nearest": "<=30 m"}}, {"type": "Feature", "geometry": {"type": "Point", "coordinates": [14.129776, 50.672924]}, "properties": {"vrstva": "Neevidované drobné památky", "kategorie": "kříž", "nazev": "kříž", "popis": "dřevěný kříž po cestě do Velké Března u fotbalového hřiště", "obec": "Velké Březno", "katastr": "Valtířov nad Labem", "parcela": "200/12", "aktualizace": "2017_SJ119_00081531", "osm_nearest": "none"}}, {"type": "Feature", "geometry": {"type": "Point", "coordinates": [14.121166, 50.601086]}, "properties": {"vrstva": "Neevidované drobné památky", "kategorie": "kaple", "nazev": "kaple", "popis": "barokní výklenková kaple u hřbitova v obci Čeřeniště", "obec": "Malečov", "katastr": "Babiny I", "parcela": "3/1", "aktualizace": "2017_SJ119_00081531", "osm_nearest": "none"}}, {"type": "Feature", "geometry": {"type": "Point", "coordinates": [13.993936, 50.590487]}, "properties": {"vrstva": "Neevidované drobné památky", "kategorie": "kaple", "nazev": "kaple", "popis": "kaple u průjezdní komunikace", "obec": "Řehlovice", "katastr": "Radejčín", "parcela": "910", "aktualizace": "2017_SJ119_00081531", "osm_nearest": "none"}}, {"type": "Feature", "geometry": {"type": "Point", "coordinates": [14.043321, 50.597348]}, "properties": {"vrstva": "Neevidované drobné památky", "kategorie": "kaple", "nazev": "kaple sv. Anny", "popis": "barokní kaple na návsi z r. 1780", "obec": "Dolní Zálezly", "katastr": "Dolní Zálezly", "parcela": "19", "aktualizace": "2017_SJ119_00081531", "osm_nearest": "<=30 m"}}, {"type": "Feature", "geometry": {"type": "Point", "coordinates": [13.98226, 50.598729]}, "properties": {"vrstva": "Neevidované drobné památky", "kategorie": "kaple", "nazev": "kaple Panny Marie", "popis": "kaple na návsi u čp. 1", "obec": "Habrovany", "katastr": "Habrovany", "parcela": "42815", "aktualizace": "2017_SJ119_00081531", "osm_nearest": "none"}}, {"type": "Feature", "geometry": {"type": "Point", "coordinates": [14.11859, 50.615918]}, "properties": {"vrstva": "Neevidované drobné památky", "kategorie": "kaple", "nazev": "kaple", "popis": "výklenková kaple z konce 19. st., nad obcí při cestě do obce Čeřeniště", "obec": "Malečov", "katastr": "Němčí", "parcela": "143", "aktualizace": "2017_SJ119_00081531", "osm_nearest": "<=30 m"}}, {"type": "Feature", "geometry": {"type": "Point", "coordinates": [13.99973, 50.61196]}, "properties": {"vrstva": "Neevidované drobné památky", "kategorie": "kaple", "nazev": "kaple sv. Floriána", "popis": "kaple na návsi", "obec": "Stebno", "katastr": "Suchá", "parcela": "69/2", "aktualizace": "2017_SJ119_00081531", "osm_nearest": "<=30 m"}}, {"type": "Feature", "geometry": {"type": "Point", "coordinates": [14.035807, 50.622653]}, "properties": {"vrstva": "Neevidované drobné památky", "kategorie": "kaple", "nazev": "kaple sv. Jana a Pavla", "popis": "kaple na návsi", "obec": "Stebno", "katastr": "Podlešín", "parcela": "44", "aktualizace": "2017_SJ119_00081531", "osm_nearest": "<=30 m"}}, {"type": "Feature", "geometry": {"type": "Point", "coordinates": [13.99198, 50.631946]}, "properties": {"vrstva": "Neevidované drobné památky", "kategorie": "kaple", "nazev": "kaple Panny Marie", "popis": "empírová kaple pod dálničním mostem z r. 1820", "obec": "Trmice", "katastr": "Koštov", "parcela": "91/2", "aktualizace": "2017_SJ119_00081531", "osm_nearest": "<=30 m"}}, {"type": "Feature", "geometry": {"type": "Point", "coordinates": [14.116006, 50.645028]}, "properties": {"vrstva": "Neevidované drobné památky", "kategorie": "kaple", "nazev": "kaple", "popis": "barokní kaple na návsi z r. 1780", "obec": "Malečov", "katastr": "Březí", "parcela": "64", "aktualizace": "2017_SJ119_00081531", "osm_nearest": "none"}}, {"type": "Feature", "geometry": {"type": "Point", "coordinates": [14.096134, 50.653592]}, "properties": {"vrstva": "Neevidované drobné památky", "kategorie": "kaple", "nazev": "kaple", "popis": "kaple na návsi z pol. 19. st.", "obec": "Ústí nad Labem", "katastr": "Budov u Svádova", "parcela": "89", "aktualizace": "2017_SJ119_00081531", "osm_nearest": "none"}}, {"type": "Feature", "geometry": {"type": "Point", "coordinates": [14.02234, 50.6909]}, "properties": {"vrstva": "Neevidované drobné památky", "kategorie": "kaple", "nazev": "kaple", "popis": "kaple u potoka  přibližně z r. 1900", "obec": "Ústí nad Labem", "katastr": "Božtěšice", "parcela": "171", "aktualizace": "2017_SJ119_00081531", "osm_nearest": "<=30 m"}}, {"type": "Feature", "geometry": {"type": "Point", "coordinates": [14.140465, 50.712253]}, "properties": {"vrstva": "Neevidované drobné památky", "kategorie": "kaple", "nazev": "kaple", "popis": "barokní kaple na konci obce", "obec": "Povrly", "katastr": "Šachov", "parcela": "1", "aktualizace": "2017_SJ119_00081531", "osm_nearest": "none"}}, {"type": "Feature", "geometry": {"type": "Point", "coordinates": [13.963563, 50.724912]}, "properties": {"vrstva": "Neevidované drobné památky", "kategorie": "kaple", "nazev": "kaple Panny Marie", "popis": "novogotická kaple při hlavní silnici z r. 1860", "obec": "Telnice", "katastr": "Varvažov", "parcela": "101", "aktualizace": "2017_SJ119_00081531", "osm_nearest": "<=30 m"}}, {"type": "Feature", "geometry": {"type": "Point", "coordinates": [13.956087, 50.726647]}, "properties": {"vrstva": "Neevidované drobné památky", "kategorie": "kaple", "nazev": "kaple", "popis": "pseudogotická kaple na návsi přibližně z r. 1900", "obec": "Telnice", "katastr": "Liboňov", "parcela": "27", "aktualizace": "2017_SJ119_00081531", "osm_nearest": "<=30 m"}}, {"type": "Feature", "geometry": {"type": "Point", "coordinates": [13.921901, 50.77203]}, "properties": {"vrstva": "Neevidované drobné památky", "kategorie": "kaple", "nazev": "kaple Panny Marie", "popis": "výklenková kaple z r. 1840", "obec": "Petrovice", "katastr": "Krásný Les", "parcela": "2965/1", "aktualizace": "2017_SJ119_00081531", "osm_nearest": "none"}}, {"type": "Feature", "geometry": {"type": "Point", "coordinates": [13.913228, 50.784859]}, "properties": {"vrstva": "Neevidované drobné památky", "kategorie": "kaple", "nazev": "kaple sv. Petra a Pavla", "popis": "kaple z r. 1812, u silnice směrem ke hranicím", "obec": "Petrovice", "katastr": "Krásný Les", "parcela": "363", "aktualizace": "2017_SJ119_00081531", "osm_nearest": "none"}}, {"type": "Feature", "geometry": {"type": "Point", "coordinates": [13.901095, 50.786196]}, "properties": {"vrstva": "Neevidované drobné památky", "kategorie": "kaple", "nazev": "torzo kaple", "popis": "torzo novogotické kaple z r. 1812, nad bývalou celnicí při cestě na Špičák", "obec": "Petrovice", "katastr": "Krásný Les", "parcela": "426", "aktualizace": "2017_SJ119_00081531", "osm_nearest": "<=30 m"}}, {"type": "Feature", "geometry": {"type": "Point", "coordinates": [13.947023, 50.706359]}, "properties": {"vrstva": "Neevidované drobné památky", "kategorie": "kaple", "nazev": "kaple", "popis": "empírová kaple z r. 1840", "obec": "Chlumec", "katastr": "Žandov", "parcela": "60", "aktualizace": "2017_SJ119_00081531", "osm_nearest": "<=30 m"}}, {"type": "Feature", "geometry": {"type": "Point", "coordinates": [14.015886, 50.706607]}, "properties": {"vrstva": "Neevidované drobné památky", "kategorie": "kaple", "nazev": "kaple sv. Floriána", "popis": "kaple na návsi z r. 1846", "obec": "Ústí nad Labem", "katastr": "Strážky", "parcela": "1", "aktualizace": "2017_SJ119_00081531", "osm_nearest": "<=30 m"}}, {"type": "Feature", "geometry": {"type": "Point", "coordinates": [14.202161, 50.633669]}, "properties": {"vrstva": "Neevidované drobné památky", "kategorie": "kaple", "nazev": "kaple", "popis": "kaple na návsi z r. 1865", "obec": "Homole u Panny", "katastr": "Bláhov", "parcela": "45/1", "aktualizace": "2017_SJ119_00081531", "osm_nearest": "none"}}, {"type": "Feature", "geometry": {"type": "Point", "coordinates": [14.078774, 50.616994]}, "properties": {"vrstva": "Neevidované drobné památky", "kategorie": "kaple", "nazev": "kaple Povýšení sv. Kříže", "popis": "kaple u silnice za zámečkem Herzogenberg přibližně z roku r. 1930", "obec": "Ústí nad Labem", "katastr": "Brná", "parcela": "365", "aktualizace": "2017_SJ119_00081531", "osm_nearest": "<=30 m"}}, {"type": "Feature", "geometry": {"type": "Point", "coordinates": [13.964065, 50.678546]}, "properties": {"vrstva": "Neevidované drobné památky", "kategorie": "kaple", "nazev": "kaple", "popis": "kaple na staré návsi z r. 1901 v obci Český Újezd", "obec": "Chlumec", "katastr": "Český Újezd", "parcela": "8", "aktualizace": "2017_SJ119_00081531", "osm_nearest": "<=30 m"}}, {"type": "Feature", "geometry": {"type": "Point", "coordinates": [14.002363, 50.70369]}, "properties": {"vrstva": "Neevidované drobné památky", "kategorie": "kaple", "nazev": "kaple sv. Anny", "popis": "kaple z r. 1910, u průjezdní komunikace, proti tvrzi čp. 1", "obec": "Ústí nad Labem", "katastr": "Habrovice", "parcela": "147", "aktualizace": "2017_SJ119_00081531", "osm_nearest": "none"}}, {"type": "Feature", "geometry": {"type": "Point", "coordinates": [14.210298, 50.629472]}, "properties": {"vrstva": "Neevidované drobné památky", "kategorie": "kaple", "nazev": "kaple sv. Jakuba", "popis": "novogotická kaple na návsi z pol. 19. st.", "obec": "Homole u Panny", "katastr": "Homole u Panny", "parcela": "498/5", "aktualizace": "2017_SJ119_00081531", "osm_nearest": "none"}}, {"type": "Feature", "geometry": {"type": "Point", "coordinates": [13.947044, 50.702589]}, "properties": {"vrstva": "Neevidované drobné památky", "kategorie": "kaple", "nazev": "kaple", "popis": "kaple před hřbitovem z r. 1910", "obec": "Chlumec", "katastr": "Chlumec u Chabařovic", "parcela": "872", "aktualizace": "2017_SJ119_00081531", "osm_nearest": "<=30 m"}}, {"type": "Feature", "geometry": {"type": "Point", "coordinates": [13.941927, 50.695009]}, "properties": {"vrstva": "Neevidované drobné památky", "kategorie": "kaple", "nazev": "kaple", "popis": "kaple z 18. st., u studánky za viaduktem na Chabařovice", "obec": "Chlumec", "katastr": "Chlumec u Chabařovic", "parcela": "805", "aktualizace": "2017_SJ119_00081531", "osm_nearest": "<=30 m"}}, {"type": "Feature", "geometry": {"type": "Point", "coordinates": [14.000552, 50.735545]}, "properties": {"vrstva": "Neevidované drobné památky", "kategorie": "kaple", "nazev": "kaple sv. Jana a Pavla", "popis": "kaple na návsi z r. 1741", "obec": "Libouchec", "katastr": "Knínice", "parcela": "52", "aktualizace": "2017_SJ119_00081531", "osm_nearest": "<=30 m"}}, {"type": "Feature", "geometry": {"type": "Point", "coordinates": [14.114493, 50.695299]}, "properties": {"vrstva": "Neevidované drobné památky", "kategorie": "kaple", "nazev": "kaple", "popis": "kaple na návsi přibližně z r. 1800", "obec": "Povrly", "katastr": "Mírkov", "parcela": "81", "aktualizace": "2017_SJ119_00081531", "osm_nearest": "none"}}, {"type": "Feature", "geometry": {"type": "Point", "coordinates": [14.03226, 50.707223]}, "properties": {"vrstva": "Neevidované drobné památky", "kategorie": "kaple", "nazev": "kaple sv. Trojice", "popis": "kaple na návsi v osadě Neznabohy z r. 1821", "obec": "Chuderov", "katastr": "Chuderovec", "parcela": "196", "aktualizace": "2017_SJ119_00081531", "osm_nearest": "<=30 m"}}, {"type": "Feature", "geometry": {"type": "Point", "coordinates": [14.069059, 50.702362]}, "properties": {"vrstva": "Neevidované drobné památky", "kategorie": "kaple", "nazev": "kaple", "popis": "kaple na návsi z 1. pol. 19. st., přestavěno na zbrojnici a zastávku", "obec": "Chuderov", "katastr": "Radešín", "parcela": "1", "aktualizace": "2017_SJ119_00081531", "osm_nearest": "30-75 m"}}, {"type": "Feature", "geometry": {"type": "Point", "coordinates": [13.958202, 50.607023]}, "properties": {"vrstva": "Neevidované drobné památky", "kategorie": "kaple", "nazev": "kaple", "popis": "novogotická hřbitovní kaple z r. 1860 na hřbitově v Řehlovicích", "obec": "Řehlovice", "katastr": "Řehlovice", "parcela": "94", "aktualizace": "2017_SJ119_00081531", "osm_nearest": "30-75 m"}}, {"type": "Feature", "geometry": {"type": "Point", "coordinates": [14.175115, 50.617611]}, "properties": {"vrstva": "Neevidované drobné památky", "kategorie": "kaple", "nazev": "kaple sv. Antonína Paduánského", "popis": "kaple z r. 1932", "obec": "Malečov", "katastr": "Řetouň", "parcela": "90/1", "aktualizace": "2017_SJ119_00081531", "osm_nearest": "none"}}, {"type": "Feature", "geometry": {"type": "Point", "coordinates": [14.044121, 50.76582]}, "properties": {"vrstva": "Neevidované drobné památky", "kategorie": "kaple", "nazev": "kaple - hrobka rodiny Botschen", "popis": "kaple z r. 1900, v hájku za obcí u silnice na Tisou", "obec": "Libouchec", "katastr": "Libouchec", "parcela": "361", "aktualizace": "2017_SJ119_00081531", "osm_nearest": "<=30 m"}}, {"type": "Feature", "geometry": {"type": "Point", "coordinates": [14.161411, 50.673516]}, "properties": {"vrstva": "Neevidované drobné památky", "kategorie": "kostel", "nazev": "kostel Navštívení Panny Marie", "popis": "kostel z r. 1936", "obec": "Povrly", "katastr": "Povrly", "parcela": "291", "aktualizace": "2017_SJ119_00081531", "osm_nearest": "<=30 m"}}, {"type": "Feature", "geometry": {"type": "Point", "coordinates": [13.995377, 50.657654]}, "properties": {"vrstva": "Neevidované drobné památky", "kategorie": "kostel", "nazev": "kostel sv. Josefa", "popis": "kostel v Nových Předlicích z r. 1906", "obec": "Ústí nad Labem", "katastr": "Předlice", "parcela": "1", "aktualizace": "2017_SJ119_00081531", "osm_nearest": "<=30 m"}}, {"type": "Feature", "geometry": {"type": "Point", "coordinates": [13.940147, 50.6995]}, "properties": {"vrstva": "Neevidované drobné památky", "kategorie": "kostel", "nazev": "kostel sv. Havla", "popis": "kostel na náměstí z r. 1847-1852", "obec": "Chlumec", "katastr": "Chlumec u Chabařovic", "parcela": "1", "aktualizace": "2017_SJ119_00081531", "osm_nearest": "<=30 m"}}, {"type": "Feature", "geometry": {"type": "Point", "coordinates": [14.05736, 50.651311]}, "properties": {"vrstva": "Neevidované drobné památky", "kategorie": "kostel", "nazev": "kostel Nejsvětější Trojice", "popis": "novobarokní kostel z r. 1901-1903", "obec": "Ústí nad Labem", "katastr": "Střekov", "parcela": "1", "aktualizace": "2017_SJ119_00081531", "osm_nearest": "<=30 m"}}, {"type": "Feature", "geometry": {"type": "Point", "coordinates": [13.957743, 50.732846]}, "properties": {"vrstva": "Neevidované drobné památky", "kategorie": "kostel", "nazev": "kostel sv. Josefa", "popis": "novogotický kostel z r. 1910", "obec": "Telnice", "katastr": "Telnice", "parcela": "90", "aktualizace": "2017_SJ119_00081531", "osm_nearest": "30-75 m"}}, {"type": "Feature", "geometry": {"type": "Point", "coordinates": [14.060991, 50.624211]}, "properties": {"vrstva": "Neevidované drobné památky", "kategorie": "kostel", "nazev": "kostel sv. Josefa", "popis": "kostel u hlavní silnice z r. 1939", "obec": "Ústí nad Labem", "katastr": "Vaňov", "parcela": "49", "aktualizace": "2017_SJ119_00081531", "osm_nearest": "<=30 m"}}, {"type": "Feature", "geometry": {"type": "Point", "coordinates": [14.171095, 50.673479]}, "properties": {"vrstva": "Neevidované drobné památky", "kategorie": "pomník", "nazev": "památník Rudé armády", "popis": "památník ve tvaru čtyřboké mohyly vyzděný z přitesávaných pravidelných kvádrů byl svépomocně postaven místními občany v r. 1950 \n", "obec": "Malé Březno", "katastr": "Malé Březno nad Labem", "parcela": "17", "aktualizace": "2018_SJ119_00081531", "osm_nearest": "<=30 m"}}, {"type": "Feature", "geometry": {"type": "Point", "coordinates": [14.123187, 50.675011]}, "properties": {"vrstva": "Neevidované drobné památky", "kategorie": "kříž", "nazev": "kříž", "popis": "centrální litinový kříž na hřbitově ve Valtířově", "obec": "Velké Březno", "katastr": "Valtířov nad Labem", "parcela": "38", "aktualizace": "2018_SJ119_00081531", "osm_nearest": "none"}}, {"type": "Feature", "geometry": {"type": "Point", "coordinates": [14.16865, 50.670289]}, "properties": {"vrstva": "Neevidované drobné památky", "kategorie": "kříž", "nazev": "kříž", "popis": "centrální litinový kříž na kamenném podstavci na hřbitově v Malém Březně", "obec": "Malé Březno", "katastr": "Malé Březno nad Labem", "parcela": "353", "aktualizace": "2018_SJ119_00081531", "osm_nearest": "none"}}, {"type": "Feature", "geometry": {"type": "Point", "coordinates": [13.95646, 50.606772]}, "properties": {"vrstva": "Neevidované drobné památky", "kategorie": "kříž", "nazev": "kříž", "popis": "litinový kříž na kamenném podstavci", "obec": "Řehlovice", "katastr": "Řehlovice", "parcela": "1137/1", "aktualizace": "2018_SJ119_00081531", "osm_nearest": "<=30 m"}}, {"type": "Feature", "geometry": {"type": "Point", "coordinates": [13.958069, 50.607381]}, "properties": {"vrstva": "Neevidované drobné památky", "kategorie": "kříž", "nazev": "kříž se sochou Krista", "popis": "litinový kříž se sochou Krista na kamenném podstavci se nachází na hřbitově v Řehlovicích", "obec": "Řehlovice", "katastr": "Řehlovice", "parcela": "110/1", "aktualizace": "2018_SJ119_00081531", "osm_nearest": "<=30 m"}}, {"type": "Feature", "geometry": {"type": "Point", "coordinates": [13.96401, 50.608486]}, "properties": {"vrstva": "Neevidované drobné památky", "kategorie": "kříž", "nazev": "kříž", "popis": "litinový kříž na kamenném podstavci u dálničního nájezdu, přestěhován při stavbě dálnice", "obec": "Řehlovice", "katastr": "Stadice", "parcela": "214/3", "aktualizace": "2018_SJ119_00081531", "osm_nearest": "<=30 m"}}, {"type": "Feature", "geometry": {"type": "Point", "coordinates": [14.070967, 50.706401]}, "properties": {"vrstva": "Neevidované drobné památky", "kategorie": "kříž", "nazev": "kříž", "popis": "litinový kříž z roku 1903 na kamenném podstavci ohraničený kovaným zábradlím se nachází na návsi v obci Libov", "obec": "Chuderov", "katastr": "Libov", "parcela": "42/2", "aktualizace": "2018_SJ119_00081531", "osm_nearest": "<=30 m"}}, {"type": "Feature", "geometry": {"type": "Point", "coordinates": [14.045692, 50.713019]}, "properties": {"vrstva": "Neevidované drobné památky", "kategorie": "kříž", "nazev": "smírčí kříž", "popis": "smírčí kříž s vyobrazením meče u zdi kostela Všech svatých v obci Anrultovice", "obec": "Velké Chvojno", "katastr": "Arnultovice u Lučního Chvojna", "parcela": "13", "aktualizace": "2018_SJ119_00081531", "osm_nearest": "<=30 m"}}, {"type": "Feature", "geometry": {"type": "Point", "coordinates": [14.080655, 50.726031]}, "properties": {"vrstva": "Neevidované drobné památky", "kategorie": "kříž", "nazev": "kříž", "popis": "litinový kříž z roku 1867 na vysokém kamenném podstavci u obce Mnichov", "obec": "Velké Chvojno", "katastr": "Mnichov u Lučního Chvojna", "parcela": "126/3", "aktualizace": "2018_SJ119_00081531", "osm_nearest": "<=30 m"}}, {"type": "Feature", "geometry": {"type": "Point", "coordinates": [13.955884, 50.711996]}, "properties": {"vrstva": "Neevidované drobné památky", "kategorie": "kříž", "nazev": "kříž", "popis": "kamenný kříž v centru obce Varvažov", "obec": "Telnice", "katastr": "Varvažov u Telnice", "parcela": "402", "aktualizace": "2018_SJ119_00081531", "osm_nearest": "<=30 m"}}, {"type": "Feature", "geometry": {"type": "Point", "coordinates": [14.046133, 50.713211]}, "properties": {"vrstva": "Neevidované drobné památky", "kategorie": "kříž", "nazev": "smírčí kříž", "popis": "smírčí kříž zabudovaný ve zdi kostela Všech svatých v obci Arnultovice", "obec": "Velké Chvojno", "katastr": "Arnultovice u Lučního Chvojna", "parcela": "11/1", "aktualizace": "2018_SJ119_00081531", "osm_nearest": "<=30 m"}}, {"type": "Feature", "geometry": {"type": "Point", "coordinates": [13.915038, 50.775719]}, "properties": {"vrstva": "Neevidované drobné památky", "kategorie": "kříž", "nazev": "kříž", "popis": "litinový kříž na kamenném podstavci v obci Krásný Les", "obec": "Petrovice", "katastr": "Krásný Les v Krušných horách", "parcela": "4496/3", "aktualizace": "2018_SJ119_00081531", "osm_nearest": "<=30 m"}}, {"type": "Feature", "geometry": {"type": "Point", "coordinates": [13.999878, 50.735872]}, "properties": {"vrstva": "Neevidované drobné památky", "kategorie": "kříž", "nazev": "kříž", "popis": "litinový kříž z roku 1861 na kamenném podstavci v obci Knínice", "obec": "Libouchec", "katastr": "Knínice u Libouchce", "parcela": "167/1", "aktualizace": "2018_SJ119_00081531", "osm_nearest": "<=30 m"}}, {"type": "Feature", "geometry": {"type": "Point", "coordinates": [13.975618, 50.678484]}, "properties": {"vrstva": "Neevidované drobné památky", "kategorie": "kříž", "nazev": "kříž", "popis": "dřevěnný kříž při silnici z Českého Újezdu do Střížovic", "obec": "Chlumec", "katastr": "Střížovice u Ústí nad Labem", "parcela": "62/1", "aktualizace": "2018_SJ119_00081531", "osm_nearest": "<=30 m"}}, {"type": "Feature", "geometry": {"type": "Point", "coordinates": [13.940164, 50.699731]}, "properties": {"vrstva": "Neevidované drobné památky", "kategorie": "kříž", "nazev": "smírčí kříž", "popis": "smírčí kříž za kostelem sv. Havla, na kříži jsou zbytky nápisu 145 7E 16ME", "obec": "Chlumec", "katastr": "Chlumec u Chabařovic", "parcela": "47", "aktualizace": "2018_SJ119_00081531", "osm_nearest": "<=30 m"}}, {"type": "Feature", "geometry": {"type": "Point", "coordinates": [14.034757, 50.660858]}, "properties": {"vrstva": "Neevidované drobné památky", "kategorie": "kříž", "nazev": "smírčí kříž", "popis": "smírčí kříž v atriu muzea", "obec": "Ústí nad Labem", "katastr": "Ústí nad Labem", "parcela": "5", "aktualizace": "2018_SJ119_00081531", "osm_nearest": "<=30 m"}}, {"type": "Feature", "geometry": {"type": "Point", "coordinates": [13.940316, 50.699512]}, "properties": {"vrstva": "Neevidované drobné památky", "kategorie": "kříž", "nazev": "kříž se sochou Krista", "popis": "kamenný kříž se sochou Krista u stěny kostela sv. Havla", "obec": "Chlumec", "katastr": "Chlumec", "parcela": "1", "aktualizace": "2018_SJ119_00081531", "osm_nearest": "<=30 m"}}, {"type": "Feature", "geometry": {"type": "Point", "coordinates": [13.94662, 50.702829]}, "properties": {"vrstva": "Neevidované drobné památky", "kategorie": "kříž", "nazev": "kříž", "popis": "centrální litinový kříž na kamenném postavci na hřbitově", "obec": "Chlumec", "katastr": "Chlumec u Chabařovic", "parcela": "868", "aktualizace": "2018_SJ119_00081531", "osm_nearest": "<=30 m"}}, {"type": "Feature", "geometry": {"type": "Point", "coordinates": [14.029292, 50.786591]}, "properties": {"vrstva": "Neevidované drobné památky", "kategorie": "kříž", "nazev": "kříž", "popis": "kamenný kříž se sochou Krista z roku 1885", "obec": "Tisá", "katastr": "Tisá", "parcela": "87/2", "aktualizace": "2018_SJ119_00081531", "osm_nearest": "<=30 m"}}, {"type": "Feature", "geometry": {"type": "Point", "coordinates": [14.028744, 50.786787]}, "properties": {"vrstva": "Neevidované drobné památky", "kategorie": "kříž", "nazev": "kříž", "popis": "litinový kříž se sochou Krista na kamenném podstavci z roku 1828", "obec": "Tisá", "katastr": "Tisá", "parcela": "75", "aktualizace": "2018_SJ119_00081531", "osm_nearest": "<=30 m"}}, {"type": "Feature", "geometry": {"type": "Point", "coordinates": [13.97992, 50.678983]}, "properties": {"vrstva": "Neevidované drobné památky", "kategorie": "objekt", "nazev": "studna", "popis": "kamenná studna obehnaná dřevěným přístřeškem s šindelovou krytinou je kopií původní studny, která zde stála, než byla přesunuta do skanzenu v Zubrnicích", "obec": "Chlumec", "katastr": "Střížovice", "parcela": "20/1", "aktualizace": "2018_SJ119_00081531", "osm_nearest": "<=30 m"}}, {"type": "Feature", "geometry": {"type": "Point", "coordinates": [14.21867, 50.636993]}, "properties": {"vrstva": "Neevidované drobné památky", "kategorie": "kříž", "nazev": "kříž", "popis": "kamenný kříž při cestě na okraji obce u čp. 1", "obec": "Zubrnice", "katastr": "Týniště u Zubrnic", "parcela": "317/1", "aktualizace": "2018_SJ119_00081531", "osm_nearest": "<=30 m"}}, {"type": "Feature", "geometry": {"type": "Point", "coordinates": [14.068019, 50.622942]}, "properties": {"vrstva": "Neevidované drobné památky", "kategorie": "kříž", "nazev": "kříž", "popis": "centrální kamenný kříž se sochou Krista na hřbitově ve Vaňově", "obec": "Ústí nad Labem", "katastr": "Vaňov", "parcela": "787", "aktualizace": "2018_SJ119_00081531", "osm_nearest": "<=30 m"}}, {"type": "Feature", "geometry": {"type": "Point", "coordinates": [14.024652, 50.6424]}, "properties": {"vrstva": "Neevidované drobné památky", "kategorie": "kříž", "nazev": "kříž", "popis": "litinový kříž se sochou Krista na kamenném podstavci za obcí Hostovice", "obec": "Ústí nad Labem", "katastr": "Hostovice u Ústí nad Labem", "parcela": "342/5", "aktualizace": "2019_SJ119_00081531", "osm_nearest": "<=30 m"}}, {"type": "Feature", "geometry": {"type": "Point", "coordinates": [14.042966, 50.761495]}, "properties": {"vrstva": "Válečné hroby", "kategorie": "válečný hrob s ostatky", "nazev": "pomník s hrobem 2 sovětských vojáků", "popis": "hřbitov", "obec": "Libouchec", "katastr": null, "parcela": "1639/3", "aktualizace": "2014_SJ119_00081531", "osm_nearest": "<=30 m"}}, {"type": "Feature", "geometry": {"type": "Point", "coordinates": [13.974468, 50.789299]}, "properties": {"vrstva": "Válečné hroby", "kategorie": "válečný hrob s ostatky", "nazev": "společný hrob 2 Ukrajinců – oběti pochodu smrti", "popis": "hřbitov", "obec": "Petrovice", "katastr": null, "parcela": "1403", "aktualizace": "2014_SJ119_00081531", "osm_nearest": "30-75 m"}}, {"type": "Feature", "geometry": {"type": "Point", "coordinates": [13.942434, 50.671537]}, "properties": {"vrstva": "Válečné hroby", "kategorie": "pietní místo - objekt", "nazev": "pomník na památku obětem 1. sv. války", "popis": "hřbitov - přední část, vpravo od vchodu", "obec": "Chabařovice", "katastr": null, "parcela": "489/2", "aktualizace": "2014_SJ119_00081531", "osm_nearest": "<=30 m"}}, {"type": "Feature", "geometry": {"type": "Point", "coordinates": [13.94245, 50.671441]}, "properties": {"vrstva": "Válečné hroby", "kategorie": "pietní místo - objekt", "nazev": "pomníček Antona Güttlera, padlého v bitvě r. 1813", "popis": "hřbitov - přední část, vpravo od vchodu", "obec": "Chabařovice", "katastr": null, "parcela": "489/2", "aktualizace": "2014_SJ119_00081531", "osm_nearest": "<=30 m"}}, {"type": "Feature", "geometry": {"type": "Point", "coordinates": [13.974421, 50.789387]}, "properties": {"vrstva": "Válečné hroby", "kategorie": "pietní místo - objekt", "nazev": "pomník na památku obětem obou světových válek", "popis": "hřbitov", "obec": "Petrovice", "katastr": null, "parcela": "1403", "aktualizace": "2014_SJ119_00081531", "osm_nearest": "<=30 m"}}, {"type": "Feature", "geometry": {"type": "Point", "coordinates": [13.972559, 50.788905]}, "properties": {"vrstva": "Válečné hroby", "kategorie": "válečný hrob s ostatky", "nazev": "hromadný hrob cca 1500 obětí bitvy r. 1813", "popis": "nad hřbitovem", "obec": "Petrovice", "katastr": null, "parcela": "1409", "aktualizace": "2014_SJ119_00081531", "osm_nearest": "<=30 m"}}, {"type": "Feature", "geometry": {"type": "Point", "coordinates": [14.029288, 50.786583]}, "properties": {"vrstva": "Válečné hroby", "kategorie": "pietní místo - objekt", "nazev": "kenotaf Julius Feix", "popis": "hřbitov", "obec": "Tisá", "katastr": null, "parcela": "87/2", "aktualizace": "2014_SJ119_00081531", "osm_nearest": "<=30 m"}}, {"type": "Feature", "geometry": {"type": "Point", "coordinates": [14.02877, 50.786864]}, "properties": {"vrstva": "Válečné hroby", "kategorie": "pietní místo - objekt", "nazev": "kenotaf Ernst Karl Focke", "popis": "hřbitov", "obec": "Tisá", "katastr": null, "parcela": "75", "aktualizace": "2014_SJ119_00081531", "osm_nearest": "<=30 m"}}, {"type": "Feature", "geometry": {"type": "Point", "coordinates": [14.028828, 50.786932]}, "properties": {"vrstva": "Válečné hroby", "kategorie": "pietní místo - objekt", "nazev": "kenotaf Franz Hiebsch", "popis": "hřbitov", "obec": "Tisá", "katastr": null, "parcela": "75", "aktualizace": "2014_SJ119_00081531", "osm_nearest": "<=30 m"}}, {"type": "Feature", "geometry": {"type": "Point", "coordinates": [14.029965, 50.786622]}, "properties": {"vrstva": "Válečné hroby", "kategorie": "pietní místo - objekt", "nazev": "pomník padlým z 1. sv. války", "popis": "pod vchodem do skal", "obec": "Tisá", "katastr": null, "parcela": "1648/13", "aktualizace": "2014_SJ119_00081531", "osm_nearest": "<=30 m"}}, {"type": "Feature", "geometry": {"type": "Point", "coordinates": [14.027886, 50.787113]}, "properties": {"vrstva": "Válečné hroby", "kategorie": "pietní místo - objekt", "nazev": "kenotaf Bruno Goldfriedrich", "popis": "hřbitov", "obec": "Tisá", "katastr": null, "parcela": "2598", "aktualizace": "2014_SJ119_00081531", "osm_nearest": "30-75 m"}}, {"type": "Feature", "geometry": {"type": "Point", "coordinates": [14.043228, 50.761183]}, "properties": {"vrstva": "Válečné hroby", "kategorie": "válečný hrob s ostatky", "nazev": "válečný hrob sovětského zajatce", "popis": "hřbitov", "obec": "Libouchec", "katastr": null, "parcela": "1639/3", "aktualizace": "2014_SJ119_00081531", "osm_nearest": "30-75 m"}}, {"type": "Feature", "geometry": {"type": "Point", "coordinates": [14.043491, 50.761671]}, "properties": {"vrstva": "Válečné hroby", "kategorie": "válečný hrob s ostatky", "nazev": "hrob 2 – 3 neznámých holandských zajatců", "popis": "hřbitov", "obec": "Libouchec", "katastr": null, "parcela": "1639/3", "aktualizace": "2014_SJ119_00081531", "osm_nearest": "30-75 m"}}, {"type": "Feature", "geometry": {"type": "Point", "coordinates": [14.043543, 50.761297]}, "properties": {"vrstva": "Válečné hroby", "kategorie": "pietní místo - objekt", "nazev": "kenotaf Silvester Bail", "popis": "hřbitov", "obec": "Libouchec", "katastr": null, "parcela": "1639/3", "aktualizace": "2014_SJ119_00081531", "osm_nearest": "30-75 m"}}, {"type": "Feature", "geometry": {"type": "Point", "coordinates": [14.043491, 50.760864]}, "properties": {"vrstva": "Válečné hroby", "kategorie": "pietní místo - objekt", "nazev": "památník padlým z 1. sv. války", "popis": "kostel sv. Tří králů", "obec": "Libouchec", "katastr": null, "parcela": "145", "aktualizace": "2014_SJ119_00081531", "osm_nearest": "<=30 m"}}, {"type": "Feature", "geometry": {"type": "Point", "coordinates": [14.043375, 50.760753]}, "properties": {"vrstva": "Válečné hroby", "kategorie": "pietní místo - objekt", "nazev": "kenotaf  W.  Pehra", "popis": "hřbitov - u zdi kostela", "obec": "Libouchec", "katastr": null, "parcela": "1555", "aktualizace": "2014_SJ119_00081531", "osm_nearest": "<=30 m"}}, {"type": "Feature", "geometry": {"type": "Point", "coordinates": [13.978069, 50.743613]}, "properties": {"vrstva": "Válečné hroby", "kategorie": "pietní místo - objekt", "nazev": "pomník r. 1813, tzv. Kleistův", "popis": "před obcí u silnice Telnice - Petrovice", "obec": "Petrovice", "katastr": null, "parcela": "1024/1", "aktualizace": "2014_SJ119_00081531", "osm_nearest": "<=30 m"}}, {"type": "Feature", "geometry": {"type": "Point", "coordinates": [13.912458, 50.746634]}, "properties": {"vrstva": "Válečné hroby", "kategorie": "pietní místo - objekt", "nazev": "pomník padlým z 1. sv. války", "popis": "lesík u silnice", "obec": "Petrovice", "katastr": null, "parcela": "831/5", "aktualizace": "2014_SJ119_00081531", "osm_nearest": "30-75 m"}}, {"type": "Feature", "geometry": {"type": "Point", "coordinates": [13.944445, 50.715502]}, "properties": {"vrstva": "Válečné hroby", "kategorie": "pietní místo - objekt", "nazev": "pomník bitvy r. 1813 na paměť zajetí generála Vandamma 30.8.1913", "popis": "louka za železniční tratí", "obec": "Chlumec", "katastr": null, "parcela": "933/1", "aktualizace": "2014_SJ119_00081531", "osm_nearest": "<=30 m"}}, {"type": "Feature", "geometry": {"type": "Point", "coordinates": [13.95577, 50.711794]}, "properties": {"vrstva": "Válečné hroby", "kategorie": "pietní místo - objekt", "nazev": "pomník bitvy r. 1813 pruský", "popis": "křižovatka u Staré pošty", "obec": "Telnice", "katastr": null, "parcela": "402, 403", "aktualizace": "2014_SJ119_00081531", "osm_nearest": "<=30 m"}}, {"type": "Feature", "geometry": {"type": "Point", "coordinates": [13.957219, 50.713]}, "properties": {"vrstva": "Válečné hroby", "kategorie": "pietní místo - objekt", "nazev": "pomník bitvy r. 1813 rakouský včetně strážního domku", "popis": "za křižovatkou u Staré pošty", "obec": "Telnice", "katastr": null, "parcela": "145, 76, 1431, 696, 673/1", "aktualizace": "2014_SJ119_00081531", "osm_nearest": "<=30 m"}}, {"type": "Feature", "geometry": {"type": "Point", "coordinates": [14.022183, 50.72765]}, "properties": {"vrstva": "Válečné hroby", "kategorie": "pietní místo - objekt", "nazev": "pomník padlým z 1. a 2 sv. války", "popis": "náves", "obec": "Velké Chvojno", "katastr": null, "parcela": "6/1", "aktualizace": "2014_SJ119_00081531", "osm_nearest": "<=30 m"}}, {"type": "Feature", "geometry": {"type": "Point", "coordinates": [14.037052, 50.731974]}, "properties": {"vrstva": "Válečné hroby", "kategorie": "pietní místo - objekt", "nazev": "pomník padlým z 1. sv. války", "popis": "náves", "obec": "Velké Chvojno", "katastr": null, "parcela": "280", "aktualizace": "2014_SJ119_00081531", "osm_nearest": "<=30 m"}}, {"type": "Feature", "geometry": {"type": "Point", "coordinates": [13.958263, 50.732453]}, "properties": {"vrstva": "Válečné hroby", "kategorie": "pietní místo - objekt", "nazev": "pomník sovětským osvoboditelům", "popis": "park pod kostelem", "obec": "Telnice", "katastr": null, "parcela": "109/1", "aktualizace": "2014_SJ119_00081531", "osm_nearest": "<=30 m"}}, {"type": "Feature", "geometry": {"type": "Point", "coordinates": [14.000619, 50.735527]}, "properties": {"vrstva": "Válečné hroby", "kategorie": "pietní místo - objekt", "nazev": "pomník padlým z 1. sv. války", "popis": "č.e. 115", "obec": "Libouchec", "katastr": null, "parcela": "167/3", "aktualizace": "2014_SJ119_00081531", "osm_nearest": "<=30 m"}}, {"type": "Feature", "geometry": {"type": "Point", "coordinates": [14.089179, 50.716005]}, "properties": {"vrstva": "Válečné hroby", "kategorie": "pietní místo - objekt", "nazev": "pomník padlým z 1. sv. války", "popis": "náves", "obec": "Chuderov", "katastr": null, "parcela": "57/1", "aktualizace": "2014_SJ119_00081531", "osm_nearest": "<=30 m"}}, {"type": "Feature", "geometry": {"type": "Point", "coordinates": [14.04529, 50.712862]}, "properties": {"vrstva": "Válečné hroby", "kategorie": "pietní místo - objekt", "nazev": "pomník padlým z 1. sv. války", "popis": "náves", "obec": "Velké Chvojno", "katastr": null, "parcela": "15", "aktualizace": "2014_SJ119_00081531", "osm_nearest": "<=30 m"}}, {"type": "Feature", "geometry": {"type": "Point", "coordinates": [14.045796, 50.713097]}, "properties": {"vrstva": "Válečné hroby", "kategorie": "pietní místo - deska", "nazev": "pamětní deska padlým z 1. sv. války z Lučního Chvojna", "popis": "hřbitov", "obec": "Velké Chvojno", "katastr": null, "parcela": "2", "aktualizace": "2014_SJ119_00081531", "osm_nearest": "<=30 m"}}, {"type": "Feature", "geometry": {"type": "Point", "coordinates": [14.015886, 50.706607]}, "properties": {"vrstva": "Válečné hroby", "kategorie": "pietní místo - deska", "nazev": "pamětní desky padlým z 1. sv. války", "popis": "kaple na návsi", "obec": "Ústí nad Labem", "katastr": null, "parcela": "1", "aktualizace": "2014_SJ119_00081531", "osm_nearest": "<=30 m"}}, {"type": "Feature", "geometry": {"type": "Point", "coordinates": [14.008313, 50.689578]}, "properties": {"vrstva": "Válečné hroby", "kategorie": "pietní místo - objekt", "nazev": "památník padlým z 1. sv. války", "popis": "křižovatka ulic Kostelní a Do Vrchu", "obec": "Ústí nad Labem", "katastr": null, "parcela": "47", "aktualizace": "2014_SJ119_00081531", "osm_nearest": "<=30 m"}}, {"type": "Feature", "geometry": {"type": "Point", "coordinates": [14.002951, 50.70266]}, "properties": {"vrstva": "Válečné hroby", "kategorie": "pietní místo - objekt", "nazev": "pomník Rudé armádě", "popis": "park na návsi obce", "obec": "Ústí nad Labem", "katastr": null, "parcela": "12", "aktualizace": "2014_SJ119_00081531", "osm_nearest": "<=30 m"}}, {"type": "Feature", "geometry": {"type": "Point", "coordinates": [14.001529, 50.704855]}, "properties": {"vrstva": "Válečné hroby", "kategorie": "pietní místo - objekt", "nazev": "pomník padlým a umučeným hrdinům 1939-1945", "popis": "park na severním okraji obce", "obec": "Ústí nad Labem", "katastr": null, "parcela": "88", "aktualizace": "2014_SJ119_00081531", "osm_nearest": "<=30 m"}}, {"type": "Feature", "geometry": {"type": "Point", "coordinates": [13.946903, 50.702577]}, "properties": {"vrstva": "Válečné hroby", "kategorie": "válečný hrob s ostatky", "nazev": "hrob 4 kosterních ostatků vojáků padlých r. 1813", "popis": "hřbitov", "obec": "Chlumec", "katastr": null, "parcela": "869", "aktualizace": "2014_SJ119_00081531", "osm_nearest": "<=30 m"}}, {"type": "Feature", "geometry": {"type": "Point", "coordinates": [13.946419, 50.702527]}, "properties": {"vrstva": "Válečné hroby", "kategorie": "válečný hrob s ostatky", "nazev": "hromadný hrob cca 50 neznámých obětí  z konce války", "popis": "hřbitov", "obec": "Chlumec", "katastr": null, "parcela": "869", "aktualizace": "2014_SJ119_00081531", "osm_nearest": "<=30 m"}}, {"type": "Feature", "geometry": {"type": "Point", "coordinates": [13.946504, 50.700902]}, "properties": {"vrstva": "Válečné hroby", "kategorie": "pietní místo - objekt", "nazev": "jubilejní pomník bitvy r. 1813", "popis": "východní okraj obce při průjezdní komunikaci", "obec": "Chlumec", "katastr": null, "parcela": "138, 137, 139 ", "aktualizace": "2014_SJ119_00081531", "osm_nearest": "<=30 m"}}, {"type": "Feature", "geometry": {"type": "Point", "coordinates": [13.940253, 50.699212]}, "properties": {"vrstva": "Válečné hroby", "kategorie": "pietní místo - objekt", "nazev": "socha zraněného vojáka na paměť obětem z 1. sv. války", "popis": "Krušnohorská - park před kostelem sv. Havla", "obec": "Chlumec", "katastr": null, "parcela": "47", "aktualizace": "2014_SJ119_00081531", "osm_nearest": "<=30 m"}}, {"type": "Feature", "geometry": {"type": "Point", "coordinates": [13.940294, 50.699521]}, "properties": {"vrstva": "Válečné hroby", "kategorie": "pietní místo - deska", "nazev": "pamětní desky gen. Heinricha de Reuss a generála Emond d’Esclevin", "popis": "kostel sv. Havla, Krušnohorská", "obec": "Chlumec", "katastr": null, "parcela": "1", "aktualizace": "2014_SJ119_00081531", "osm_nearest": "<=30 m"}}, {"type": "Feature", "geometry": {"type": "Point", "coordinates": [13.940282, 50.699552]}, "properties": {"vrstva": "Válečné hroby", "kategorie": "pietní místo - deska", "nazev": "pamětní desky padlým v 1. sv. válce z Chlumce a okolí", "popis": "kostel sv. Havla, Krušnohorská", "obec": "Chlumec", "katastr": null, "parcela": "1", "aktualizace": "2014_SJ119_00081531", "osm_nearest": "<=30 m"}}, {"type": "Feature", "geometry": {"type": "Point", "coordinates": [13.912683, 50.685176]}, "properties": {"vrstva": "Válečné hroby", "kategorie": "válečný hrob s ostatky", "nazev": "hromadný hrob asi 10.000 padlých v bitvě u Chlumce r. 1813", "popis": "hájek v poli za ruským pomníkem", "obec": "Přestanov", "katastr": null, "parcela": "328", "aktualizace": "2014_SJ119_00081531", "osm_nearest": "<=30 m"}}, {"type": "Feature", "geometry": {"type": "Point", "coordinates": [13.911619, 50.690442]}, "properties": {"vrstva": "Válečné hroby", "kategorie": "pietní místo - objekt", "nazev": "pomník bitvy r. 1813 – rozhodující místo bitvy", "popis": "křižovatka silnic Přestanov - Stradov - Unčín", "obec": "Přestanov", "katastr": null, "parcela": "237", "aktualizace": "2014_SJ119_00081531", "osm_nearest": "<=30 m"}}, {"type": "Feature", "geometry": {"type": "Point", "coordinates": [13.913791, 50.682834]}, "properties": {"vrstva": "Válečné hroby", "kategorie": "pietní místo - objekt", "nazev": "ruský pomník bitvy r. 1813", "popis": "u silnice Teplice - Děčín", "obec": "Přestanov", "katastr": null, "parcela": "332/2, 332/1, 333", "aktualizace": "2014_SJ119_00081531", "osm_nearest": "<=30 m"}}, {"type": "Feature", "geometry": {"type": "Point", "coordinates": [13.92161, 50.69396]}, "properties": {"vrstva": "Válečné hroby", "kategorie": "pietní místo - objekt", "nazev": "pomník bitvy r. 1813", "popis": "náves", "obec": "Chlumec", "katastr": null, "parcela": "44", "aktualizace": "2014_SJ119_00081531", "osm_nearest": "<=30 m"}}, {"type": "Feature", "geometry": {"type": "Point", "coordinates": [13.921633, 50.693869]}, "properties": {"vrstva": "Válečné hroby", "kategorie": "pietní místo - deska", "nazev": "pamětní deska gen. Heinricha de Reuss – Schleize", "popis": "na návsi, uvnitř kaple", "obec": "Chlumec", "katastr": null, "parcela": "27", "aktualizace": "2014_SJ119_00081531", "osm_nearest": "<=30 m"}}, {"type": "Feature", "geometry": {"type": "Point", "coordinates": [13.942337, 50.671261]}, "properties": {"vrstva": "Válečné hroby", "kategorie": "válečný hrob s ostatky", "nazev": "hrob 3 neznámých rakouských vojáků z r. 1813", "popis": "hřbitov", "obec": "Chabařovice", "katastr": null, "parcela": "489/2", "aktualizace": "2014_SJ119_00081531", "osm_nearest": "<=30 m"}}, {"type": "Feature", "geometry": {"type": "Point", "coordinates": [13.942643, 50.671471]}, "properties": {"vrstva": "Válečné hroby", "kategorie": "válečný hrob s ostatky", "nazev": "hrob 11 občanů SSSR", "popis": "hřbitov", "obec": "Chabařovice", "katastr": null, "parcela": "489/2", "aktualizace": "2014_SJ119_00081531", "osm_nearest": "<=30 m"}}, {"type": "Feature", "geometry": {"type": "Point", "coordinates": [13.941916, 50.67076]}, "properties": {"vrstva": "Válečné hroby", "kategorie": "pietní místo - objekt", "nazev": "kenotaf bratrů Adolfa a Hermanna Herschmanna", "popis": "hřbitov - zadní část", "obec": "Chabařovice", "katastr": null, "parcela": "489/1", "aktualizace": "2014_SJ119_00081531", "osm_nearest": "none"}}, {"type": "Feature", "geometry": {"type": "Point", "coordinates": [13.951104, 50.670303]}, "properties": {"vrstva": "Válečné hroby", "kategorie": "pietní místo - objekt", "nazev": "pomník bitvy r. 1426", "popis": "park na okraji města", "obec": "Chabařovice", "katastr": null, "parcela": "235/2", "aktualizace": "2014_SJ119_00081531", "osm_nearest": "<=30 m"}}, {"type": "Feature", "geometry": {"type": "Point", "coordinates": [13.921703, 50.650246]}, "properties": {"vrstva": "Válečné hroby", "kategorie": "válečný hrob s ostatky", "nazev": "hrob Ivana Tšubenka", "popis": "hřbitov u kostela", "obec": "Chabařovice", "katastr": null, "parcela": "7/2", "aktualizace": "2014_SJ119_00081531", "osm_nearest": "<=30 m"}}, {"type": "Feature", "geometry": {"type": "Point", "coordinates": [14.18161, 50.629117]}, "properties": {"vrstva": "Válečné hroby", "kategorie": "pietní místo - objekt", "nazev": "pomník padlým z 1. sv. války", "popis": "hřbitov", "obec": "Homole u Panny", "katastr": null, "parcela": "227", "aktualizace": "2014_SJ119_00081531", "osm_nearest": "<=30 m"}}, {"type": "Feature", "geometry": {"type": "Point", "coordinates": [14.13488, 50.614605]}, "properties": {"vrstva": "Válečné hroby", "kategorie": "pietní místo - objekt", "nazev": "pomník sovětské armádě", "popis": "náves", "obec": "Tašov", "katastr": null, "parcela": "63/3", "aktualizace": "2014_SJ119_00081531", "osm_nearest": "<=30 m"}}, {"type": "Feature", "geometry": {"type": "Point", "coordinates": [14.075941, 50.665919]}, "properties": {"vrstva": "Válečné hroby", "kategorie": "pietní místo - objekt", "nazev": "pomník Oldřicha Černého z roty Nazdar ve Francii", "popis": "park U Pivovarské zahrady", "obec": "Ústí nad Labem", "katastr": null, "parcela": "458", "aktualizace": "2014_SJ119_00081531", "osm_nearest": "30-75 m"}}, {"type": "Feature", "geometry": {"type": "Point", "coordinates": [14.070836, 50.685753]}, "properties": {"vrstva": "Válečné hroby", "kategorie": "pietní místo - objekt", "nazev": "pomník padlým z 1. sv. války", "popis": "hřbitov u kostela", "obec": "Chuderov", "katastr": null, "parcela": "2", "aktualizace": "2014_SJ119_00081531", "osm_nearest": "<=30 m"}}, {"type": "Feature", "geometry": {"type": "Point", "coordinates": [14.057568, 50.678845]}, "properties": {"vrstva": "Válečné hroby", "kategorie": "pietní místo - objekt", "nazev": "pomník padlým z 1. sv. války", "popis": "Nad Točnou", "obec": "Ústí nad Labem", "katastr": null, "parcela": "63/2", "aktualizace": "2014_SJ119_00081531", "osm_nearest": "<=30 m"}}, {"type": "Feature", "geometry": {"type": "Point", "coordinates": [14.038676, 50.661148]}, "properties": {"vrstva": "Válečné hroby", "kategorie": "pietní místo - deska", "nazev": "pamětní deska dragouna Jordána padlého 30.8.1813", "popis": "Dlouhá 240", "obec": "Ústí nad Labem", "katastr": null, "parcela": "2400/1", "aktualizace": "2014_SJ119_00081531", "osm_nearest": "<=30 m"}}, {"type": "Feature", "geometry": {"type": "Point", "coordinates": [14.037306, 50.660539]}, "properties": {"vrstva": "Válečné hroby", "kategorie": "pietní místo - deska", "nazev": "pamětní deska obětem bombardování", "popis": "Velká Hradební 2336", "obec": "Ústí nad Labem", "katastr": null, "parcela": "2535/1", "aktualizace": "2014_SJ119_00081531", "osm_nearest": "<=30 m"}}, {"type": "Feature", "geometry": {"type": "Point", "coordinates": [14.036001, 50.660265]}, "properties": {"vrstva": "Válečné hroby", "kategorie": "pietní místo - objekt", "nazev": "pomník  vojákům padlým v Bosně a Hercegovině", "popis": "Lidické náměstí", "obec": "Ústí nad Labem", "katastr": null, "parcela": "2570", "aktualizace": "2014_SJ119_00081531", "osm_nearest": "<=30 m"}}, {"type": "Feature", "geometry": {"type": "Point", "coordinates": [14.026603, 50.667133]}, "properties": {"vrstva": "Válečné hroby", "kategorie": "válečný hrob s ostatky", "nazev": "pomník Rudé armádě s ostatky 8 vojáků", "popis": "Městské sady", "obec": "Ústí nad Labem", "katastr": null, "parcela": "721/1", "aktualizace": "2014_SJ119_00081531", "osm_nearest": "<=30 m"}}, {"type": "Feature", "geometry": {"type": "Point", "coordinates": [14.034779, 50.670573]}, "properties": {"vrstva": "Válečné hroby", "kategorie": "pietní místo - objekt", "nazev": "pomník osvobození", "popis": "parčík v Bělehradské ulici", "obec": "Ústí nad Labem", "katastr": null, "parcela": "1888", "aktualizace": "2014_SJ119_00081531", "osm_nearest": "<=30 m"}}, {"type": "Feature", "geometry": {"type": "Point", "coordinates": [14.038632, 50.588307]}, "properties": {"vrstva": "Válečné hroby", "kategorie": "válečný hrob s ostatky", "nazev": "hrob sovětského vojáka z 2. sv. války", "popis": "hřbitov", "obec": "Ústí nad Labem", "katastr": null, "parcela": "511", "aktualizace": "2014_SJ119_00081531", "osm_nearest": "none"}}, {"type": "Feature", "geometry": {"type": "Point", "coordinates": [14.036821, 50.589692]}, "properties": {"vrstva": "Válečné hroby", "kategorie": "pietní místo - objekt", "nazev": "památník osvoboditelům", "popis": "na okraji obce proti točně autobusu", "obec": "Ústí nad Labem", "katastr": null, "parcela": "31/1", "aktualizace": "2014_SJ119_00081531", "osm_nearest": "<=30 m"}}, {"type": "Feature", "geometry": {"type": "Point", "coordinates": [14.035762, 50.590879]}, "properties": {"vrstva": "Válečné hroby", "kategorie": "pietní místo - deska", "nazev": "pamětní deska  - Heinrich Ulbrich", "popis": "kostel Nanebevzetí Panny Marie", "obec": "Ústí nad Labem", "katastr": null, "parcela": "1", "aktualizace": "2014_SJ119_00081531", "osm_nearest": "<=30 m"}}, {"type": "Feature", "geometry": {"type": "Point", "coordinates": [14.035762, 50.590879]}, "properties": {"vrstva": "Válečné hroby", "kategorie": "pietní místo - deska", "nazev": "pamětní deska  - Josef Joch", "popis": "kostel Nanebevzetí Panny Marie", "obec": "Ústí nad Labem", "katastr": null, "parcela": "1", "aktualizace": "2014_SJ119_00081531", "osm_nearest": "<=30 m"}}, {"type": "Feature", "geometry": {"type": "Point", "coordinates": [14.035762, 50.590879]}, "properties": {"vrstva": "Válečné hroby", "kategorie": "pietní místo - deska", "nazev": "pamětní deska  -  Josef Schreier", "popis": "kostel Nanebevzetí Panny Marie", "obec": "Ústí nad Labem", "katastr": null, "parcela": "1", "aktualizace": "2014_SJ119_00081531", "osm_nearest": "<=30 m"}}, {"type": "Feature", "geometry": {"type": "Point", "coordinates": [14.043635, 50.596874]}, "properties": {"vrstva": "Válečné hroby", "kategorie": "pietní místo - objekt", "nazev": "pomník vítězným armádám", "popis": "Rudé armády", "obec": "Dolní Zálezly", "katastr": null, "parcela": "570", "aktualizace": "2014_SJ119_00081531", "osm_nearest": "<=30 m"}}, {"type": "Feature", "geometry": {"type": "Point", "coordinates": [13.998636, 50.589783]}, "properties": {"vrstva": "Válečné hroby", "kategorie": "pietní místo - objekt", "nazev": "pomník padlým z 1. sv. války", "popis": "za obcí u křižovatky na Dubice", "obec": "Řehlovice", "katastr": null, "parcela": "623", "aktualizace": "2014_SJ119_00081531", "osm_nearest": "<=30 m"}}, {"type": "Feature", "geometry": {"type": "Point", "coordinates": [14.16233, 50.606474]}, "properties": {"vrstva": "Válečné hroby", "kategorie": "pietní místo - objekt", "nazev": "pomník padlým z 1. sv. války", "popis": "náves", "obec": "Malečov", "katastr": null, "parcela": "57", "aktualizace": "2014_SJ119_00081531", "osm_nearest": "<=30 m"}}, {"type": "Feature", "geometry": {"type": "Point", "coordinates": [14.060605, 50.593602]}, "properties": {"vrstva": "Válečné hroby", "kategorie": "pietní místo - objekt", "nazev": "památník obětem 2. sv. války", "popis": "park u pošty", "obec": "Ústí nad Labem", "katastr": null, "parcela": "88", "aktualizace": "2014_SJ119_00081531", "osm_nearest": "<=30 m"}}, {"type": "Feature", "geometry": {"type": "Point", "coordinates": [14.067854, 50.622884]}, "properties": {"vrstva": "Válečné hroby", "kategorie": "pietní místo - objekt", "nazev": "pomník padlým z 1. sv. války", "popis": "hřbitov", "obec": "Ústí nad Labem", "katastr": null, "parcela": "787", "aktualizace": "2014_SJ119_00081531", "osm_nearest": "<=30 m"}}, {"type": "Feature", "geometry": {"type": "Point", "coordinates": [14.168961, 50.67049]}, "properties": {"vrstva": "Válečné hroby", "kategorie": "válečný hrob s ostatky", "nazev": "společný hrob 4 Rusů z 2. sv. války", "popis": "hřbitov", "obec": "Malé Březno", "katastr": null, "parcela": "353", "aktualizace": "2014_SJ119_00081531", "osm_nearest": "none"}}, {"type": "Feature", "geometry": {"type": "Point", "coordinates": [14.143107, 50.669562]}, "properties": {"vrstva": "Válečné hroby", "kategorie": "pietní místo - objekt", "nazev": "pomník na památku osvobození za 2. sv. války", "popis": "Mírová", "obec": "Povrly", "katastr": null, "parcela": "80", "aktualizace": "2014_SJ119_00081531", "osm_nearest": "<=30 m"}}, {"type": "Feature", "geometry": {"type": "Point", "coordinates": [14.116665, 50.661542]}, "properties": {"vrstva": "Válečné hroby", "kategorie": "pietní místo - objekt", "nazev": "pomníček na památku sovětské armádě", "popis": "Sokolovská", "obec": "Ústí nad Labem", "katastr": null, "parcela": "182/1", "aktualizace": "2014_SJ119_00081531", "osm_nearest": "<=30 m"}}, {"type": "Feature", "geometry": {"type": "Point", "coordinates": [14.10796, 50.66355]}, "properties": {"vrstva": "Válečné hroby", "kategorie": "válečný hrob s ostatky", "nazev": "hrob Vasila Majorova  z 2. sv. války", "popis": "hřbitov", "obec": "Ústí nad Labem", "katastr": null, "parcela": "751", "aktualizace": "2014_SJ119_00081531", "osm_nearest": "none"}}, {"type": "Feature", "geometry": {"type": "Point", "coordinates": [14.104492, 50.664324]}, "properties": {"vrstva": "Válečné hroby", "kategorie": "pietní místo - objekt", "nazev": "památník Rudé armádě", "popis": "křižovatka ulic Vítězná - Sokolovská", "obec": "Ústí nad Labem", "katastr": null, "parcela": "714", "aktualizace": "2014_SJ119_00081531", "osm_nearest": "<=30 m"}}, {"type": "Feature", "geometry": {"type": "Point", "coordinates": [14.107854, 50.662106]}, "properties": {"vrstva": "Válečné hroby", "kategorie": "pietní místo - deska", "nazev": "pamětní deska padlým v 1. světové válce", "popis": "Svatojakubská", "obec": "Ústí nad Labem", "katastr": null, "parcela": "793/2", "aktualizace": "2014_SJ119_00081531", "osm_nearest": "<=30 m"}}, {"type": "Feature", "geometry": {"type": "Point", "coordinates": [14.067549, 50.654861]}, "properties": {"vrstva": "Válečné hroby", "kategorie": "válečný hrob s ostatky", "nazev": "společný hrob 310 vojáků, zajatců a vězňů z 1. a 2. sv. války", "popis": "hřbitov na Střekově", "obec": "Ústí nad Labem", "katastr": null, "parcela": "3252", "aktualizace": "2014_SJ119_00081531", "osm_nearest": "<=30 m"}}, {"type": "Feature", "geometry": {"type": "Point", "coordinates": [13.994137, 50.641215]}, "properties": {"vrstva": "Válečné hroby", "kategorie": "válečný hrob s ostatky", "nazev": "hrob 3 sovětských zajatců  z 2. sv. války", "popis": "hřbitov", "obec": "Trmice", "katastr": null, "parcela": "54", "aktualizace": "2014_SJ119_00081531", "osm_nearest": "<=30 m"}}, {"type": "Feature", "geometry": {"type": "Point", "coordinates": [13.995143, 50.65722]}, "properties": {"vrstva": "Válečné hroby", "kategorie": "pietní místo - objekt", "nazev": "pomník Rudé armády", "popis": "Školní náměstí", "obec": "Ústí nad Labem", "katastr": null, "parcela": "18", "aktualizace": "2014_SJ119_00081531", "osm_nearest": "<=30 m"}}, {"type": "Feature", "geometry": {"type": "Point", "coordinates": [14.162633, 50.67583]}, "properties": {"vrstva": "Válečné hroby", "kategorie": "válečný hrob s ostatky", "nazev": "hrob Andreje Kozlova", "popis": "hřbitov nad obcí", "obec": "Povrly", "katastr": null, "parcela": "478", "aktualizace": "2014_SJ119_00081531", "osm_nearest": "<=30 m"}}, {"type": "Feature", "geometry": {"type": "Point", "coordinates": [14.123405, 50.675097]}, "properties": {"vrstva": "Válečné hroby", "kategorie": "válečný hrob s ostatky", "nazev": "hromadný hrob 5 vojáků z 1. sv. války", "popis": "hřbitov", "obec": "Velké Březno", "katastr": null, "parcela": "38", "aktualizace": "2014_SJ119_00081531", "osm_nearest": "none"}}, {"type": "Feature", "geometry": {"type": "Point", "coordinates": [14.123001, 50.675069]}, "properties": {"vrstva": "Válečné hroby", "kategorie": "válečný hrob s ostatky", "nazev": "společný hrob 3 vojáků z 2. sv. války", "popis": "hřbitov", "obec": "Velké Březno", "katastr": null, "parcela": "38", "aktualizace": "2014_SJ119_00081531", "osm_nearest": "none"}}, {"type": "Feature", "geometry": {"type": "Point", "coordinates": [14.122475, 50.674901]}, "properties": {"vrstva": "Válečné hroby", "kategorie": "pietní místo - objekt", "nazev": "kenotaf Josefa Störcha, padlého v 1. sv. válce", "popis": "hřbitov", "obec": "Velké Březno", "katastr": null, "parcela": "38", "aktualizace": "2014_SJ119_00081531", "osm_nearest": "none"}}, {"type": "Feature", "geometry": {"type": "Point", "coordinates": [14.122438, 50.675019]}, "properties": {"vrstva": "Válečné hroby", "kategorie": "pietní místo - objekt", "nazev": "deska Willi Nitsche na rodiné hrobce, padl v 1. sv. válce", "popis": "hřbitov", "obec": "Velké Březno", "katastr": null, "parcela": "38", "aktualizace": "2014_SJ119_00081531", "osm_nearest": "none"}}, {"type": "Feature", "geometry": {"type": "Point", "coordinates": [14.114377, 50.681702]}, "properties": {"vrstva": "Válečné hroby", "kategorie": "pietní místo - objekt", "nazev": "pomník padlým z 1. sv. války", "popis": "Horní, u kostela", "obec": "Ústí nad Labem", "katastr": null, "parcela": "206", "aktualizace": "2014_SJ119_00081531", "osm_nearest": "<=30 m"}}, {"type": "Feature", "geometry": {"type": "Point", "coordinates": [14.112838, 50.68258]}, "properties": {"vrstva": "Válečné hroby", "kategorie": "válečný hrob s ostatky", "nazev": "hroby 13 Rusů z 2. sv. války", "popis": "hřbitov na Mojžíři", "obec": "Ústí nad Labem", "katastr": null, "parcela": "45", "aktualizace": "2014_SJ119_00081531", "osm_nearest": "<=30 m"}}, {"type": "Feature", "geometry": {"type": "Point", "coordinates": [14.102982, 50.671193]}, "properties": {"vrstva": "Válečné hroby", "kategorie": "pietní místo - objekt", "nazev": "pomník padlým z 1. sv. války", "popis": "U Radnice", "obec": "Ústí nad Labem", "katastr": null, "parcela": "198", "aktualizace": "2014_SJ119_00081531", "osm_nearest": "<=30 m"}}, {"type": "Feature", "geometry": {"type": "Point", "coordinates": [14.18052, 50.687174]}, "properties": {"vrstva": "Válečné hroby", "kategorie": "pietní místo - objekt", "nazev": "pomník obětem 1. světové války", "popis": "hřbitov u závěru kostela Narození sv. Jana Křtitele", "obec": "Povrly", "katastr": null, "parcela": "2", "aktualizace": "2017_SJ119_00081531", "osm_nearest": "<=30 m"}}, {"type": "Feature", "geometry": {"type": "Point", "coordinates": [14.140073, 50.662594]}, "properties": {"vrstva": "Válečné hroby", "kategorie": "pietní místo - objekt", "nazev": "pomník padlým", "popis": "zámecký park", "obec": "Velké Březno", "katastr": null, "parcela": "4", "aktualizace": "2017_SJ119_00081531", "osm_nearest": "<=30 m"}}, {"type": "Feature", "geometry": {"type": "Point", "coordinates": [13.920581, 50.650417]}, "properties": {"vrstva": "Válečné hroby", "kategorie": "pietní místo - deska", "nazev": "pamětní deska na památku 4 padlých z farnosti Roudníky", "popis": "předsíň kostela sv. Václava", "obec": "Chabařovice", "katastr": null, "parcela": "7/1", "aktualizace": "2017_SJ119_00081531", "osm_nearest": "<=30 m"}}, {"type": "Feature", "geometry": {"type": "Point", "coordinates": [14.162584, 50.675885]}, "properties": {"vrstva": "Válečné hroby", "kategorie": "válečný hrob s ostatky", "nazev": "válečný hrob s ostatky neznámého sovětského vojáka", "popis": "hřbitov nad obcí", "obec": "Povrly", "katastr": null, "parcela": "478", "aktualizace": "2017_SJ119_00081531", "osm_nearest": "<=30 m"}}, {"type": "Feature", "geometry": {"type": "Point", "coordinates": [14.081506, 50.666855]}, "properties": {"vrstva": "Válečné hroby", "kategorie": "pietní místo - deska", "nazev": "pamětní deska padlým", "popis": "bok kostela sv. Floriána", "obec": "Ústí nad Labem", "katastr": null, "parcela": "6", "aktualizace": "2017_SJ119_00081531", "osm_nearest": "<=30 m"}}, {"type": "Feature", "geometry": {"type": "Point", "coordinates": [14.035506, 50.62265]}, "properties": {"vrstva": "Válečné hroby", "kategorie": "pietní místo - objekt", "nazev": "pomník na památku osvobození", "popis": "náves", "obec": "Stebno", "katastr": null, "parcela": "1121/3", "aktualizace": "2017_SJ119_00081531", "osm_nearest": "<=30 m"}}, {"type": "Feature", "geometry": {"type": "Point", "coordinates": [14.151039, 50.62652]}, "properties": {"vrstva": "Válečné hroby", "kategorie": "pietní místo - objekt", "nazev": "pomník padlým", "popis": "park pod kostelem", "obec": "Tašov", "katastr": null, "parcela": "3/1", "aktualizace": "2017_SJ119_00081531", "osm_nearest": "<=30 m"}}]}