{"type":"FeatureCollection","features":[{"type":"Feature","geometry":{"type":"Point","coordinates":[14.497899,50.0097]},"properties":{"KOBL_ID":"KO104001","NAZ_KOBL":"koupaliště Šeberák","NAZ_OBEC":"Praha","NAZ_TOK":"Kunratický potok","RZH_URL":"https://mze.gov.cz/public/portal/mze/-q356833---Oqbccoop/koupaliste-seberak?_linka=a281135"}},{"type":"Feature","geometry":{"type":"Point","coordinates":[14.414099,49.7917]},"properties":{"KOBL_ID":"KO210101","NAZ_KOBL":"VN Slapy - Měřín","NAZ_OBEC":"Rabyně","NAZ_TOK":"Vltava","RZH_URL":"https://mze.gov.cz/public/portal/mze/-q356857---EZi1fos-/vn-slapy-dolni-cast?_linka=a550448"}},{"type":"Feature","geometry":{"type":"Point","coordinates":[14.424699,49.8088]},"properties":{"KOBL_ID":"KO210102","NAZ_KOBL":"VN Slapy - Nová Rabyně","NAZ_OBEC":"Rabyně","NAZ_TOK":"Vltava","RZH_URL":"https://mze.gov.cz/public/portal/mze/-q356857---EZi1fos-/vn-slapy-dolni-cast?_linka=a550448"}},{"type":"Feature","geometry":{"type":"Point","coordinates":[14.414399,49.7546]},"properties":{"KOBL_ID":"KO210103","NAZ_KOBL":"VN Slapy - Nová Živohošť","NAZ_OBEC":"Křečovice","NAZ_TOK":"Vltava","RZH_URL":"https://mze.gov.cz/public/portal/mze/-q356839---0MhjoQim/vn-slapy-stred?_linka=a550450"}},{"type":"Feature","geometry":{"type":"Point","coordinates":[14.427299,49.7968]},"properties":{"KOBL_ID":"KO210501","NAZ_KOBL":"VN Slapy - Ždáň","NAZ_OBEC":"Slapy","NAZ_TOK":"Vltava","RZH_URL":"https://mze.gov.cz/public/portal/mze/-q356857---EZi1fos-/vn-slapy-dolni-cast?_linka=a550448"}},{"type":"Feature","geometry":{"type":"Point","coordinates":[14.424999,49.7585]},"properties":{"KOBL_ID":"KO210701","NAZ_KOBL":"VN Slapy - Živohošť","NAZ_OBEC":"Chotilsko","NAZ_TOK":"Vltava","RZH_URL":"https://mze.gov.cz/public/portal/mze/-q356839---0MhjoQim/vn-slapy-stred?_linka=a550450"}},{"type":"Feature","geometry":{"type":"Point","coordinates":[14.296699,49.7051]},"properties":{"KOBL_ID":"KO210702","NAZ_KOBL":"VN Slapy - Županovice","NAZ_OBEC":"Županovice","NAZ_TOK":"Vltava","RZH_URL":"https://mze.gov.cz/public/portal/mze/-q356843---gBtgVRkj/vn-slapy-horni-cast-zupanovice?_linka=a550452"}},{"type":"Feature","geometry":{"type":"Point","coordinates":[15.195799,50.0573]},"properties":{"KOBL_ID":"KO211001","NAZ_KOBL":"písník Hradišťko","NAZ_OBEC":"Veltruby","NAZ_TOK":"Hluboký potok","RZH_URL":"https://mze.gov.cz/public/portal/mze/-q356767---cvmEdPnj/pisnik-hradistko-i?_linka=a627482"}},{"type":"Feature","geometry":{"type":"Point","coordinates":[14.159699,49.5864]},"properties":{"KOBL_ID":"KO212001","NAZ_KOBL":"VN Orlík - Lavičky","NAZ_OBEC":"Bohostice","NAZ_TOK":"Vltava","RZH_URL":"https://mze.gov.cz/public/portal/mze/-q356859---0DlfZnbW/vn-orlik-dolni-cast?_linka=a281161"}},{"type":"Feature","geometry":{"type":"Point","coordinates":[14.172499,49.5439]},"properties":{"KOBL_ID":"KO212301","NAZ_KOBL":"VN Orlík - Podskalí","NAZ_OBEC":"Klučenice","NAZ_TOK":"Vltava","RZH_URL":"https://mze.gov.cz/public/portal/mze/-q356853---Z311mGE9/vn-orlik-stred?_linka=a281155"}},{"type":"Feature","geometry":{"type":"Point","coordinates":[14.191599,49.5987]},"properties":{"KOBL_ID":"KO212302","NAZ_KOBL":"VN Orlík - Popelíky","NAZ_OBEC":"Milešov","NAZ_TOK":"Vltava","RZH_URL":"https://mze.gov.cz/public/portal/mze/-q356859---0DlfZnbW/vn-orlik-dolni-cast?_linka=a281161"}},{"type":"Feature","geometry":{"type":"Point","coordinates":[14.169699,49.58]},"properties":{"KOBL_ID":"KO212303","NAZ_KOBL":"VN Orlík - Trhovky","NAZ_OBEC":"Milešov","NAZ_TOK":"Vltava","RZH_URL":"https://mze.gov.cz/public/portal/mze/-q356859---0DlfZnbW/vn-orlik-dolni-cast?_linka=a281161"}},{"type":"Feature","geometry":{"type":"Point","coordinates":[14.098699,48.7371]},"properties":{"KOBL_ID":"KO310301","NAZ_KOBL":"VN Lipno - pláž Černá v Pošumaví","NAZ_OBEC":"Černá v Pošumaví","NAZ_TOK":"Olšina","RZH_URL":"https://mze.gov.cz/public/portal/mze/-q356795---xZrRz6ic/vn-lipno-plaz-cerna-v-posumavi?_linka=a550454"}},{"type":"Feature","geometry":{"type":"Point","coordinates":[14.022499,48.7594]},"properties":{"KOBL_ID":"KO310302","NAZ_KOBL":"VN Lipno - pláž Horní Planá","NAZ_OBEC":"Horní Planá","NAZ_TOK":"Vltava","RZH_URL":"https://mze.gov.cz/public/portal/mze/-q356801---mTUHhd31/vn-lipno-plaz-horni-plana?_linka=a582556"}},{"type":"Feature","geometry":{"type":"Point","coordinates":[14.221999,48.6376]},"properties":{"KOBL_ID":"KO310303","NAZ_KOBL":"VN Lipno - pláž Lipno nad Vltavou","NAZ_OBEC":"Lipno nad Vltavou","NAZ_TOK":"Slunečný potok","RZH_URL":"https://mze.gov.cz/public/portal/mze/-q356797---WNXtgDqf/vn-lipno-plaz-lipno-nad-vltavou?_linka=a595264"}},{"type":"Feature","geometry":{"type":"Point","coordinates":[14.171399,49.5314]},"properties":{"KOBL_ID":"KO310701","NAZ_KOBL":"VN Orlík - ATC Radava","NAZ_OBEC":"Kovářov","NAZ_TOK":"Vltava","RZH_URL":"https://mze.gov.cz/public/portal/mze/-q356853---Z311mGE9/vn-orlik-stred?_linka=a281155"}},{"type":"Feature","geometry":{"type":"Point","coordinates":[14.273999,49.3605]},"properties":{"KOBL_ID":"KO310801","NAZ_KOBL":"VN Orlík - veřejné tábořiště Podolsko","NAZ_OBEC":"Podolí I","NAZ_TOK":"Vltava","RZH_URL":"https://mze.gov.cz/public/portal/mze/-q356837---Q0as2BsE/vn-orlik-vltavske-rameno-verejne?_linka=a281139"}},{"type":"Feature","geometry":{"type":"Point","coordinates":[14.939399,48.9594]},"properties":{"KOBL_ID":"KO311401","NAZ_KOBL":"rybník Hejtman","NAZ_OBEC":"Chlum u Třeboně","NAZ_TOK":"Koštěnický potok","RZH_URL":"https://mze.gov.cz/public/portal/mze/-q356793---5eJtFYnJ/rybnik-hejtman?_linka=a582548"}},{"type":"Feature","geometry":{"type":"Point","coordinates":[13.139399,49.7955]},"properties":{"KOBL_ID":"KO320801","NAZ_KOBL":"VN Hracholusky - Na Radosti","NAZ_OBEC":"Pňovany","NAZ_TOK":"Mže","RZH_URL":"https://mze.gov.cz/public/portal/mze/-q356807---3AjDfJEm/vn-hracholusky?_linka=a281113"}},{"type":"Feature","geometry":{"type":"Point","coordinates":[13.167699,49.7929]},"properties":{"KOBL_ID":"KO320802","NAZ_KOBL":"VN Hracholusky - hráz","NAZ_OBEC":"Úlice","NAZ_TOK":"Mže","RZH_URL":"https://mze.gov.cz/public/portal/mze/-q356807---3AjDfJEm/vn-hracholusky?_linka=a281113"}},{"type":"Feature","geometry":{"type":"Point","coordinates":[13.357099,49.7724]},"properties":{"KOBL_ID":"KO320901","NAZ_KOBL":"lom - jezírko Košutka","NAZ_OBEC":"Plzeň","NAZ_TOK":"povodí Mže","RZH_URL":"https://mze.gov.cz/public/portal/mze/-q356817---8sj4XHlY/lom-jezirko-kosutka?_linka=a582534"}},{"type":"Feature","geometry":{"type":"Point","coordinates":[13.382699,49.7902]},"properties":{"KOBL_ID":"KO320902","NAZ_KOBL":"Kamenný rybník","NAZ_OBEC":"Plzeň","NAZ_TOK":"přítok Boleveckého potoka","RZH_URL":"https://mze.gov.cz/public/portal/mze/-q356811---0gtBaCd8/kamenny-rybnik?_linka=a281115"}},{"type":"Feature","geometry":{"type":"Point","coordinates":[13.390199,49.7851]},"properties":{"KOBL_ID":"KO320903","NAZ_KOBL":"Senecký rybník","NAZ_OBEC":"Plzeň","NAZ_TOK":"Bolevecký potok","RZH_URL":"https://mze.gov.cz/public/portal/mze/-q356821---vDcJBvzx/senecky-rybnik?_linka=a281123"}},{"type":"Feature","geometry":{"type":"Point","coordinates":[13.377999,49.785]},"properties":{"KOBL_ID":"KO320904","NAZ_KOBL":"Šídlovský rybník","NAZ_OBEC":"Plzeň","NAZ_TOK":"Bolevecký potok","RZH_URL":"https://mze.gov.cz/public/portal/mze/-q356823---h6BYe4l5/sidlovsky-rybnik?_linka=a281125"}},{"type":"Feature","geometry":{"type":"Point","coordinates":[13.395199,49.7728]},"properties":{"KOBL_ID":"KO320905","NAZ_KOBL":"Velký Bolevecký rybník - hráz","NAZ_OBEC":"Plzeň","NAZ_TOK":"Bolevecký potok","RZH_URL":"https://mze.gov.cz/public/portal/mze/-q356813---W4Q-lY7b/velky-bolevecky-rybnik?_linka=a281117"}},{"type":"Feature","geometry":{"type":"Point","coordinates":[13.399399,49.7753]},"properties":{"KOBL_ID":"KO320906","NAZ_KOBL":"Velký Bolevecký rybník - Ostende","NAZ_OBEC":"Plzeň","NAZ_TOK":"Bolevecký potok","RZH_URL":"https://mze.gov.cz/public/portal/mze/-q356813---W4Q-lY7b/velky-bolevecky-rybnik?_linka=a281117"}},{"type":"Feature","geometry":{"type":"Point","coordinates":[13.379999,49.2565]},"properties":{"KOBL_ID":"KO321401","NAZ_KOBL":"Velhartice rybník Bušek","NAZ_OBEC":"Velhartice","NAZ_TOK":"Čeletický potok","RZH_URL":"https://mze.gov.cz/public/portal/mze/-q356799---kOFc03qy/rybnik-busek?_linka=a582554"}},{"type":"Feature","geometry":{"type":"Point","coordinates":[12.468699,50.0825]},"properties":{"KOBL_ID":"KO410201","NAZ_KOBL":"VN Jesenice - u ATC Rybářská bašta","NAZ_OBEC":"Cheb","NAZ_TOK":"Odrava","RZH_URL":"https://mze.gov.cz/public/portal/mze/-q356977---snjN8vCx/vn-jesenice?_linka=a281269"}},{"type":"Feature","geometry":{"type":"Point","coordinates":[12.420599,50.055]},"properties":{"KOBL_ID":"KO410202","NAZ_KOBL":"VN Jesenice - u ATC Václav","NAZ_OBEC":"Cheb","NAZ_TOK":"Odrava","RZH_URL":"https://mze.gov.cz/public/portal/mze/-q356977---snjN8vCx/vn-jesenice?_linka=a281269"}},{"type":"Feature","geometry":{"type":"Point","coordinates":[12.322899,50.0857]},"properties":{"KOBL_ID":"KO410203","NAZ_KOBL":"VN Skalka - u ATC Podhoří","NAZ_OBEC":"Cheb","NAZ_TOK":"Ohře","RZH_URL":"https://mze.gov.cz/public/portal/mze/-q356985---PzPkzsII/vn-skalka?_linka=a281275"}},{"type":"Feature","geometry":{"type":"Point","coordinates":[12.870999,50.29]},"properties":{"KOBL_ID":"KO410601","NAZ_KOBL":"Velký rybník","NAZ_OBEC":"Hroznětín","NAZ_TOK":"Sadovský potok","RZH_URL":"https://mze.gov.cz/public/portal/mze/-q356997---Jfo9u8ww/velky-rybnik?_linka=a281287"}},{"type":"Feature","geometry":{"type":"Point","coordinates":[12.679999,50.276]},"properties":{"KOBL_ID":"KO410702","NAZ_KOBL":"VN Tatrovice","NAZ_OBEC":"Tatrovice","NAZ_TOK":"Tatrovický potok","RZH_URL":"https://mze.gov.cz/public/portal/mze/-q357001---opLW34We/vn-tatrovice?_linka=a281291"}},{"type":"Feature","geometry":{"type":"Point","coordinates":[13.359699,50.3573]},"properties":{"KOBL_ID":"KO420301","NAZ_KOBL":"VN Nechranice - Tušimice","NAZ_OBEC":"Březno","NAZ_TOK":"Ohře","RZH_URL":"https://mze.gov.cz/public/portal/mze/-q356999---saUFAjWX/vn-nechranice?_linka=a281289"}},{"type":"Feature","geometry":{"type":"Point","coordinates":[13.409399,50.3493]},"properties":{"KOBL_ID":"KO420401","NAZ_KOBL":"VN Nechranice - Kemp u hráze","NAZ_OBEC":"Chbany","NAZ_TOK":"Ohře","RZH_URL":"https://mze.gov.cz/public/portal/mze/-q356999---saUFAjWX/vn-nechranice?_linka=a281289"}},{"type":"Feature","geometry":{"type":"Point","coordinates":[13.667999,50.4942]},"properties":{"KOBL_ID":"KO420901","NAZ_KOBL":"zbytková jáma dolu Benedikt","NAZ_OBEC":"Most","NAZ_TOK":"povodí Srp","RZH_URL":"https://mze.gov.cz/public/portal/mze/-q357003---KQFY8rR_/zbytkova-jama-dolu-benedikt?_linka=a281293"}},{"type":"Feature","geometry":{"type":"Point","coordinates":[13.618799,50.5261]},"properties":{"KOBL_ID":"KO420902","NAZ_KOBL":"VN Vrbenský - kemp Matylda","NAZ_OBEC":"Most","NAZ_TOK":"povodí Hut","RZH_URL":"https://mze.gov.cz/public/portal/mze/-q356985---PzPkzsII/vn-skalka?_linka=a281275"}},{"type":"Feature","geometry":{"type":"Point","coordinates":[13.754999,50.6437]},"properties":{"KOBL_ID":"KO421301","NAZ_KOBL":"zbytková jáma dolu Barbora","NAZ_OBEC":"Jeníkov","NAZ_TOK":"přítok Bouřlivce","RZH_URL":"https://mze.gov.cz/public/portal/mze/-q357009---NQ1-6zga/zbytkova-jama-dolu-barbora?_linka=a281299"}},{"type":"Feature","geometry":{"type":"Point","coordinates":[13.952399,50.7133]},"properties":{"KOBL_ID":"KO421401","NAZ_KOBL":"zbytková jáma dolu Varvažov","NAZ_OBEC":"Telnice","NAZ_TOK":"povodí Telnického potoka","RZH_URL":"https://mze.gov.cz/public/portal/mze/-q356979---Rm15Tflq/zbytkova-jama-dolu-varvazov?_linka=a281271"}},{"type":"Feature","geometry":{"type":"Point","coordinates":[13.949699,50.6989]},"properties":{"KOBL_ID":"KO421402","NAZ_KOBL":"Chlumecký rybník","NAZ_OBEC":"Chlumec","NAZ_TOK":"Ždírnický potok","RZH_URL":"https://mze.gov.cz/public/portal/mze/-q356993---G0U8p0ZH/chlumecky-rybnik?_linka=a565556"}},{"type":"Feature","geometry":{"type":"Point","coordinates":[13.966099,50.6563]},"properties":{"KOBL_ID":"KO421403","NAZ_KOBL":"Jezero Milada","NAZ_OBEC":"Ústí nad Labem","RZH_URL":"https://mze.gov.cz/public/portal/mze/-q357007---i6jWz1cN/jezero-milada?_linka=a565562"}},{"type":"Feature","geometry":{"type":"Point","coordinates":[15.175299,50.7345]},"properties":{"KOBL_ID":"KO510301","NAZ_KOBL":"VN Mšeno - pláž \"U kiosku\"","NAZ_OBEC":"Jablonec nad Nisou","NAZ_TOK":"Mšenský potok","RZH_URL":"https://mze.gov.cz/public/portal/mze/-q356765---aH22gg4G/vn-mseno?_linka=a627492"}},{"type":"Feature","geometry":{"type":"Point","coordinates":[15.171499,50.737]},"properties":{"KOBL_ID":"KO510302","NAZ_KOBL":"VN Mšeno - pláž \"U prutu\"","NAZ_OBEC":"Jablonec nad Nisou","NAZ_TOK":"Mšenský potok","RZH_URL":"https://mze.gov.cz/public/portal/mze/-q356765---aH22gg4G/vn-mseno?_linka=a627492"}},{"type":"Feature","geometry":{"type":"Point","coordinates":[15.071299,50.7687]},"properties":{"KOBL_ID":"KO510501","NAZ_KOBL":"VN Harcov - hráz","NAZ_OBEC":"Liberec","NAZ_TOK":"Harcovský potok","RZH_URL":"https://mze.gov.cz/public/portal/mze/-q356771---rUkZX4KH/vn-harcov?_linka=a627490"}},{"type":"Feature","geometry":{"type":"Point","coordinates":[15.074699,50.7709]},"properties":{"KOBL_ID":"KO510502","NAZ_KOBL":"VN Harcov - pláž","NAZ_OBEC":"Liberec","NAZ_TOK":"Harcovský potok","RZH_URL":"https://mze.gov.cz/public/portal/mze/-q356771---rUkZX4KH/vn-harcov?_linka=a627490"}},{"type":"Feature","geometry":{"type":"Point","coordinates":[15.308899,50.4719]},"properties":{"KOBL_ID":"KO520701","NAZ_KOBL":"Oborský rybník","NAZ_OBEC":"Libuň","NAZ_TOK":"přítok Javornice","RZH_URL":"https://mze.gov.cz/public/portal/mze/-q356761---C-VWiTnI/oborsky-rybnik?_linka=a627476"}},{"type":"Feature","geometry":{"type":"Point","coordinates":[16.061269,50.36455]},"properties":{"KOBL_ID":"KO520902","NAZ_KOBL":"VN Rozkoš – Velká Jesenice","NAZ_OBEC":"Velká Jesenice","NAZ_TOK":"Rovenský potok","RZH_URL":"https://mze.gov.cz/public/portal/mze/-q356759---7ewo74FR/vn-rozkos-velka-jesenice?_linka=a627496"}},{"type":"Feature","geometry":{"type":"Point","coordinates":[15.972199,50.0888]},"properties":{"KOBL_ID":"KO530301","NAZ_KOBL":"rybník Hluboký","NAZ_OBEC":"Holice","NAZ_TOK":"Hluboký potok","RZH_URL":"https://mze.gov.cz/public/portal/mze/-q356763---c2HZh1ts/rybnik-hluboky?_linka=a627488"}},{"type":"Feature","geometry":{"type":"Point","coordinates":[15.643599,49.8387]},"properties":{"KOBL_ID":"KO530401","NAZ_KOBL":"VN Seč Semtín","NAZ_OBEC":"Seč","NAZ_TOK":"Chrudimka","RZH_URL":"https://mze.gov.cz/public/portal/mze/-q356775---dg5B3w41/vn-sec?_linka=a627498"}},{"type":"Feature","geometry":{"type":"Point","coordinates":[15.643099,49.8238]},"properties":{"KOBL_ID":"KO530402","NAZ_KOBL":"VN Seč Hoješín","NAZ_OBEC":"Seč","NAZ_TOK":"Chrudimka","RZH_URL":"https://mze.gov.cz/public/portal/mze/-q356775---dg5B3w41/vn-sec?_linka=a627498"}},{"type":"Feature","geometry":{"type":"Point","coordinates":[15.649299,49.8231]},"properties":{"KOBL_ID":"KO530403","NAZ_KOBL":"VN Seč Ústupky","NAZ_OBEC":"Seč","NAZ_TOK":"Chrudimka","RZH_URL":"https://mze.gov.cz/public/portal/mze/-q356775---dg5B3w41/vn-sec?_linka=a627498"}},{"type":"Feature","geometry":{"type":"Point","coordinates":[16.591699,49.9189]},"properties":{"KOBL_ID":"KO530601","NAZ_KOBL":"rybník Dlouhý u Lanškrouna","NAZ_OBEC":"Lanškroun","NAZ_TOK":"Dlouhý  potok","RZH_URL":"https://mze.gov.cz/public/portal/mze/-q356929---hF0wu7Hu/rybnik-dlouhy?_linka=a281225"}},{"type":"Feature","geometry":{"type":"Point","coordinates":[16.604499,49.651]},"properties":{"KOBL_ID":"KO530801","NAZ_KOBL":"VN Březina","NAZ_OBEC":"Březina","NAZ_TOK":"přítok Malonínského potoka","RZH_URL":"https://mze.gov.cz/public/portal/mze/-q356921---QbpTgmOS/vn-brezina?_linka=a281217"}},{"type":"Feature","geometry":{"type":"Point","coordinates":[15.793599,50.1656]},"properties":{"KOBL_ID":"KO530901","NAZ_KOBL":"písník Březhrad","NAZ_OBEC":"Opatovice nad Labem","NAZ_TOK":"Plačický potok","RZH_URL":"https://mze.gov.cz/public/portal/mze/-q356779---Cf_PaM4F/pisnik-brezhrad?_linka=a627480"}},{"type":"Feature","geometry":{"type":"Point","coordinates":[16.454499,49.7715]},"properties":{"KOBL_ID":"KO531201","NAZ_KOBL":"rybník Rosnička","NAZ_OBEC":"Svitavy","NAZ_TOK":"Svitava","RZH_URL":"https://mze.gov.cz/public/portal/mze/-q356949---nJJe2wXn/rybnik-rosnicka?_linka=a281243"}},{"type":"Feature","geometry":{"type":"Point","coordinates":[16.561899,50.0805]},"properties":{"KOBL_ID":"KO531501","NAZ_KOBL":"VN Pastviny - Panelovka","NAZ_OBEC":"Pastviny","NAZ_TOK":"Divoká Orlice","RZH_URL":"https://mze.gov.cz/public/portal/mze/-q356749---AwTcvZgy/vn-pastviny?_linka=a627494"}},{"type":"Feature","geometry":{"type":"Point","coordinates":[16.561399,50.088]},"properties":{"KOBL_ID":"KO531502","NAZ_KOBL":"VN Pastviny - Šlechtův palouk","NAZ_OBEC":"Pastviny","NAZ_TOK":"Divoká Orlice","RZH_URL":"https://mze.gov.cz/public/portal/mze/-q356749---AwTcvZgy/vn-pastviny?_linka=a627494"}},{"type":"Feature","geometry":{"type":"Point","coordinates":[16.205399,49.5451]},"properties":{"KOBL_ID":"KO610101","NAZ_KOBL":"Domanínský rybník","NAZ_OBEC":"Bystřice nad Pernštejnem","NAZ_TOK":"Bystřice","RZH_URL":"https://mze.gov.cz/public/portal/mze/-q356953---h9GwvBN9/domaninsky-rybnik?_linka=a281247"}},{"type":"Feature","geometry":{"type":"Point","coordinates":[15.431299,49.5501]},"properties":{"KOBL_ID":"KO610201","NAZ_KOBL":"rybník Kachlička","NAZ_OBEC":"Herálec","NAZ_TOK":"Perlový potok","RZH_URL":"https://mze.gov.cz/public/portal/mze/-q356847---xcK1Sx-4/rybnik-kachlicka?_linka=a281149"}},{"type":"Feature","geometry":{"type":"Point","coordinates":[15.448099,49.6337]},"properties":{"KOBL_ID":"KO610202","NAZ_KOBL":"rybník Ředkovec","NAZ_OBEC":"Krásná Hora","NAZ_TOK":"Ředkovský potok","RZH_URL":"https://mze.gov.cz/public/portal/mze/-q356835---9xknn6Sa/rybnik-redkovec?_linka=a281137"}},{"type":"Feature","geometry":{"type":"Point","coordinates":[15.265299,49.5128]},"properties":{"KOBL_ID":"KO610302","NAZ_KOBL":"VN Sedlice","NAZ_OBEC":"Humpolec","NAZ_TOK":"Želivka","RZH_URL":"https://mze.gov.cz/public/portal/mze/-q356827---MaqFTabY/vn-sedlice?_linka=a281129"}},{"type":"Feature","geometry":{"type":"Point","coordinates":[15.206742,49.51387]},"properties":{"KOBL_ID":"KO610303","NAZ_KOBL":"VN Trnávka","NAZ_OBEC":"Želiv","NAZ_TOK":"Trnava","RZH_URL":"https://mze.gov.cz/public/portal/mze/-q356855---KxVyIt9e/vn-trnavka?_linka=a582574"}},{"type":"Feature","geometry":{"type":"Point","coordinates":[15.666099,49.7018]},"properties":{"KOBL_ID":"KO610401","NAZ_KOBL":"Břevnická nádrž","NAZ_OBEC":"Chotěboř","NAZ_TOK":"Břevnický potok","RZH_URL":"https://mze.gov.cz/public/portal/mze/-q356845---CAfo-4e3/brevnicka-nadrz?_linka=a281147"}},{"type":"Feature","geometry":{"type":"Point","coordinates":[16.052699,49.6169]},"properties":{"KOBL_ID":"KO610801","NAZ_KOBL":"rybník Medlov","NAZ_OBEC":"Fryšava pod Žákovou horou","NAZ_TOK":"Medlovka","RZH_URL":"https://mze.gov.cz/public/portal/mze/-q356961---BSm2U-Q2/rybnik-medlov?_linka=a281255"}},{"type":"Feature","geometry":{"type":"Point","coordinates":[16.036999,49.6097]},"properties":{"KOBL_ID":"KO610802","NAZ_KOBL":"rybník Sykovec","NAZ_OBEC":"Tři Studně","NAZ_TOK":"Medlovka","RZH_URL":"https://mze.gov.cz/public/portal/mze/-q356939---9NL2NBA8/rybnik-sykovec?_linka=a281233"}},{"type":"Feature","geometry":{"type":"Point","coordinates":[16.066299,49.579]},"properties":{"KOBL_ID":"KO610803","NAZ_KOBL":"Rybník Koupaliště Nové Město na Moravě","NAZ_OBEC":"Nové Město na Moravě","NAZ_TOK":"Bobrůvka","RZH_URL":"https://mze.gov.cz/public/portal/mze/-q356955---OXFO4ZWO/rybnik-koupaliste-nove-mesto-na-morave?_linka=a281249"}},{"type":"Feature","geometry":{"type":"Point","coordinates":[15.330799,49.3128]},"properties":{"KOBL_ID":"KO611001","NAZ_KOBL":"Lom Horní Cerekev","NAZ_OBEC":"Horní Cerekev","RZH_URL":"https://mze.gov.cz/public/portal/mze/-q356967---I6j608Gv/lom-horni-cerekev?_linka=a281261"}},{"type":"Feature","geometry":{"type":"Point","coordinates":[15.394699,49.2426]},"properties":{"KOBL_ID":"KO611201","NAZ_KOBL":"Malý pařezitý rybník","NAZ_OBEC":"Řásná","NAZ_TOK":"Třešťský potok","RZH_URL":"https://mze.gov.cz/public/portal/mze/-q356971---0y-4UK_V/maly-parezity-rybnik?_linka=a281265"}},{"type":"Feature","geometry":{"type":"Point","coordinates":[15.379499,49.2272]},"properties":{"KOBL_ID":"KO611202","NAZ_KOBL":"Velký pařezitý rybník","NAZ_OBEC":"Řásná","NAZ_TOK":"Javořický potok","RZH_URL":"https://mze.gov.cz/public/portal/mze/-q356963---adwirvGt/velky-parezity-rybnik?_linka=a281257"}},{"type":"Feature","geometry":{"type":"Point","coordinates":[16.043099,49.1793]},"properties":{"KOBL_ID":"KO611301","NAZ_KOBL":"Dalešická přehrada - Koněšínská pláž","NAZ_OBEC":"Koněšín","NAZ_TOK":"Jihlava","RZH_URL":"https://mze.gov.cz/public/portal/mze/-q356941---_HTLRF4U/dalesicka-prehrada-konesinska-plaz?_linka=a281235"}},{"type":"Feature","geometry":{"type":"Point","coordinates":[15.901799,49.6322]},"properties":{"KOBL_ID":"KO611501","NAZ_KOBL":"rybník Velké Dářko","NAZ_OBEC":"Polnička","NAZ_TOK":"Sázava","RZH_URL":"https://mze.gov.cz/public/portal/mze/-q356841---v89LJjnV/rybnik-velke-darko?_linka=a550446"}},{"type":"Feature","geometry":{"type":"Point","coordinates":[15.929299,49.5897]},"properties":{"KOBL_ID":"KO611502","NAZ_KOBL":"VN Pilská","NAZ_OBEC":"Žďár nad Sázavou","NAZ_TOK":"Sázava","RZH_URL":"https://mze.gov.cz/public/portal/mze/-q356829---ZrzI-xKd/vn-pilska?_linka=a281131"}},{"type":"Feature","geometry":{"type":"Point","coordinates":[16.658105,49.366695]},"properties":{"KOBL_ID":"KO620101","NAZ_KOBL":"VN Palava","NAZ_OBEC":"Blansko","NAZ_TOK":"Palava","RZH_URL":"https://mze.gov.cz/public/portal/mze/-q356965---zhr7AASm/vn-palava?_linka=a281259"}},{"type":"Feature","geometry":{"type":"Point","coordinates":[16.537699,49.5562]},"properties":{"KOBL_ID":"KO620202","NAZ_KOBL":"VN Letovice - Vranová","NAZ_OBEC":"Lazinov","NAZ_TOK":"Křetínka","RZH_URL":"https://mze.gov.cz/public/portal/mze/-q356945---Z3PuRWmi/vn-letovice?_linka=a281239"}},{"type":"Feature","geometry":{"type":"Point","coordinates":[16.510199,49.2285]},"properties":{"KOBL_ID":"KO620301","NAZ_KOBL":"VN Brněnská přehrada - Rakovec","NAZ_OBEC":"Brno","NAZ_TOK":"Svratka","RZH_URL":"https://mze.gov.cz/public/portal/mze/-q356957---A7RcwPwX/vn-brnenska-prehrada?_linka=a281251"}},{"type":"Feature","geometry":{"type":"Point","coordinates":[16.493999,49.2485]},"properties":{"KOBL_ID":"KO620302","NAZ_KOBL":"VN Brněnská přehrada - Rokle","NAZ_OBEC":"Brno","NAZ_TOK":"Svratka","RZH_URL":"https://mze.gov.cz/public/portal/mze/-q356957---A7RcwPwX/vn-brnenska-prehrada?_linka=a281251"}},{"type":"Feature","geometry":{"type":"Point","coordinates":[16.510799,49.2422]},"properties":{"KOBL_ID":"KO620303","NAZ_KOBL":"VN Brněnská přehrada - Sokolské koupaliště","NAZ_OBEC":"Brno","NAZ_TOK":"Svratka","RZH_URL":"https://mze.gov.cz/public/portal/mze/-q356957---A7RcwPwX/vn-brnenska-prehrada?_linka=a281251"}},{"type":"Feature","geometry":{"type":"Point","coordinates":[16.506399,49.2378]},"properties":{"KOBL_ID":"KO620304","NAZ_KOBL":"VN Brněnská přehrada - Kozí horka","NAZ_OBEC":"Brno","NAZ_TOK":"Svratka","RZH_URL":"https://mze.gov.cz/public/portal/mze/-q356957---A7RcwPwX/vn-brnenska-prehrada?_linka=a281251"}},{"type":"Feature","geometry":{"type":"Point","coordinates":[16.499299,49.247]},"properties":{"KOBL_ID":"KO620305","NAZ_KOBL":"VN Brněnská přehrada - Osada","NAZ_OBEC":"Brno","NAZ_TOK":"Svratka","RZH_URL":"https://mze.gov.cz/public/portal/mze/-q356957---A7RcwPwX/vn-brnenska-prehrada?_linka=a281251"}},{"type":"Feature","geometry":{"type":"Point","coordinates":[17.393112,48.861997]},"properties":{"KOBL_ID":"KO621802","NAZ_KOBL":"VN Lučina","NAZ_OBEC":"Tvarožná Lhota","NAZ_TOK":"Radějovka","RZH_URL":"https://mze.gov.cz/public/portal/mze/-q356911---3QckaLJy/vn-lucina?_linka=a281209"}},{"type":"Feature","geometry":{"type":"Point","coordinates":[15.816299,48.9124]},"properties":{"KOBL_ID":"KO622003","NAZ_KOBL":"Vranovská přehrada - pláž Vranov","NAZ_OBEC":"Vranov nad Dyjí","NAZ_TOK":"Dyje","RZH_URL":"https://mze.gov.cz/public/portal/mze/-q356959---quMYFZKC/vranovska-prehrada?_linka=a281253"}},{"type":"Feature","geometry":{"type":"Point","coordinates":[17.226604,49.623099]},"properties":{"KOBL_ID":"KO710701","NAZ_KOBL":"Poděbrady - U přístaviště","NAZ_OBEC":"Horka nad Moravou","NAZ_TOK":"Mlýnský potok","RZH_URL":"https://mze.gov.cz/public/portal/mze/-q356917---Is3ZvbMA/podebrady?_linka=q1016301"}},{"type":"Feature","geometry":{"type":"Point","coordinates":[17.230004,49.627799]},"properties":{"KOBL_ID":"KO710702","NAZ_KOBL":"Poděbrady - Plané loučky","NAZ_OBEC":"Horka nad Moravou","NAZ_TOK":"Mlýnský potok","RZH_URL":"https://mze.gov.cz/public/portal/mze/-q356917---Is3ZvbMA/podebrady?_linka=q1016301"}},{"type":"Feature","geometry":{"type":"Point","coordinates":[17.030405,49.467497]},"properties":{"KOBL_ID":"KO710801","NAZ_KOBL":"VN Plumlov","NAZ_OBEC":"Plumlov","NAZ_TOK":"Hloučela","RZH_URL":"https://mze.gov.cz/public/portal/mze/-q356905---jn0JEw1o/vn-plumlov?_linka=a281203"}},{"type":"Feature","geometry":{"type":"Point","coordinates":[17.775211,49.121399]},"properties":{"KOBL_ID":"KO720401","NAZ_KOBL":"VN Luhačovice - u hráze","NAZ_OBEC":"Pozlovice","NAZ_TOK":"Luhačovický potok","RZH_URL":"https://mze.gov.cz/public/portal/mze/-q356933---j9UJteub/vn-luhacovice?_linka=a281229"}},{"type":"Feature","geometry":{"type":"Point","coordinates":[17.784311,49.125099]},"properties":{"KOBL_ID":"KO720402","NAZ_KOBL":"VN Luhačovice - kemp","NAZ_OBEC":"Pozlovice","NAZ_TOK":"Luhačovický potok","RZH_URL":"https://mze.gov.cz/public/portal/mze/-q356933---j9UJteub/vn-luhacovice?_linka=a281229"}},{"type":"Feature","geometry":{"type":"Point","coordinates":[17.511409,49.156698]},"properties":{"KOBL_ID":"KO720501","NAZ_KOBL":"Pahrbek Napajedla","NAZ_OBEC":"Napajedla","NAZ_TOK":"Morava","RZH_URL":"https://mze.gov.cz/public/portal/mze/-q356923---J6PnqazJ/slepe-rameno-moravy-pahrbek?_linka=a281219"}},{"type":"Feature","geometry":{"type":"Point","coordinates":[17.513009,49.226498]},"properties":{"KOBL_ID":"KO720502","NAZ_KOBL":"Štěrkáč Otrokovice","NAZ_OBEC":"Otrokovice","NAZ_TOK":"povodí Moravy","RZH_URL":"https://mze.gov.cz/public/portal/mze/-q356919---PAk2Uibh/bahnak-sterkoviste-otrokovice?_linka=a281215"}},{"type":"Feature","geometry":{"type":"Point","coordinates":[18.315809,49.420703]},"properties":{"KOBL_ID":"KO720601","NAZ_KOBL":"VN Horní Bečva","NAZ_OBEC":"Horní Bečva","NAZ_TOK":"Rožnovská Bečva","RZH_URL":"https://mze.gov.cz/public/portal/mze/-q356907---3hmL7PiB/vn-horni-becva?_linka=a281205"}},{"type":"Feature","geometry":{"type":"Point","coordinates":[17.857809,49.2898]},"properties":{"KOBL_ID":"KO721101","NAZ_KOBL":"VN Všemina","NAZ_OBEC":"Všemina","NAZ_TOK":"Všeminka","RZH_URL":"https://mze.gov.cz/public/portal/mze/-q356927---6_3QvrGx/retencni-nadrz-vsemina?_linka=a281223"}},{"type":"Feature","geometry":{"type":"Point","coordinates":[18.020908,49.421601]},"properties":{"KOBL_ID":"KO721201","NAZ_KOBL":"VN Bystřička - u hráze","NAZ_OBEC":"Bystřička","NAZ_TOK":"Bystřička","RZH_URL":"https://mze.gov.cz/public/portal/mze/-q356931---G_ZNfe8J/vn-bystricka?_linka=a281227"}},{"type":"Feature","geometry":{"type":"Point","coordinates":[18.024908,49.423901]},"properties":{"KOBL_ID":"KO721202","NAZ_KOBL":"VN Bystřička - u pláže","NAZ_OBEC":"Bystřička","NAZ_TOK":"Bystřička","RZH_URL":"https://mze.gov.cz/public/portal/mze/-q356931---G_ZNfe8J/vn-bystricka?_linka=a281227"}},{"type":"Feature","geometry":{"type":"Point","coordinates":[18.21821,49.344302]},"properties":{"KOBL_ID":"KO721203","NAZ_KOBL":"Nový Hrozenkov","NAZ_OBEC":"Nový Hrozenkov","NAZ_TOK":"Vsetínský potok","RZH_URL":"https://mze.gov.cz/public/portal/mze/-q356909---Zabrjynv/novy-hrozenkov-balaton?_linka=a281207"}},{"type":"Feature","geometry":{"type":"Point","coordinates":[18.026599,49.7646]},"properties":{"KOBL_ID":"KO810101","NAZ_KOBL":"Bílovecký rybník - Údolí Mladých","NAZ_OBEC":"Bílovec","NAZ_TOK":"Jamník","RZH_URL":"https://mze.gov.cz/public/portal/mze/-q356885---e1yULLeS/bilovecky-rybnik?_linka=a549374"}},{"type":"Feature","geometry":{"type":"Point","coordinates":[18.346699,49.9268]},"properties":{"KOBL_ID":"KO810201","NAZ_KOBL":"Kališovo jezero","NAZ_OBEC":"Bohumín","RZH_URL":"https://mze.gov.cz/public/portal/mze/-q356867---kBX2RRMI/kalisovo-jezero?_linka=a615252"}},{"type":"Feature","geometry":{"type":"Point","coordinates":[18.312299,49.8817]},"properties":{"KOBL_ID":"KO810202","NAZ_KOBL":"Vrbické jezero","NAZ_OBEC":"Bohumín","RZH_URL":"https://mze.gov.cz/public/portal/mze/-q356887---a69mIMdr/piskovna-vrbicke-jezero?_linka=a615254"}},{"type":"Feature","geometry":{"type":"Point","coordinates":[17.657599,49.9433]},"properties":{"KOBL_ID":"KO810301","NAZ_KOBL":"lom - Svobodné Heřmanice","NAZ_OBEC":"Svobodné Heřmanice","NAZ_TOK":"povodí Heřmanice","RZH_URL":"https://mze.gov.cz/public/portal/mze/-q356881---0vI5-qM_/lom-svobodne-hermanice?_linka=a549378"}},{"type":"Feature","geometry":{"type":"Point","coordinates":[17.564299,49.9044]},"properties":{"KOBL_ID":"KO810303","NAZ_KOBL":"VN Slezská Harta - Leskovec nad Moravicí","NAZ_OBEC":"Leskovec nad Moravicí","NAZ_TOK":"Moravice","RZH_URL":"https://mze.gov.cz/public/portal/mze/-q356883---tyaFtnjj/vn-slezska-harta?_linka=a549406"}},{"type":"Feature","geometry":{"type":"Point","coordinates":[17.476799,49.9256]},"properties":{"KOBL_ID":"KO810304","NAZ_KOBL":"VN Slezská Harta - Nová pláň","NAZ_OBEC":"Nová Pláň","NAZ_TOK":"Moravice","RZH_URL":"https://mze.gov.cz/public/portal/mze/-q356883---tyaFtnjj/vn-slezska-harta?_linka=a549406"}},{"type":"Feature","geometry":{"type":"Point","coordinates":[17.523625,49.90278]},"properties":{"KOBL_ID":"KO810308","NAZ_KOBL":"VN Slezská Harta - Roudno","NAZ_OBEC":"Roudno","NAZ_TOK":"Moravice","RZH_URL":"https://mze.gov.cz/public/portal/mze/-q356883---tyaFtnjj/vn-slezska-harta?_linka=a549406"}},{"type":"Feature","geometry":{"type":"Point","coordinates":[18.381907,49.649004]},"properties":{"KOBL_ID":"KO810601","NAZ_KOBL":"VN Baška","NAZ_OBEC":"Baška","NAZ_TOK":"Baštice","RZH_URL":"https://mze.gov.cz/public/portal/mze/-q356869---74q2aQr9/vn-baska?_linka=a549398"}},{"type":"Feature","geometry":{"type":"Point","coordinates":[18.238899,49.6992]},"properties":{"KOBL_ID":"KO810602","NAZ_KOBL":"VN Brušperk I","NAZ_OBEC":"Brušperk","NAZ_TOK":"Horní Kotbach","RZH_URL":"https://mze.gov.cz/public/portal/mze/-q356875---sRtaCKUT/vn-brusperk-i?_linka=a281177"}},{"type":"Feature","geometry":{"type":"Point","coordinates":[18.313907,49.663903]},"properties":{"KOBL_ID":"KO810603","NAZ_KOBL":"VN Olešná - Místek","NAZ_OBEC":"Frýdek-Místek","NAZ_TOK":"Olešná","RZH_URL":"https://mze.gov.cz/public/portal/mze/-q356863---k-rZPXpO/vn-olesna?_linka=a549404"}},{"type":"Feature","geometry":{"type":"Point","coordinates":[18.317307,49.658803]},"properties":{"KOBL_ID":"KO810604","NAZ_KOBL":"VN Olešná - Palkovice","NAZ_OBEC":"Frýdek-Místek","NAZ_TOK":"Olešná","RZH_URL":"https://mze.gov.cz/public/portal/mze/-q356863---k-rZPXpO/vn-olesna?_linka=a549404"}},{"type":"Feature","geometry":{"type":"Point","coordinates":[18.468699,49.7205]},"properties":{"KOBL_ID":"KO810605","NAZ_KOBL":"VN Žermanice - Dolní Domaslavice","NAZ_OBEC":"Lučina","NAZ_TOK":"Lučina","RZH_URL":"https://mze.gov.cz/public/portal/mze/-q356899---Zdu-kX0P/vn-zermanice?_linka=a549418"}},{"type":"Feature","geometry":{"type":"Point","coordinates":[18.451499,49.7248]},"properties":{"KOBL_ID":"KO810606","NAZ_KOBL":"VN Žermanice - Lučina","NAZ_OBEC":"Lučina","NAZ_TOK":"Řepník - vzdutí","RZH_URL":"https://mze.gov.cz/public/portal/mze/-q356899---Zdu-kX0P/vn-zermanice?_linka=a549418"}},{"type":"Feature","geometry":{"type":"Point","coordinates":[18.457999,49.723]},"properties":{"KOBL_ID":"KO810607","NAZ_KOBL":"VN Žermanice - Soběšovice","NAZ_OBEC":"Lučina","NAZ_TOK":"Lučina","RZH_URL":"https://mze.gov.cz/public/portal/mze/-q356899---Zdu-kX0P/vn-zermanice?_linka=a549418"}},{"type":"Feature","geometry":{"type":"Point","coordinates":[18.498499,49.7694]},"properties":{"KOBL_ID":"KO810801","NAZ_KOBL":"VN Těrlicko - Pacalůvka","NAZ_OBEC":"Těrlicko","NAZ_TOK":"Stonávka","RZH_URL":"https://mze.gov.cz/public/portal/mze/-q356891---BbjRtuAZ/vn-terlicko?_linka=a549412"}},{"type":"Feature","geometry":{"type":"Point","coordinates":[18.498199,49.7533]},"properties":{"KOBL_ID":"KO810802","NAZ_KOBL":"VN Těrlicko - Pod motelem","NAZ_OBEC":"Těrlicko","NAZ_TOK":"Stonávka","RZH_URL":"https://mze.gov.cz/public/portal/mze/-q356891---BbjRtuAZ/vn-terlicko?_linka=a549412"}},{"type":"Feature","geometry":{"type":"Point","coordinates":[18.493299,49.7567]},"properties":{"KOBL_ID":"KO810803","NAZ_KOBL":"VN Těrlicko - Těrlicko střed","NAZ_OBEC":"Těrlicko","NAZ_TOK":"Stonávka","RZH_URL":"https://mze.gov.cz/public/portal/mze/-q356891---BbjRtuAZ/vn-terlicko?_linka=a549412"}},{"type":"Feature","geometry":{"type":"Point","coordinates":[18.190007,49.616303]},"properties":{"KOBL_ID":"KO811201","NAZ_KOBL":"VN Větřkovice","NAZ_OBEC":"Kopřivnice","NAZ_TOK":"Svěcený potok","RZH_URL":"https://mze.gov.cz/public/portal/mze/-q356877---zwyMalzQ/vn-vetrkovice?_linka=a549414"}},{"type":"Feature","geometry":{"type":"Point","coordinates":[17.706199,50.2368]},"properties":{"KOBL_ID":"KO811401","NAZ_KOBL":"rybník Pod Hradem","NAZ_OBEC":"Bohušov","NAZ_TOK":"Karlovský potok","RZH_URL":"https://mze.gov.cz/public/portal/mze/-a36444---eQV2-1WN/rybnik-pod-hradem?_linka=a549726"}},{"type":"Feature","geometry":{"type":"Point","coordinates":[17.999407,49.567402]},"properties":{"KOBL_ID":"KO811501","NAZ_KOBL":"VN Čerťák","NAZ_OBEC":"Nový Jičín","NAZ_TOK":"Čerťák","RZH_URL":"https://mze.gov.cz/public/portal/mze/-q356871---HqpmxhmH/vn-certak?_linka=a549402"}},{"type":"Feature","geometry":{"type":"Point","coordinates":[18.018407,49.525902]},"properties":{"KOBL_ID":"KO811502","NAZ_KOBL":"VN Kacabaja","NAZ_OBEC":"Hodslavice","NAZ_TOK":"Zrzávka","RZH_URL":"https://mze.gov.cz/public/portal/mze/-q356895---ANgNScIl/vn-kacabaja?_linka=a281195"}},{"type":"Feature","geometry":{"type":"Point","coordinates":[17.893899,49.9546]},"properties":{"KOBL_ID":"KO811701","NAZ_KOBL":"Stříbrné jezero","NAZ_OBEC":"Opava","NAZ_TOK":"Opava","RZH_URL":"https://mze.gov.cz/public/portal/mze/-q356897---ObY3MY-5/stribrne-jezero?_linka=a549388"}},{"type":"Feature","geometry":{"type":"Point","coordinates":[17.188499,49.8983]},"properties":{"KOBL_ID":"KO812001","NAZ_KOBL":"rybník Tvrdkov","NAZ_OBEC":"Tvrdkov","NAZ_TOK":"Tvrdkovský potok","RZH_URL":"https://mze.gov.cz/public/portal/mze/-q356913---GKPl5GgX/rybnik-tvrdkov?_linka=a281211"}},{"type":"Feature","geometry":{"type":"Point","coordinates":[17.262899,49.9367]},"properties":{"KOBL_ID":"KO812002","NAZ_KOBL":"rybník Edrovice","NAZ_OBEC":"Rýmařov","NAZ_TOK":"Novopolský potok","RZH_URL":"https://mze.gov.cz/public/portal/mze/-q356889---fOByKALw/rybnik-edrovice?_linka=a281189"}},{"type":"Feature","geometry":{"type":"Point","coordinates":[17.632599,49.7897]},"properties":{"KOBL_ID":"KO812201","NAZ_KOBL":"VN Budišov nad Budišovkou","NAZ_OBEC":"Budišov nad Budišovkou","NAZ_TOK":"Rychtářský potok","RZH_URL":"https://mze.gov.cz/public/portal/mze/-q356865---lbmPcKmG/budisov-nad-budisovkou-nadrz-v-parku-u?_linka=a549400"}},{"type":"Feature","geometry":{"type":"Point","coordinates":[14.338099,50.0693]},"properties":{"KOBL_ID":"PK105051","NAZ_KOBL":"koupaliště ve volné přírodě Motol","NAZ_OBEC":"Praha","NAZ_TOK":"Motolský potok","RZH_URL":"https://mze.gov.cz/public/portal/mze/-q356851---tyCKAT1N/rybnik-motol?_linka=a281153"}},{"type":"Feature","geometry":{"type":"Point","coordinates":[14.540199,50.0379]},"properties":{"KOBL_ID":"PK110051","NAZ_KOBL":"koupaliště ve volné přírodě Hostivař","NAZ_OBEC":"Praha","NAZ_TOK":"Botič","RZH_URL":"https://mze.gov.cz/public/portal/mze/-q356831---6xGo0zzZ/koupaliste-hostivar?_linka=a281133"}},{"type":"Feature","geometry":{"type":"Point","coordinates":[14.667799,50.2447]},"properties":{"KOBL_ID":"PK210351","NAZ_KOBL":"písník Lhota","NAZ_OBEC":"Lhota","RZH_URL":"https://mze.gov.cz/public/portal/mze/-q356769---NFS5AxfF/pisnik-lhota?_linka=a627484"}},{"type":"Feature","geometry":{"type":"Point","coordinates":[14.651499,50.2681]},"properties":{"KOBL_ID":"PK210353","NAZ_KOBL":"jezero Konětopy","NAZ_OBEC":"Konětopy","RZH_URL":"https://mze.gov.cz/public/portal/mze/-q356773---sJSiOcCl/jezero-konetopy?_linka=a627464"}},{"type":"Feature","geometry":{"type":"Point","coordinates":[14.943299,50.4856]},"properties":{"KOBL_ID":"PK211551","NAZ_KOBL":"písník Bakov n.Jizerou","NAZ_OBEC":"Bakov nad Jizerou","RZH_URL":"https://mze.gov.cz/public/portal/mze/-q356783---wo6qIV84/pisnik-bakov-nad-jizerou?_linka=a627478"}},{"type":"Feature","geometry":{"type":"Point","coordinates":[15.118899,50.1368]},"properties":{"KOBL_ID":"PK211951","NAZ_KOBL":"jezero Poděbrady","NAZ_OBEC":"Poděbrady","RZH_URL":"https://mze.gov.cz/public/portal/mze/-q356777---iQvwZvFa/jezero-podebrady?_linka=a627466"}},{"type":"Feature","geometry":{"type":"Point","coordinates":[14.003999,49.6746]},"properties":{"KOBL_ID":"PK212051","NAZ_KOBL":"Příbram - Nový rybník","NAZ_OBEC":"Příbram","NAZ_TOK":"Příbramský potok","RZH_URL":"https://mze.gov.cz/public/portal/mze/-q356815---eDgwOgpu/novy-rybnik?_linka=a281119"}},{"type":"Feature","geometry":{"type":"Point","coordinates":[12.861399,49.4039]},"properties":{"KOBL_ID":"KO320201","NAZ_KOBL":"rybník Babylon","NAZ_OBEC":"Babylon","NAZ_TOK":"Bystřice","RZH_URL":"https://mze.gov.cz/public/portal/mze/-q356809---LrC81s9w/babylon?_linka=a550442"}},{"type":"Feature","geometry":{"type":"Point","coordinates":[12.439399,50.0663]},"properties":{"KOBL_ID":"PK410251","NAZ_KOBL":"koupaliště Jesenice - Dřenice","NAZ_OBEC":"Cheb","NAZ_TOK":"Odrava","RZH_URL":"https://mze.gov.cz/public/portal/mze/-q356977---snjN8vCx/vn-jesenice?_linka=a281269"}},{"type":"Feature","geometry":{"type":"Point","coordinates":[12.845299,50.2367]},"properties":{"KOBL_ID":"PK410351","NAZ_KOBL":"koupaliště Rolava - Karlovy Vary","NAZ_OBEC":"Karlovy Vary","NAZ_TOK":"Rolava","RZH_URL":"https://mze.gov.cz/public/portal/mze/-q356989---2Ab6Kjk-/koupaliste-rolava-karlovy-vary?_linka=a642794"}},{"type":"Feature","geometry":{"type":"Point","coordinates":[12.690699,49.9415]},"properties":{"KOBL_ID":"PK410551","NAZ_KOBL":"Lido Hamrníky Mariánské Lázně","NAZ_OBEC":"Mariánské Lázně","NAZ_TOK":"přítok Kosového potoka","RZH_URL":"https://mze.gov.cz/public/portal/mze/-q356819---u9s7b9eW/lido?_linka=a550444"}},{"type":"Feature","geometry":{"type":"Point","coordinates":[12.688599,50.1649]},"properties":{"KOBL_ID":"PK410751","NAZ_KOBL":"jezero Michal Sokolov","NAZ_OBEC":"Sokolov","NAZ_TOK":"Povodí Lob","RZH_URL":"https://mze.gov.cz/public/portal/mze/-q356995---55oxQ6IN/vn-michal-koupaliste-na-levem-brehu?_linka=a281285"}},{"type":"Feature","geometry":{"type":"Point","coordinates":[13.424799,50.4724]},"properties":{"KOBL_ID":"PK420351","NAZ_KOBL":"Kamencové jezero","NAZ_OBEC":"Chomutov","RZH_URL":"https://mze.gov.cz/public/portal/mze/-q356991---3GkO55E4/kamencove-jezero?_linka=a281281"}},{"type":"Feature","geometry":{"type":"Point","coordinates":[14.334999,50.5913]},"properties":{"KOBL_ID":"PK420551","NAZ_KOBL":"rybník Chmelař","NAZ_OBEC":"Úštěk","NAZ_TOK":"Červený potok","RZH_URL":"https://mze.gov.cz/public/portal/mze/-q356981---t5LlV_AN/rybnik-chmelar?_linka=a642796"}},{"type":"Feature","geometry":{"type":"Point","coordinates":[14.653699,50.5888]},"properties":{"KOBL_ID":"PK510151","NAZ_KOBL":"Máchovo jezero - Borný","NAZ_OBEC":"Doksy","NAZ_TOK":"Robečský potok","RZH_URL":"https://mze.gov.cz/public/portal/mze/-q357005---whi4noro/machovo-jezero?_linka=a281295"}},{"type":"Feature","geometry":{"type":"Point","coordinates":[14.646799,50.5755]},"properties":{"KOBL_ID":"PK510152","NAZ_KOBL":"Máchovo jezero - Doksy","NAZ_OBEC":"Doksy","NAZ_TOK":"Robečský potok","RZH_URL":"https://mze.gov.cz/public/portal/mze/-q357005---whi4noro/machovo-jezero?_linka=a281295"}},{"type":"Feature","geometry":{"type":"Point","coordinates":[14.653999,50.5791]},"properties":{"KOBL_ID":"PK510153","NAZ_KOBL":"Máchovo jezero - Klůček","NAZ_OBEC":"Doksy","NAZ_TOK":"Robečský potok","RZH_URL":"https://mze.gov.cz/public/portal/mze/-q357005---whi4noro/machovo-jezero?_linka=a281295"}},{"type":"Feature","geometry":{"type":"Point","coordinates":[14.641799,50.5839]},"properties":{"KOBL_ID":"PK510154","NAZ_KOBL":"Máchovo jezero - pláž Staré Splavy","NAZ_OBEC":"Doksy","NAZ_TOK":"Robečský potok","RZH_URL":"https://mze.gov.cz/public/portal/mze/-q357005---whi4noro/machovo-jezero?_linka=a281295"}},{"type":"Feature","geometry":{"type":"Point","coordinates":[14.642699,50.5775]},"properties":{"KOBL_ID":"PK510161","NAZ_KOBL":"Máchovo jezero - pláž Hotelu Port","NAZ_OBEC":"Doksy","NAZ_TOK":"Robečský potok","RZH_URL":"https://mze.gov.cz/public/portal/mze/-q357005---whi4noro/machovo-jezero?_linka=a281295"}},{"type":"Feature","geometry":{"type":"Point","coordinates":[15.2452,50.9258]},"properties":{"KOBL_ID":"PK510253","NAZ_KOBL":"koupaliště Nové Město pod Smrkem","NAZ_OBEC":"Nové Město pod Smrkem","NAZ_TOK":"přítok Lomnice","RZH_URL":"https://mze.gov.cz/public/portal/mze/-q356757---HN1Q1m2P/koupaliste-nove-mesto-pod-smrkem?_linka=a627470"}},{"type":"Feature","geometry":{"type":"Point","coordinates":[14.8239,50.8581]},"properties":{"KOBL_ID":"PK510551","NAZ_KOBL":"koupaliště Kristýna","NAZ_OBEC":"Hrádek nad Nisou","NAZ_TOK":"Lužická Nisa","RZH_URL":"https://mze.gov.cz/public/portal/mze/-q356751---88yBULdf/koupaliste-kristyna?_linka=a627468"}},{"type":"Feature","geometry":{"type":"Point","coordinates":[15.189899,50.5592]},"properties":{"KOBL_ID":"PK510953","NAZ_KOBL":"koupaliště Sedmihorky","NAZ_OBEC":"Karlovice","RZH_URL":"https://mze.gov.cz/public/portal/mze/-q356785---OzujJh8x/koupaliste-sedmihorky?_linka=a627472"}},{"type":"Feature","geometry":{"type":"Point","coordinates":[15.642099,50.3826]},"properties":{"KOBL_ID":"PK520451","NAZ_KOBL":"Dachova u Hořic","NAZ_OBEC":"Hořice","NAZ_TOK":"přítok Bystřice","RZH_URL":"https://mze.gov.cz/public/portal/mze/-q356753---v_8kwRKa/dachovy-u-horic?_linka=a627462"}},{"type":"Feature","geometry":{"type":"Point","coordinates":[16.757804,49.482196]},"properties":{"KOBL_ID":"PK620251","NAZ_KOBL":"Suchý rybník","NAZ_OBEC":"Velenov","NAZ_TOK":"Žďárná","RZH_URL":"https://mze.gov.cz/public/portal/mze/-q356943---LYahoseK/suchy-rybnik?_linka=a281237"}},{"type":"Feature","geometry":{"type":"Point","coordinates":[16.573399,48.8996]},"properties":{"KOBL_ID":"PK621351","NAZ_KOBL":"VN Nové Mlýny - horní nádrž - laguna 1","NAZ_OBEC":"Pasohlávky","NAZ_TOK":"Dyje","RZH_URL":"https://mze.gov.cz/public/portal/mze/-q356951---pfOYvp_-/vn-nove-mlyny-horni-nadrz?_linka=a281245"}},{"type":"Feature","geometry":{"type":"Point","coordinates":[16.564899,48.896]},"properties":{"KOBL_ID":"PK621352","NAZ_KOBL":"VN Nové Mlýny - horní nádrž - laguna 2","NAZ_OBEC":"Pasohlávky","NAZ_TOK":"Dyje","RZH_URL":"https://mze.gov.cz/public/portal/mze/-q356951---pfOYvp_-/vn-nove-mlyny-horni-nadrz?_linka=a281245"}},{"type":"Feature","geometry":{"type":"Point","coordinates":[16.922907,49.257896]},"properties":{"KOBL_ID":"PK621951","NAZ_KOBL":"koupaliště Luleč","NAZ_OBEC":"Luleč","NAZ_TOK":"přítok Lulečského potoka","RZH_URL":"https://mze.gov.cz/public/portal/mze/-q356915---cagS04hc/koupaliste-lulec?_linka=a281213"}},{"type":"Feature","geometry":{"type":"Point","coordinates":[17.433111,49.011597]},"properties":{"KOBL_ID":"PK720751","NAZ_KOBL":"přírodní koupaliště Albatros","NAZ_OBEC":"Ostrožská Nová Ves","RZH_URL":"https://mze.gov.cz/public/portal/mze/-q356925---vLUMxm80/koupaliste-kamen?_linka=a281221"}},{"type":"Feature","geometry":{"type":"Point","coordinates":[18.171099,49.8943]},"properties":{"KOBL_ID":"PK810951","NAZ_KOBL":"štěrkovna Hlučín","NAZ_OBEC":"Hlučín","RZH_URL":"https://mze.gov.cz/public/portal/mze/-q356873---hbrmSHT_/sterkovna-hlucin?_linka=a549396"}},{"type":"Feature","geometry":{"type":"Point","coordinates":[13.6465,50.527]},"properties":{"KOBL_ID":"KO420903","NAZ_KOBL":"Jezero Most – pláž levá část","NAZ_OBEC":"Most","RZH_URL":"https://mze.gov.cz/public/portal/mze/-a41336---KFzieHzZ/jezero-most?_linka=a642792"}},{"type":"Feature","geometry":{"type":"Point","coordinates":[13.649257,50.528355]},"properties":{"KOBL_ID":"KO420904","NAZ_KOBL":"Jezero Most – pláž pravá část","NAZ_OBEC":"Most","RZH_URL":"https://mze.gov.cz/public/portal/mze/-a41336---KFzieHzZ/jezero-most?_linka=a642792"}},{"type":"Feature","geometry":{"type":"Point","coordinates":[14.3325,50.094592]},"properties":{"KOBL_ID":"KO106001","NAZ_KOBL":"koupaliště Džbán","NAZ_OBEC":"Praha","NAZ_TOK":"Litovický potok","RZH_URL":"https://mze.gov.cz/public/portal/mze/-q356849---IPHKaBkC/koupaliste-dzban?_linka=a582536"}},{"type":"Feature","geometry":{"type":"Point","coordinates":[14.957152,48.976055]},"properties":{"KOBL_ID":"KO311403","NAZ_KOBL":"Staňkovský rybník – jižní břeh","NAZ_OBEC":"Staňkov","NAZ_TOK":"Koštěnický potok","RZH_URL":"https://mze.gov.cz/public/portal/mze/-q356791---gVTnpI8S/stankovsky-rybnik?_linka=a582552"}},{"type":"Feature","geometry":{"type":"Point","coordinates":[15.194183,49.515861]},"properties":{"KOBL_ID":"KO610304","NAZ_KOBL":"VN Trnávka – městská pláž Červená Řečice","NAZ_OBEC":"Červená Řečice","NAZ_TOK":"Trnava","RZH_URL":"https://mze.gov.cz/public/portal/mze/-q356855---KxVyIt9e/vn-trnavka?_linka=a582574"}},{"type":"Feature","geometry":{"type":"Point","coordinates":[15.619481,50.043883]},"properties":{"KOBL_ID":"KO531103","NAZ_KOBL":"písník Mělice","NAZ_OBEC":"Přelouč","RZH_URL":"https://mze.gov.cz/public/portal/mze/-q356781---_71HwChy/pisnik-melice?_linka=a627486"}}]}