{"type": "FeatureCollection", "features": [{"type": "Feature", "geometry": {"type": "Point", "coordinates": [13.946041, 49.9734088]}, "properties": {"barrier": "lift_gate", "ref:zabaged": "7909755804712960", "zabaged_typ": "Závora, brána", "in_osm_30m": false}}, {"type": "Feature", "geometry": {"type": "Point", "coordinates": [13.9445241, 49.9599982]}, "properties": {"barrier": "lift_gate", "ref:zabaged": "7909762297495552", "zabaged_typ": "Závora, brána", "in_osm_30m": true}}, {"type": "Feature", "geometry": {"type": "Point", "coordinates": [13.8763351, 50.1000781]}, "properties": {"barrier": "lift_gate", "ref:zabaged": "7945739745361920", "zabaged_typ": "Závora, brána", "in_osm_30m": false}}, {"type": "Feature", "geometry": {"type": "Point", "coordinates": [13.935106, 50.0602732]}, "properties": {"barrier": "lift_gate", "ref:zabaged": "7945740450004992", "zabaged_typ": "Závora, brána", "in_osm_30m": false}}, {"type": "Feature", "geometry": {"type": "Point", "coordinates": [13.8703807, 50.0906874]}, "properties": {"barrier": "lift_gate", "ref:zabaged": "7945739695030272", "zabaged_typ": "Závora, brána", "in_osm_30m": true}}, {"type": "Feature", "geometry": {"type": "Point", "coordinates": [13.9164213, 49.9630808]}, "properties": {"barrier": "lift_gate", "ref:zabaged": "7909752633819136", "zabaged_typ": "Závora, brána", "in_osm_30m": false}}, {"type": "Feature", "geometry": {"type": "Point", "coordinates": [14.0135687, 50.1218828]}, "properties": {"barrier": "lift_gate", "ref:zabaged": "33237424523968512", "zabaged_typ": "Závora, brána", "in_osm_30m": false}}, {"type": "Feature", "geometry": {"type": "Point", "coordinates": [13.9862345, 50.1176687]}, "properties": {"barrier": "lift_gate", "ref:zabaged": "33237474721398784", "zabaged_typ": "Závora, brána", "in_osm_30m": false}}, {"type": "Feature", "geometry": {"type": "Point", "coordinates": [14.0071332, 50.0147799]}, "properties": {"barrier": "lift_gate", "ref:zabaged": "7687857913200640", "zabaged_typ": "Závora, brána", "in_osm_30m": false}}, {"type": "Feature", "geometry": {"type": "Point", "coordinates": [13.9231245, 49.9556191]}, "properties": {"barrier": "lift_gate", "ref:zabaged": "7909757213999104", "zabaged_typ": "Závora, brána", "in_osm_30m": true}}, {"type": "Feature", "geometry": {"type": "Point", "coordinates": [13.8598704, 49.9918632]}, "properties": {"barrier": "lift_gate", "ref:zabaged": "7909727719653376", "zabaged_typ": "Závora, brána", "in_osm_30m": false}}, {"type": "Feature", "geometry": {"type": "Point", "coordinates": [13.9665184, 50.1055605]}, "properties": {"barrier": "lift_gate", "ref:zabaged": "7945738738728960", "zabaged_typ": "Závora, brána", "in_osm_30m": false}}, {"type": "Feature", "geometry": {"type": "Point", "coordinates": [13.8907103, 50.1102396]}, "properties": {"barrier": "lift_gate", "ref:zabaged": "7945740097683456", "zabaged_typ": "Závora, brána", "in_osm_30m": false}}, {"type": "Feature", "geometry": {"type": "Point", "coordinates": [13.9627295, 50.0637941]}, "properties": {"barrier": "lift_gate", "ref:zabaged": "7945740299010048", "zabaged_typ": "Závora, brána", "in_osm_30m": false}}, {"type": "Feature", "geometry": {"type": "Point", "coordinates": [13.8292287, 49.9603027]}, "properties": {"barrier": "lift_gate", "ref:zabaged": "7909657674776576", "zabaged_typ": "Závora, brána", "in_osm_30m": false}}, {"type": "Feature", "geometry": {"type": "Point", "coordinates": [13.9787518, 50.0222685]}, "properties": {"barrier": "lift_gate", "ref:zabaged": "7909765619384320", "zabaged_typ": "Závora, brána", "in_osm_30m": false}}, {"type": "Feature", "geometry": {"type": "Point", "coordinates": [13.9579411, 49.9917852]}, "properties": {"barrier": "lift_gate", "ref:zabaged": "7909758119968768", "zabaged_typ": "Závora, brána", "in_osm_30m": false}}, {"type": "Feature", "geometry": {"type": "Point", "coordinates": [14.0672942, 50.0014601]}, "properties": {"barrier": "lift_gate", "ref:zabaged": "7661879618961408", "zabaged_typ": "Závora, brána", "in_osm_30m": false}}, {"type": "Feature", "geometry": {"type": "Point", "coordinates": [13.9661973, 50.0633326]}, "properties": {"barrier": "lift_gate", "ref:zabaged": "7945739242045440", "zabaged_typ": "Závora, brána", "in_osm_30m": false}}, {"type": "Feature", "geometry": {"type": "Point", "coordinates": [13.9325234, 50.0642417]}, "properties": {"barrier": "lift_gate", "ref:zabaged": "7948960249413632", "zabaged_typ": "Závora, brána", "in_osm_30m": false}}, {"type": "Feature", "geometry": {"type": "Point", "coordinates": [14.0179585, 50.0198578]}, "properties": {"barrier": "lift_gate", "ref:zabaged": "7687892642037760", "zabaged_typ": "Závora, brána", "in_osm_30m": false}}, {"type": "Feature", "geometry": {"type": "Point", "coordinates": [13.966883, 50.0632549]}, "properties": {"barrier": "lift_gate", "ref:zabaged": "7945739292377088", "zabaged_typ": "Závora, brána", "in_osm_30m": false}}, {"type": "Feature", "geometry": {"type": "Point", "coordinates": [14.0079417, 50.0521031]}, "properties": {"barrier": "lift_gate", "ref:zabaged": "7933759672287232", "zabaged_typ": "Závora, brána", "in_osm_30m": false}}, {"type": "Feature", "geometry": {"type": "Point", "coordinates": [13.8315212, 49.9799505]}, "properties": {"barrier": "lift_gate", "ref:zabaged": "7909651433652224", "zabaged_typ": "Závora, brána", "in_osm_30m": false}}, {"type": "Feature", "geometry": {"type": "Point", "coordinates": [14.0084865, 50.0165897]}, "properties": {"barrier": "lift_gate", "ref:zabaged": "7687853735673856", "zabaged_typ": "Závora, brána", "in_osm_30m": false}}, {"type": "Feature", "geometry": {"type": "Point", "coordinates": [13.815073, 50.0835547]}, "properties": {"barrier": "lift_gate", "ref:zabaged": "7945737178447872", "zabaged_typ": "Závora, brána", "in_osm_30m": false}}, {"type": "Feature", "geometry": {"type": "Point", "coordinates": [13.9572541, 50.0504005]}, "properties": {"barrier": "lift_gate", "ref:zabaged": "7948959494438912", "zabaged_typ": "Závora, brána", "in_osm_30m": true}}, {"type": "Feature", "geometry": {"type": "Point", "coordinates": [13.9748294, 50.0887086]}, "properties": {"barrier": "lift_gate", "ref:zabaged": "7945739091050496", "zabaged_typ": "Závora, brána", "in_osm_30m": true}}, {"type": "Feature", "geometry": {"type": "Point", "coordinates": [13.8833127, 50.1046617]}, "properties": {"barrier": "lift_gate", "ref:zabaged": "7945739997020160", "zabaged_typ": "Závora, brána", "in_osm_30m": false}}, {"type": "Feature", "geometry": {"type": "Point", "coordinates": [13.9338621, 50.0584538]}, "properties": {"barrier": "lift_gate", "ref:zabaged": "7945740349341696", "zabaged_typ": "Závora, brána", "in_osm_30m": false}}, {"type": "Feature", "geometry": {"type": "Point", "coordinates": [14.007093, 50.0158754]}, "properties": {"barrier": "lift_gate", "ref:zabaged": "7687854993965056", "zabaged_typ": "Závora, brána", "in_osm_30m": false}}, {"type": "Feature", "geometry": {"type": "Point", "coordinates": [13.9819057, 50.0269917]}, "properties": {"barrier": "lift_gate", "ref:zabaged": "7909766122700800", "zabaged_typ": "Závora, brána", "in_osm_30m": false}}, {"type": "Feature", "geometry": {"type": "Point", "coordinates": [13.9822731, 50.0265817]}, "properties": {"barrier": "lift_gate", "ref:zabaged": "7909766525353984", "zabaged_typ": "Závora, brána", "in_osm_30m": false}}, {"type": "Feature", "geometry": {"type": "Point", "coordinates": [13.9078208, 50.0137901]}, "properties": {"barrier": "lift_gate", "ref:zabaged": "7909725907714048", "zabaged_typ": "Závora, brána", "in_osm_30m": true}}, {"type": "Feature", "geometry": {"type": "Point", "coordinates": [13.9586585, 50.1081905]}, "properties": {"barrier": "lift_gate", "ref:zabaged": "7945738889723904", "zabaged_typ": "Závora, brána", "in_osm_30m": false}}, {"type": "Feature", "geometry": {"type": "Point", "coordinates": [13.924851, 49.994725]}, "properties": {"barrier": "lift_gate", "ref:zabaged": "35292551980253184", "zabaged_typ": "Závora, brána", "in_osm_30m": false}}, {"type": "Feature", "geometry": {"type": "Point", "coordinates": [13.9208805, 49.9945523]}, "properties": {"barrier": "lift_gate", "ref:zabaged": "35292551426605056", "zabaged_typ": "Závora, brána", "in_osm_30m": false}}, {"type": "Feature", "geometry": {"type": "Point", "coordinates": [13.9631362, 49.9778921]}, "properties": {"barrier": "lift_gate", "ref:zabaged": "35244571860402176", "zabaged_typ": "Závora, brána", "in_osm_30m": false}}, {"type": "Feature", "geometry": {"type": "Point", "coordinates": [13.9571723, 49.9796387]}, "properties": {"barrier": "lift_gate", "ref:zabaged": "35292645345460224", "zabaged_typ": "Závora, brána", "in_osm_30m": false}}, {"type": "Feature", "geometry": {"type": "Point", "coordinates": [13.9308548, 49.9933995]}, "properties": {"barrier": "lift_gate", "ref:zabaged": "35244940288065536", "zabaged_typ": "Závora, brána", "in_osm_30m": false}}, {"type": "Feature", "geometry": {"type": "Point", "coordinates": [14.0335911, 50.0398785]}, "properties": {"barrier": "lift_gate", "ref:zabaged": "7687842645934080", "zabaged_typ": "Závora, brána", "in_osm_30m": false}}, {"type": "Feature", "geometry": {"type": "Point", "coordinates": [13.773619, 49.9401511]}, "properties": {"barrier": "lift_gate", "ref:zabaged": "34947266254995456", "zabaged_typ": "Závora, brána", "in_osm_30m": false}}, {"type": "Feature", "geometry": {"type": "Point", "coordinates": [13.7649415, 49.9454285]}, "properties": {"barrier": "lift_gate", "ref:zabaged": "34947266607316992", "zabaged_typ": "Závora, brána", "in_osm_30m": false}}, {"type": "Feature", "geometry": {"type": "Point", "coordinates": [13.7741356, 49.9405215]}, "properties": {"barrier": "lift_gate", "ref:zabaged": "34947266355658752", "zabaged_typ": "Závora, brána", "in_osm_30m": false}}, {"type": "Feature", "geometry": {"type": "Point", "coordinates": [13.7848342, 49.941314]}, "properties": {"barrier": "lift_gate", "ref:zabaged": "34947266506653696", "zabaged_typ": "Závora, brána", "in_osm_30m": false}}, {"type": "Feature", "geometry": {"type": "Point", "coordinates": [13.8785888, 50.0846775]}, "properties": {"barrier": "lift_gate", "ref:zabaged": "7945736926789632", "zabaged_typ": "Závora, brána", "in_osm_30m": false}}, {"type": "Feature", "geometry": {"type": "Point", "coordinates": [14.0145043, 50.0183101]}, "properties": {"barrier": "lift_gate", "ref:zabaged": "7687894705635328", "zabaged_typ": "Závora, brána", "in_osm_30m": false}}, {"type": "Feature", "geometry": {"type": "Point", "coordinates": [13.9352246, 50.0608978]}, "properties": {"barrier": "lift_gate", "ref:zabaged": "35198159135178752", "zabaged_typ": "Závora, brána", "in_osm_30m": true}}, {"type": "Feature", "geometry": {"type": "Point", "coordinates": [14.0596781, 50.0410236]}, "properties": {"barrier": "lift_gate", "ref:zabaged": "7683274092576768", "zabaged_typ": "Závora, brána", "in_osm_30m": false}}, {"type": "Feature", "geometry": {"type": "Point", "coordinates": [13.9754009, 50.0414755]}, "properties": {"barrier": "lift_gate", "ref:zabaged": "7909763606118400", "zabaged_typ": "Závora, brána", "in_osm_30m": false}}, {"type": "Feature", "geometry": {"type": "Point", "coordinates": [13.9094751, 50.0140666]}, "properties": {"barrier": "lift_gate", "ref:zabaged": "35361467398094848", "zabaged_typ": "Závora, brána", "in_osm_30m": false}}, {"type": "Feature", "geometry": {"type": "Point", "coordinates": [13.9056731, 49.9975505]}, "properties": {"barrier": "lift_gate", "ref:zabaged": "35198350059896832", "zabaged_typ": "Závora, brána", "in_osm_30m": false}}, {"type": "Feature", "geometry": {"type": "Point", "coordinates": [13.9033175, 50.0176582]}, "properties": {"barrier": "lift_gate", "ref:zabaged": "35361633895186432", "zabaged_typ": "Závora, brána", "in_osm_30m": true}}, {"type": "Feature", "geometry": {"type": "Point", "coordinates": [13.8674874, 50.0273159]}, "properties": {"barrier": "lift_gate", "ref:zabaged": "35361650471075840", "zabaged_typ": "Závora, brána", "in_osm_30m": false}}, {"type": "Feature", "geometry": {"type": "Point", "coordinates": [13.912096, 49.996785]}, "properties": {"barrier": "lift_gate", "ref:zabaged": "35361662886215680", "zabaged_typ": "Závora, brána", "in_osm_30m": false}}, {"type": "Feature", "geometry": {"type": "Point", "coordinates": [13.9130541, 49.9948794]}, "properties": {"barrier": "lift_gate", "ref:zabaged": "8339084275613696", "zabaged_typ": "Závora, brána", "in_osm_30m": false}}, {"type": "Feature", "geometry": {"type": "Point", "coordinates": [13.9348929, 50.0648288]}, "properties": {"barrier": "lift_gate", "ref:zabaged": "7945739393040384", "zabaged_typ": "Závora, brána", "in_osm_30m": true}}, {"type": "Feature", "geometry": {"type": "Point", "coordinates": [13.8873014, 50.0792643]}, "properties": {"barrier": "lift_gate", "ref:zabaged": "7945739544035328", "zabaged_typ": "Závora, brána", "in_osm_30m": false}}, {"type": "Feature", "geometry": {"type": "Point", "coordinates": [13.9788605, 50.0946234]}, "properties": {"barrier": "lift_gate", "ref:zabaged": "7945738638065664", "zabaged_typ": "Závora, brána", "in_osm_30m": false}}, {"type": "Feature", "geometry": {"type": "Point", "coordinates": [13.908808, 49.9669981]}, "properties": {"barrier": "lift_gate", "ref:zabaged": "7909752432492544", "zabaged_typ": "Závora, brána", "in_osm_30m": true}}, {"type": "Feature", "geometry": {"type": "Point", "coordinates": [13.8486072, 50.092477]}, "properties": {"barrier": "lift_gate", "ref:zabaged": "7945736373141504", "zabaged_typ": "Závora, brána", "in_osm_30m": false}}, {"type": "Feature", "geometry": {"type": "Point", "coordinates": [13.861023, 50.0920477]}, "properties": {"barrier": "lift_gate", "ref:zabaged": "7945736775794688", "zabaged_typ": "Závora, brána", "in_osm_30m": true}}, {"type": "Feature", "geometry": {"type": "Point", "coordinates": [13.8525746, 49.9755128]}, "properties": {"barrier": "lift_gate", "ref:zabaged": "7909652289290240", "zabaged_typ": "Závora, brána", "in_osm_30m": false}}, {"type": "Feature", "geometry": {"type": "Point", "coordinates": [13.9377108, 49.9406642]}, "properties": {"barrier": "lift_gate", "ref:zabaged": "7909759428591616", "zabaged_typ": "Závora, brána", "in_osm_30m": false}}, {"type": "Feature", "geometry": {"type": "Point", "coordinates": [14.0411172, 50.0834602]}, "properties": {"barrier": "lift_gate", "ref:zabaged": "34602532802134016", "zabaged_typ": "Závora, brána", "in_osm_30m": false}}, {"type": "Feature", "geometry": {"type": "Point", "coordinates": [14.0458799, 50.1030652]}, "properties": {"barrier": "bar", "motor_vehicle": "no", "ref:zabaged": "35523244958154752", "zabaged_typ": "Trvalá zábrana", "in_osm_30m": false}}, {"type": "Feature", "geometry": {"type": "Point", "coordinates": [14.0468263, 50.085053]}, "properties": {"barrier": "lift_gate", "ref:zabaged": "35523159998332928", "zabaged_typ": "Závora, brána", "in_osm_30m": true}}, {"type": "Feature", "geometry": {"type": "Point", "coordinates": [14.0426611, 50.084555]}, "properties": {"barrier": "lift_gate", "ref:zabaged": "34602529497022464", "zabaged_typ": "Závora, brána", "in_osm_30m": true}}, {"type": "Feature", "geometry": {"type": "Point", "coordinates": [13.9115844, 49.9433271]}, "properties": {"barrier": "lift_gate", "ref:zabaged": "35292807530807296", "zabaged_typ": "Závora, brána", "in_osm_30m": false}}, {"type": "Feature", "geometry": {"type": "Point", "coordinates": [13.8574149, 49.9468547]}, "properties": {"barrier": "lift_gate", "ref:zabaged": "35546941450354688", "zabaged_typ": "Závora, brána", "in_osm_30m": false}}, {"type": "Feature", "geometry": {"type": "Point", "coordinates": [13.8853883, 49.9367867]}, "properties": {"barrier": "lift_gate", "ref:zabaged": "35292799813287936", "zabaged_typ": "Závora, brána", "in_osm_30m": false}}, {"type": "Feature", "geometry": {"type": "Point", "coordinates": [13.9194704, 49.9462033]}, "properties": {"barrier": "lift_gate", "ref:zabaged": "35292808503885824", "zabaged_typ": "Závora, brána", "in_osm_30m": false}}, {"type": "Feature", "geometry": {"type": "Point", "coordinates": [13.9034363, 49.9393969]}, "properties": {"barrier": "lift_gate", "ref:zabaged": "35292799209308160", "zabaged_typ": "Závora, brána", "in_osm_30m": false}}, {"type": "Feature", "geometry": {"type": "Point", "coordinates": [13.9118325, 49.9422231]}, "properties": {"barrier": "lift_gate", "ref:zabaged": "7909738037641216", "zabaged_typ": "Závora, brána", "in_osm_30m": false}}, {"type": "Feature", "geometry": {"type": "Point", "coordinates": [14.068695, 49.9668399]}, "properties": {"barrier": "lift_gate", "ref:zabaged": "7705034947035136", "zabaged_typ": "Závora, brána", "in_osm_30m": false}}, {"type": "Feature", "geometry": {"type": "Point", "coordinates": [14.017236, 49.9993826]}, "properties": {"barrier": "lift_gate", "ref:zabaged": "7687777567113216", "zabaged_typ": "Závora, brána", "in_osm_30m": false}}, {"type": "Feature", "geometry": {"type": "Point", "coordinates": [13.83828, 49.9645437]}, "properties": {"barrier": "lift_gate", "ref:zabaged": "35244902052790272", "zabaged_typ": "Závora, brána", "in_osm_30m": false}}, {"type": "Feature", "geometry": {"type": "Point", "coordinates": [13.795114, 49.9394535]}, "properties": {"barrier": "lift_gate", "ref:zabaged": "7909729531592704", "zabaged_typ": "Závora, brána", "in_osm_30m": false}}, {"type": "Feature", "geometry": {"type": "Point", "coordinates": [13.8010739, 50.0566542]}, "properties": {"barrier": "lift_gate", "ref:zabaged": "35384515232792576", "zabaged_typ": "Závora, brána", "in_osm_30m": false}}, {"type": "Feature", "geometry": {"type": "Point", "coordinates": [13.7929619, 50.0381049]}, "properties": {"barrier": "lift_gate", "ref:zabaged": "35384526540636160", "zabaged_typ": "Závora, brána", "in_osm_30m": false}}, {"type": "Feature", "geometry": {"type": "Point", "coordinates": [13.8159005, 50.0291848]}, "properties": {"barrier": "lift_gate", "ref:zabaged": "35384536707629056", "zabaged_typ": "Závora, brána", "in_osm_30m": false}}, {"type": "Feature", "geometry": {"type": "Point", "coordinates": [13.8271809, 50.0335673]}, "properties": {"barrier": "lift_gate", "ref:zabaged": "35384546069315584", "zabaged_typ": "Závora, brána", "in_osm_30m": false}}, {"type": "Feature", "geometry": {"type": "Point", "coordinates": [13.9786328, 50.095277]}, "properties": {"barrier": "lift_gate", "ref:zabaged": "7945738688397312", "zabaged_typ": "Závora, brána", "in_osm_30m": true}}, {"type": "Feature", "geometry": {"type": "Point", "coordinates": [13.9997135, 50.0502824]}, "properties": {"barrier": "lift_gate", "ref:zabaged": "7933758967644160", "zabaged_typ": "Závora, brána", "in_osm_30m": false}}, {"type": "Feature", "geometry": {"type": "Point", "coordinates": [13.8548229, 49.9777746]}, "properties": {"barrier": "lift_gate", "ref:zabaged": "7909652792606720", "zabaged_typ": "Závora, brána", "in_osm_30m": false}}, {"type": "Feature", "geometry": {"type": "Point", "coordinates": [14.0036673, 50.0096897]}, "properties": {"barrier": "lift_gate", "ref:zabaged": "7687776157827072", "zabaged_typ": "Závora, brána", "in_osm_30m": false}}, {"type": "Feature", "geometry": {"type": "Point", "coordinates": [13.965726, 50.09523]}, "properties": {"barrier": "lift_gate", "ref:zabaged": "7945739443372032", "zabaged_typ": "Závora, brána", "in_osm_30m": true}}, {"type": "Feature", "geometry": {"type": "Point", "coordinates": [14.0224792, 50.0004819]}, "properties": {"barrier": "lift_gate", "ref:zabaged": "7722404650418176", "zabaged_typ": "Závora, brána", "in_osm_30m": false}}, {"type": "Feature", "geometry": {"type": "Point", "coordinates": [13.8926948, 50.0060398]}, "properties": {"barrier": "lift_gate", "ref:zabaged": "7909725203070976", "zabaged_typ": "Závora, brána", "in_osm_30m": false}}, {"type": "Feature", "geometry": {"type": "Point", "coordinates": [13.9676766, 50.0682769]}, "properties": {"barrier": "lift_gate", "ref:zabaged": "7945739191713792", "zabaged_typ": "Závora, brána", "in_osm_30m": false}}, {"type": "Feature", "geometry": {"type": "Point", "coordinates": [13.9261916, 50.1125053]}, "properties": {"barrier": "lift_gate", "ref:zabaged": "7945740198346752", "zabaged_typ": "Závora, brána", "in_osm_30m": false}}, {"type": "Feature", "geometry": {"type": "Point", "coordinates": [14.0680233, 50.0005288]}, "properties": {"barrier": "lift_gate", "ref:zabaged": "7661803483955200", "zabaged_typ": "Závora, brána", "in_osm_30m": false}}, {"type": "Feature", "geometry": {"type": "Point", "coordinates": [13.9804399, 50.0216046]}, "properties": {"barrier": "lift_gate", "ref:zabaged": "35547160644681728", "zabaged_typ": "Závora, brána", "in_osm_30m": false}}, {"type": "Feature", "geometry": {"type": "Point", "coordinates": [13.9833378, 50.0181845]}, "properties": {"barrier": "lift_gate", "ref:zabaged": "35547160795676672", "zabaged_typ": "Závora, brána", "in_osm_30m": true}}, {"type": "Feature", "geometry": {"type": "Point", "coordinates": [13.9654163, 50.1053048]}, "properties": {"barrier": "lift_gate", "ref:zabaged": "7945738789060608", "zabaged_typ": "Závora, brána", "in_osm_30m": false}}, {"type": "Feature", "geometry": {"type": "Point", "coordinates": [13.974441, 50.0884022]}, "properties": {"barrier": "lift_gate", "ref:zabaged": "7945739141382144", "zabaged_typ": "Závora, brána", "in_osm_30m": true}}, {"type": "Feature", "geometry": {"type": "Point", "coordinates": [13.8929927, 49.9964573]}, "properties": {"barrier": "lift_gate", "ref:zabaged": "7909649873371136", "zabaged_typ": "Závora, brána", "in_osm_30m": true}}, {"type": "Feature", "geometry": {"type": "Point", "coordinates": [13.8642523, 49.9849846]}, "properties": {"barrier": "bar", "motor_vehicle": "no", "ref:zabaged": "8071859161530368", "zabaged_typ": "Trvalá zábrana", "in_osm_30m": true}}, {"type": "Feature", "geometry": {"type": "Point", "coordinates": [13.9047508, 49.9428745]}, "properties": {"barrier": "lift_gate", "ref:zabaged": "7909737282666496", "zabaged_typ": "Závora, brána", "in_osm_30m": false}}, {"type": "Feature", "geometry": {"type": "Point", "coordinates": [13.7859039, 50.0408582]}, "properties": {"barrier": "lift_gate", "ref:zabaged": "7909649118396416", "zabaged_typ": "Závora, brána", "in_osm_30m": false}}, {"type": "Feature", "geometry": {"type": "Point", "coordinates": [13.8402447, 49.9650633]}, "properties": {"barrier": "lift_gate", "ref:zabaged": "7909723340800000", "zabaged_typ": "Závora, brána", "in_osm_30m": false}}, {"type": "Feature", "geometry": {"type": "Point", "coordinates": [14.0471186, 49.9790067]}, "properties": {"barrier": "lift_gate", "ref:zabaged": "7728106571825152", "zabaged_typ": "Závora, brána", "in_osm_30m": false}}, {"type": "Feature", "geometry": {"type": "Point", "coordinates": [13.8812097, 50.0826892]}, "properties": {"barrier": "lift_gate", "ref:zabaged": "7945737027452928", "zabaged_typ": "Závora, brána", "in_osm_30m": true}}, {"type": "Feature", "geometry": {"type": "Point", "coordinates": [13.934665, 50.1049565]}, "properties": {"barrier": "lift_gate", "ref:zabaged": "7945740248678400", "zabaged_typ": "Závora, brána", "in_osm_30m": false}}, {"type": "Feature", "geometry": {"type": "Point", "coordinates": [13.7506151, 49.9824423]}, "properties": {"barrier": "lift_gate", "ref:zabaged": "35866995299713024", "zabaged_typ": "Závora, brána", "in_osm_30m": true}}, {"type": "Feature", "geometry": {"type": "Point", "coordinates": [13.7532519, 49.9829116]}, "properties": {"barrier": "lift_gate", "ref:zabaged": "35866995249381376", "zabaged_typ": "Závora, brána", "in_osm_30m": true}}, {"type": "Feature", "geometry": {"type": "Point", "coordinates": [13.8948566, 50.0756159]}, "properties": {"barrier": "lift_gate", "ref:zabaged": "7945739493703680", "zabaged_typ": "Závora, brána", "in_osm_30m": false}}, {"type": "Feature", "geometry": {"type": "Point", "coordinates": [14.0286828, 50.0476302]}, "properties": {"barrier": "lift_gate", "ref:zabaged": "7933767238811648", "zabaged_typ": "Závora, brána", "in_osm_30m": false}}, {"type": "Feature", "geometry": {"type": "Point", "coordinates": [13.8564415, 50.0918167]}, "properties": {"barrier": "lift_gate", "ref:zabaged": "7945736624799744", "zabaged_typ": "Závora, brána", "in_osm_30m": false}}, {"type": "Feature", "geometry": {"type": "Point", "coordinates": [14.0804986, 49.9553673]}, "properties": {"barrier": "lift_gate", "ref:zabaged": "7708898622439424", "zabaged_typ": "Závora, brána", "in_osm_30m": false}}, {"type": "Feature", "geometry": {"type": "Point", "coordinates": [13.9656072, 50.0564774]}, "properties": {"barrier": "lift_gate", "ref:zabaged": "7945739342708736", "zabaged_typ": "Závora, brána", "in_osm_30m": false}}, {"type": "Feature", "geometry": {"type": "Point", "coordinates": [13.885234, 50.1043262]}, "properties": {"barrier": "lift_gate", "ref:zabaged": "7945740047351808", "zabaged_typ": "Závora, brána", "in_osm_30m": false}}, {"type": "Feature", "geometry": {"type": "Point", "coordinates": [13.9044959, 49.9687142]}, "properties": {"barrier": "lift_gate", "ref:zabaged": "7909750167568384", "zabaged_typ": "Závora, brána", "in_osm_30m": false}}, {"type": "Feature", "geometry": {"type": "Point", "coordinates": [13.966922, 50.1034495]}, "properties": {"barrier": "lift_gate", "ref:zabaged": "7945738839392256", "zabaged_typ": "Závora, brána", "in_osm_30m": false}}, {"type": "Feature", "geometry": {"type": "Point", "coordinates": [13.8484731, 50.0920135]}, "properties": {"barrier": "lift_gate", "ref:zabaged": "7945736473804800", "zabaged_typ": "Závora, brána", "in_osm_30m": false}}, {"type": "Feature", "geometry": {"type": "Point", "coordinates": [13.8770162, 50.0853757]}, "properties": {"barrier": "lift_gate", "ref:zabaged": "7945736876457984", "zabaged_typ": "Závora, brána", "in_osm_30m": false}}, {"type": "Feature", "geometry": {"type": "Point", "coordinates": [14.0682569, 49.967128]}, "properties": {"barrier": "lift_gate", "ref:zabaged": "7704992064471040", "zabaged_typ": "Závora, brána", "in_osm_30m": false}}, {"type": "Feature", "geometry": {"type": "Point", "coordinates": [13.8981525, 50.0653455]}, "properties": {"barrier": "lift_gate", "ref:zabaged": "35798175713329152", "zabaged_typ": "Závora, brána", "in_osm_30m": true}}, {"type": "Feature", "geometry": {"type": "Point", "coordinates": [13.8521152, 50.0555065]}, "properties": {"barrier": "lift_gate", "ref:zabaged": "35751999144198144", "zabaged_typ": "Závora, brána", "in_osm_30m": false}}, {"type": "Feature", "geometry": {"type": "Point", "coordinates": [13.8815978, 50.048483]}, "properties": {"barrier": "lift_gate", "ref:zabaged": "35798173230301184", "zabaged_typ": "Závora, brána", "in_osm_30m": false}}, {"type": "Feature", "geometry": {"type": "Point", "coordinates": [13.8908293, 50.0523926]}, "properties": {"barrier": "lift_gate", "ref:zabaged": "35798174606032896", "zabaged_typ": "Závora, brána", "in_osm_30m": true}}, {"type": "Feature", "geometry": {"type": "Point", "coordinates": [13.9000062, 50.0630286]}, "properties": {"barrier": "lift_gate", "ref:zabaged": "35798174807359488", "zabaged_typ": "Závora, brána", "in_osm_30m": false}}, {"type": "Feature", "geometry": {"type": "Point", "coordinates": [13.883257, 50.044739]}, "properties": {"barrier": "lift_gate", "ref:zabaged": "35798173079306240", "zabaged_typ": "Závora, brána", "in_osm_30m": true}}, {"type": "Feature", "geometry": {"type": "Point", "coordinates": [13.8981086, 50.0654328]}, "properties": {"barrier": "lift_gate", "ref:zabaged": "35798175612665856", "zabaged_typ": "Závora, brána", "in_osm_30m": true}}, {"type": "Feature", "geometry": {"type": "Point", "coordinates": [14.0728478, 49.9635311]}, "properties": {"barrier": "bar", "motor_vehicle": "no", "ref:zabaged": "8244448530006016", "zabaged_typ": "Trvalá zábrana", "in_osm_30m": false}}, {"type": "Feature", "geometry": {"type": "Point", "coordinates": [13.824132, 50.0118976]}, "properties": {"barrier": "lift_gate", "ref:zabaged": "36074851852615680", "zabaged_typ": "Závora, brána", "in_osm_30m": false}}, {"type": "Feature", "geometry": {"type": "Point", "coordinates": [13.7859247, 49.9918725]}, "properties": {"barrier": "lift_gate", "ref:zabaged": "35959847274938368", "zabaged_typ": "Závora, brána", "in_osm_30m": true}}, {"type": "Feature", "geometry": {"type": "Point", "coordinates": [13.7758931, 50.0028104]}, "properties": {"barrier": "lift_gate", "ref:zabaged": "36075042274017280", "zabaged_typ": "Závora, brána", "in_osm_30m": false}}, {"type": "Feature", "geometry": {"type": "Point", "coordinates": [13.7791651, 50.0045077]}, "properties": {"barrier": "lift_gate", "ref:zabaged": "36075041351270400", "zabaged_typ": "Závora, brána", "in_osm_30m": false}}, {"type": "Feature", "geometry": {"type": "Point", "coordinates": [13.8409968, 50.0143031]}, "properties": {"barrier": "lift_gate", "ref:zabaged": "35960002262859776", "zabaged_typ": "Závora, brána", "in_osm_30m": false}}, {"type": "Feature", "geometry": {"type": "Point", "coordinates": [13.7865419, 49.9937328]}, "properties": {"barrier": "lift_gate", "ref:zabaged": "35960104234778624", "zabaged_typ": "Závora, brána", "in_osm_30m": true}}, {"type": "Feature", "geometry": {"type": "Point", "coordinates": [13.952215, 50.021052]}, "properties": {"barrier": "lift_gate", "ref:zabaged": "36098408741601280", "zabaged_typ": "Závora, brána", "in_osm_30m": false}}, {"type": "Feature", "geometry": {"type": "Point", "coordinates": [13.8625888, 49.9837963]}, "properties": {"barrier": "lift_gate", "ref:zabaged": "35913589889957888", "zabaged_typ": "Závora, brána", "in_osm_30m": false}}, {"type": "Feature", "geometry": {"type": "Point", "coordinates": [13.8605895, 49.984603]}, "properties": {"barrier": "lift_gate", "ref:zabaged": "36121710986002432", "zabaged_typ": "Závora, brána", "in_osm_30m": false}}, {"type": "Feature", "geometry": {"type": "Point", "coordinates": [13.9141463, 49.9777115]}, "properties": {"barrier": "lift_gate", "ref:zabaged": "36121705046867968", "zabaged_typ": "Závora, brána", "in_osm_30m": false}}, {"type": "Feature", "geometry": {"type": "Point", "coordinates": [13.8538152, 49.9788306]}, "properties": {"barrier": "lift_gate", "ref:zabaged": "36121662449516544", "zabaged_typ": "Závora, brána", "in_osm_30m": false}}, {"type": "Feature", "geometry": {"type": "Point", "coordinates": [13.9082701, 49.9786782]}, "properties": {"barrier": "lift_gate", "ref:zabaged": "35913583229403136", "zabaged_typ": "Závora, brána", "in_osm_30m": false}}, {"type": "Feature", "geometry": {"type": "Point", "coordinates": [13.8699752, 49.9779108]}, "properties": {"barrier": "lift_gate", "ref:zabaged": "36121665821736960", "zabaged_typ": "Závora, brána", "in_osm_30m": false}}, {"type": "Feature", "geometry": {"type": "Point", "coordinates": [13.863261, 49.9835658]}, "properties": {"barrier": "lift_gate", "ref:zabaged": "35913589839626240", "zabaged_typ": "Závora, brána", "in_osm_30m": false}}, {"type": "Feature", "geometry": {"type": "Point", "coordinates": [13.8636589, 49.9839028]}, "properties": {"barrier": "bar", "motor_vehicle": "no", "ref:zabaged": "35913592859525120", "zabaged_typ": "Trvalá zábrana", "in_osm_30m": true}}, {"type": "Feature", "geometry": {"type": "Point", "coordinates": [13.9132939, 49.9792106]}, "properties": {"barrier": "lift_gate", "ref:zabaged": "35913583330066432", "zabaged_typ": "Závora, brána", "in_osm_30m": false}}, {"type": "Feature", "geometry": {"type": "Point", "coordinates": [13.8638275, 49.983893]}, "properties": {"barrier": "bar", "motor_vehicle": "no", "ref:zabaged": "36121655017209856", "zabaged_typ": "Trvalá zábrana", "in_osm_30m": true}}, {"type": "Feature", "geometry": {"type": "Point", "coordinates": [13.9923896, 49.9541687]}, "properties": {"barrier": "bar", "motor_vehicle": "no", "ref:zabaged": "36190439086227456", "zabaged_typ": "Trvalá zábrana", "in_osm_30m": false}}, {"type": "Feature", "geometry": {"type": "Point", "coordinates": [13.9726518, 49.9628162]}, "properties": {"barrier": "lift_gate", "ref:zabaged": "36075222041886720", "zabaged_typ": "Závora, brána", "in_osm_30m": false}}, {"type": "Feature", "geometry": {"type": "Point", "coordinates": [13.9832174, 50.0695163]}, "properties": {"barrier": "lift_gate", "ref:zabaged": "8247818183507968", "zabaged_typ": "Závora, brána", "in_osm_30m": false}}, {"type": "Feature", "geometry": {"type": "Point", "coordinates": [13.985495, 50.0244796]}, "properties": {"barrier": "lift_gate", "ref:zabaged": "8247815415267328", "zabaged_typ": "Závora, brána", "in_osm_30m": false}}, {"type": "Feature", "geometry": {"type": "Point", "coordinates": [14.0001128, 50.0508463]}, "properties": {"barrier": "lift_gate", "ref:zabaged": "8247815700480000", "zabaged_typ": "Závora, brána", "in_osm_30m": false}}, {"type": "Feature", "geometry": {"type": "Point", "coordinates": [14.0124748, 49.9561907]}, "properties": {"barrier": "lift_gate", "ref:zabaged": "7685596713582592", "zabaged_typ": "Závora, brána", "in_osm_30m": false}}, {"type": "Feature", "geometry": {"type": "Point", "coordinates": [13.9835814, 50.041769]}, "properties": {"barrier": "lift_gate", "ref:zabaged": "8247815566262272", "zabaged_typ": "Závora, brána", "in_osm_30m": false}}, {"type": "Feature", "geometry": {"type": "Point", "coordinates": [14.0467126, 50.0376051]}, "properties": {"barrier": "lift_gate", "ref:zabaged": "7687848652177408", "zabaged_typ": "Závora, brána", "in_osm_30m": false}}, {"type": "Feature", "geometry": {"type": "Point", "coordinates": [14.0226867, 50.0302648]}, "properties": {"barrier": "lift_gate", "ref:zabaged": "7687849356820480", "zabaged_typ": "Závora, brána", "in_osm_30m": false}}, {"type": "Feature", "geometry": {"type": "Point", "coordinates": [14.0197288, 50.0229174]}, "properties": {"barrier": "lift_gate", "ref:zabaged": "7687849608478720", "zabaged_typ": "Závora, brána", "in_osm_30m": false}}, {"type": "Feature", "geometry": {"type": "Point", "coordinates": [14.0199633, 50.0214176]}, "properties": {"barrier": "lift_gate", "ref:zabaged": "7687849910468608", "zabaged_typ": "Závora, brána", "in_osm_30m": false}}, {"type": "Feature", "geometry": {"type": "Point", "coordinates": [13.800986, 49.9425647]}, "properties": {"barrier": "lift_gate", "ref:zabaged": "36213342133551104", "zabaged_typ": "Závora, brána", "in_osm_30m": false}}, {"type": "Feature", "geometry": {"type": "Point", "coordinates": [13.7932676, 49.9279099]}, "properties": {"barrier": "lift_gate", "ref:zabaged": "36213340002844672", "zabaged_typ": "Závora, brána", "in_osm_30m": false}}, {"type": "Feature", "geometry": {"type": "Point", "coordinates": [13.8133205, 49.9459985]}, "properties": {"barrier": "lift_gate", "ref:zabaged": "36213208251367424", "zabaged_typ": "Závora, brána", "in_osm_30m": false}}, {"type": "Feature", "geometry": {"type": "Point", "coordinates": [13.8007329, 49.9428132]}, "properties": {"barrier": "lift_gate", "ref:zabaged": "36213341730897920", "zabaged_typ": "Závora, brána", "in_osm_30m": false}}, {"type": "Feature", "geometry": {"type": "Point", "coordinates": [13.813306, 49.9457069]}, "properties": {"barrier": "lift_gate", "ref:zabaged": "8339104508936192", "zabaged_typ": "Závora, brána", "in_osm_30m": false}}, {"type": "Feature", "geometry": {"type": "Point", "coordinates": [14.0368254, 50.1166412]}, "properties": {"barrier": "lift_gate", "ref:zabaged": "8308436311736320", "zabaged_typ": "Závora, brána", "in_osm_30m": false}}, {"type": "Feature", "geometry": {"type": "Point", "coordinates": [14.0053658, 50.0912421]}, "properties": {"barrier": "lift_gate", "ref:zabaged": "8332879557820416", "zabaged_typ": "Závora, brána", "in_osm_30m": false}}, {"type": "Feature", "geometry": {"type": "Point", "coordinates": [13.9654334, 50.1009221]}, "properties": {"barrier": "lift_gate", "ref:zabaged": "8332877376782336", "zabaged_typ": "Závora, brána", "in_osm_30m": false}}, {"type": "Feature", "geometry": {"type": "Point", "coordinates": [13.9660567, 50.1010053]}, "properties": {"barrier": "lift_gate", "ref:zabaged": "8332877326450688", "zabaged_typ": "Závora, brána", "in_osm_30m": false}}, {"type": "Feature", "geometry": {"type": "Point", "coordinates": [13.9871537, 50.1172285]}, "properties": {"barrier": "lift_gate", "ref:zabaged": "8337410949644288", "zabaged_typ": "Závora, brána", "in_osm_30m": false}}, {"type": "Feature", "geometry": {"type": "Point", "coordinates": [13.9647906, 50.106427]}, "properties": {"barrier": "lift_gate", "ref:zabaged": "8308442670301184", "zabaged_typ": "Závora, brána", "in_osm_30m": false}}, {"type": "Feature", "geometry": {"type": "Point", "coordinates": [14.0098158, 50.1093833]}, "properties": {"barrier": "lift_gate", "ref:zabaged": "8332879708815360", "zabaged_typ": "Závora, brána", "in_osm_30m": false}}, {"type": "Feature", "geometry": {"type": "Point", "coordinates": [13.83683, 49.9500554]}, "properties": {"barrier": "lift_gate", "ref:zabaged": "8339107428171776", "zabaged_typ": "Závora, brána", "in_osm_30m": false}}, {"type": "Feature", "geometry": {"type": "Point", "coordinates": [13.9312585, 49.9408663]}, "properties": {"barrier": "lift_gate", "ref:zabaged": "8339114273275904", "zabaged_typ": "Závora, brána", "in_osm_30m": false}}, {"type": "Feature", "geometry": {"type": "Point", "coordinates": [13.8891124, 50.0035245]}, "properties": {"barrier": "lift_gate", "ref:zabaged": "8339059931873280", "zabaged_typ": "Závora, brána", "in_osm_30m": false}}, {"type": "Feature", "geometry": {"type": "Point", "coordinates": [13.9701443, 50.0148586]}, "properties": {"barrier": "lift_gate", "ref:zabaged": "8339062448455680", "zabaged_typ": "Závora, brána", "in_osm_30m": false}}, {"type": "Feature", "geometry": {"type": "Point", "coordinates": [13.919446, 49.9827842]}, "properties": {"barrier": "lift_gate", "ref:zabaged": "8339082212016128", "zabaged_typ": "Závora, brána", "in_osm_30m": false}}, {"type": "Feature", "geometry": {"type": "Point", "coordinates": [13.9715068, 49.9906072]}, "properties": {"barrier": "lift_gate", "ref:zabaged": "8339086959968256", "zabaged_typ": "Závora, brána", "in_osm_30m": false}}, {"type": "Feature", "geometry": {"type": "Point", "coordinates": [13.9649506, 50.0398373]}, "properties": {"barrier": "lift_gate", "ref:zabaged": "8339044295507968", "zabaged_typ": "Závora, brána", "in_osm_30m": false}}, {"type": "Feature", "geometry": {"type": "Point", "coordinates": [13.9241721, 49.9555735]}, "properties": {"barrier": "lift_gate", "ref:zabaged": "8339111236599808", "zabaged_typ": "Závora, brána", "in_osm_30m": true}}, {"type": "Feature", "geometry": {"type": "Point", "coordinates": [13.799996, 50.0345832]}, "properties": {"barrier": "lift_gate", "ref:zabaged": "8338992638459904", "zabaged_typ": "Závora, brána", "in_osm_30m": false}}, {"type": "Feature", "geometry": {"type": "Point", "coordinates": [13.8426277, 49.9474833]}, "properties": {"barrier": "lift_gate", "ref:zabaged": "7909653748908032", "zabaged_typ": "Závora, brána", "in_osm_30m": false}}, {"type": "Feature", "geometry": {"type": "Point", "coordinates": [13.8889633, 50.0039711]}, "properties": {"barrier": "lift_gate", "ref:zabaged": "8339059982204928", "zabaged_typ": "Závora, brána", "in_osm_30m": false}}, {"type": "Feature", "geometry": {"type": "Point", "coordinates": [13.8441903, 50.1040265]}, "properties": {"barrier": "lift_gate", "ref:zabaged": "36259669580185600", "zabaged_typ": "Závora, brána", "in_osm_30m": false}}, {"type": "Feature", "geometry": {"type": "Point", "coordinates": [13.8412972, 50.1056079]}, "properties": {"barrier": "lift_gate", "ref:zabaged": "36259669882175488", "zabaged_typ": "Závora, brána", "in_osm_30m": false}}, {"type": "Feature", "geometry": {"type": "Point", "coordinates": [13.8302773, 50.1034404]}, "properties": {"barrier": "lift_gate", "ref:zabaged": "36259664412803072", "zabaged_typ": "Závora, brána", "in_osm_30m": false}}, {"type": "Feature", "geometry": {"type": "Point", "coordinates": [13.888501, 50.1088941]}, "properties": {"barrier": "lift_gate", "ref:zabaged": "36259703705042944", "zabaged_typ": "Závora, brána", "in_osm_30m": false}}, {"type": "Feature", "geometry": {"type": "Point", "coordinates": [13.8827214, 50.1041423]}, "properties": {"barrier": "lift_gate", "ref:zabaged": "7945739896356864", "zabaged_typ": "Závora, brána", "in_osm_30m": false}}, {"type": "Feature", "geometry": {"type": "Point", "coordinates": [13.9202843, 50.1142584]}, "properties": {"barrier": "lift_gate", "ref:zabaged": "7945740148015104", "zabaged_typ": "Závora, brána", "in_osm_30m": false}}, {"type": "Feature", "geometry": {"type": "Point", "coordinates": [13.7743218, 49.9510151]}, "properties": {"barrier": "lift_gate", "ref:zabaged": "36374568562065408", "zabaged_typ": "Závora, brána", "in_osm_30m": false}}, {"type": "Feature", "geometry": {"type": "Point", "coordinates": [13.761136, 49.9801551]}, "properties": {"barrier": "lift_gate", "ref:zabaged": "36374761349054464", "zabaged_typ": "Závora, brána", "in_osm_30m": false}}, {"type": "Feature", "geometry": {"type": "Point", "coordinates": [13.7674388, 49.9502729]}, "properties": {"barrier": "lift_gate", "ref:zabaged": "36121740799115264", "zabaged_typ": "Závora, brána", "in_osm_30m": false}}, {"type": "Feature", "geometry": {"type": "Point", "coordinates": [13.7687159, 49.949883]}, "properties": {"barrier": "lift_gate", "ref:zabaged": "36121740849446912", "zabaged_typ": "Závora, brána", "in_osm_30m": false}}, {"type": "Feature", "geometry": {"type": "Point", "coordinates": [14.067795, 49.967143]}, "properties": {"barrier": "lift_gate", "ref:zabaged": "7705005704347648", "zabaged_typ": "Závora, brána", "in_osm_30m": false}}, {"type": "Feature", "geometry": {"type": "Point", "coordinates": [14.0675289, 49.9675285]}, "properties": {"barrier": "lift_gate", "ref:zabaged": "7705010838175744", "zabaged_typ": "Závora, brána", "in_osm_30m": false}}, {"type": "Feature", "geometry": {"type": "Point", "coordinates": [13.7374616, 50.0296454]}, "properties": {"barrier": "lift_gate", "ref:zabaged": "36421376021626880", "zabaged_typ": "Závora, brána", "in_osm_30m": false}}, {"type": "Feature", "geometry": {"type": "Point", "coordinates": [13.7390639, 50.0271825]}, "properties": {"barrier": "lift_gate", "ref:zabaged": "36421376222953472", "zabaged_typ": "Závora, brána", "in_osm_30m": false}}, {"type": "Feature", "geometry": {"type": "Point", "coordinates": [13.9919797, 50.0975879]}, "properties": {"barrier": "lift_gate", "ref:zabaged": "36282757613092864", "zabaged_typ": "Závora, brána", "in_osm_30m": false}}, {"type": "Feature", "geometry": {"type": "Point", "coordinates": [14.0212695, 50.099457]}, "properties": {"barrier": "lift_gate", "ref:zabaged": "35547254630645760", "zabaged_typ": "Závora, brána", "in_osm_30m": false}}, {"type": "Feature", "geometry": {"type": "Point", "coordinates": [14.0062919, 50.100636]}, "properties": {"barrier": "bar", "motor_vehicle": "no", "ref:zabaged": "35728796053143552", "zabaged_typ": "Trvalá zábrana", "in_osm_30m": false}}, {"type": "Feature", "geometry": {"type": "Point", "coordinates": [13.9853309, 50.0762687]}, "properties": {"barrier": "lift_gate", "ref:zabaged": "36557576145469440", "zabaged_typ": "Závora, brána", "in_osm_30m": false}}, {"type": "Feature", "geometry": {"type": "Point", "coordinates": [13.9852888, 50.0813014]}, "properties": {"barrier": "lift_gate", "ref:zabaged": "36282758787497984", "zabaged_typ": "Závora, brána", "in_osm_30m": false}}, {"type": "Feature", "geometry": {"type": "Point", "coordinates": [14.0323964, 50.0942226]}, "properties": {"barrier": "lift_gate", "ref:zabaged": "36259901659414528", "zabaged_typ": "Závora, brána", "in_osm_30m": false}}, {"type": "Feature", "geometry": {"type": "Point", "coordinates": [13.9846983, 50.0964367]}, "properties": {"barrier": "lift_gate", "ref:zabaged": "35524105293791232", "zabaged_typ": "Závora, brána", "in_osm_30m": false}}, {"type": "Feature", "geometry": {"type": "Point", "coordinates": [13.9690269, 50.0857606]}, "properties": {"barrier": "lift_gate", "ref:zabaged": "35705669499748352", "zabaged_typ": "Závora, brána", "in_osm_30m": false}}, {"type": "Feature", "geometry": {"type": "Point", "coordinates": [14.0022566, 50.1034035]}, "properties": {"barrier": "lift_gate", "ref:zabaged": "36282756807786496", "zabaged_typ": "Závora, brána", "in_osm_30m": false}}, {"type": "Feature", "geometry": {"type": "Point", "coordinates": [14.0199836, 50.0916721]}, "properties": {"barrier": "lift_gate", "ref:zabaged": "36557576195801088", "zabaged_typ": "Závora, brána", "in_osm_30m": false}}, {"type": "Feature", "geometry": {"type": "Point", "coordinates": [14.0088064, 50.0937142]}, "properties": {"barrier": "lift_gate", "ref:zabaged": "35570512482533376", "zabaged_typ": "Závora, brána", "in_osm_30m": false}}, {"type": "Feature", "geometry": {"type": "Point", "coordinates": [13.9926503, 50.0808327]}, "properties": {"barrier": "lift_gate", "ref:zabaged": "35570443612061696", "zabaged_typ": "Závora, brána", "in_osm_30m": false}}, {"type": "Feature", "geometry": {"type": "Point", "coordinates": [13.9992084, 50.0984454]}, "properties": {"barrier": "lift_gate", "ref:zabaged": "35570307985047552", "zabaged_typ": "Závora, brána", "in_osm_30m": false}}, {"type": "Feature", "geometry": {"type": "Point", "coordinates": [14.0451871, 50.1042446]}, "properties": {"barrier": "bar", "motor_vehicle": "no", "ref:zabaged": "25306338233942016", "zabaged_typ": "Trvalá zábrana", "in_osm_30m": false}}, {"type": "Feature", "geometry": {"type": "Point", "coordinates": [14.0457056, 50.1038584]}, "properties": {"barrier": "bar", "motor_vehicle": "no", "ref:zabaged": "25306337848066048", "zabaged_typ": "Trvalá zábrana", "in_osm_30m": false}}, {"type": "Feature", "geometry": {"type": "Point", "coordinates": [13.7466289, 50.0924074]}, "properties": {"barrier": "lift_gate", "ref:zabaged": "36351067994193920", "zabaged_typ": "Závora, brána", "in_osm_30m": false}}, {"type": "Feature", "geometry": {"type": "Point", "coordinates": [13.74145, 50.0972471]}, "properties": {"barrier": "lift_gate", "ref:zabaged": "36397863340605440", "zabaged_typ": "Závora, brána", "in_osm_30m": false}}, {"type": "Feature", "geometry": {"type": "Point", "coordinates": [14.0401438, 50.1205801]}, "properties": {"barrier": "lift_gate", "ref:zabaged": "36930587830779904", "zabaged_typ": "Závora, brána", "in_osm_30m": false}}, {"type": "Feature", "geometry": {"type": "Point", "coordinates": [13.9682579, 50.0748427]}, "properties": {"barrier": "lift_gate", "ref:zabaged": "36790834896568320", "zabaged_typ": "Závora, brána", "in_osm_30m": true}}, {"type": "Feature", "geometry": {"type": "Point", "coordinates": [13.9673373, 50.0823149]}, "properties": {"barrier": "lift_gate", "ref:zabaged": "36767818603036672", "zabaged_typ": "Závora, brána", "in_osm_30m": true}}, {"type": "Feature", "geometry": {"type": "Point", "coordinates": [13.9674765, 50.0798498]}, "properties": {"barrier": "lift_gate", "ref:zabaged": "36790838570778624", "zabaged_typ": "Závora, brána", "in_osm_30m": false}}, {"type": "Feature", "geometry": {"type": "Point", "coordinates": [13.9679542, 50.0749108]}, "properties": {"barrier": "lift_gate", "ref:zabaged": "36790835148226560", "zabaged_typ": "Závora, brána", "in_osm_30m": true}}, {"type": "Feature", "geometry": {"type": "Point", "coordinates": [13.9683061, 50.07491]}, "properties": {"barrier": "lift_gate", "ref:zabaged": "36790835097894912", "zabaged_typ": "Závora, brána", "in_osm_30m": true}}, {"type": "Feature", "geometry": {"type": "Point", "coordinates": [13.7581059, 50.0894125]}, "properties": {"barrier": "lift_gate", "ref:zabaged": "36767298475786240", "zabaged_typ": "Závora, brána", "in_osm_30m": false}}, {"type": "Feature", "geometry": {"type": "Point", "coordinates": [13.8232395, 50.082927]}, "properties": {"barrier": "lift_gate", "ref:zabaged": "36767495658405888", "zabaged_typ": "Závora, brána", "in_osm_30m": false}}, {"type": "Feature", "geometry": {"type": "Point", "coordinates": [13.8104724, 50.086259]}, "properties": {"barrier": "lift_gate", "ref:zabaged": "37228972798377984", "zabaged_typ": "Závora, brána", "in_osm_30m": false}}, {"type": "Feature", "geometry": {"type": "Point", "coordinates": [13.8246476, 50.0778626]}, "properties": {"barrier": "lift_gate", "ref:zabaged": "36744388046487552", "zabaged_typ": "Závora, brána", "in_osm_30m": false}}, {"type": "Feature", "geometry": {"type": "Point", "coordinates": [13.8188549, 50.0617223]}, "properties": {"barrier": "lift_gate", "ref:zabaged": "36767492286185472", "zabaged_typ": "Závora, brána", "in_osm_30m": false}}, {"type": "Feature", "geometry": {"type": "Point", "coordinates": [13.8070136, 50.059273]}, "properties": {"barrier": "lift_gate", "ref:zabaged": "36767286547185664", "zabaged_typ": "Závora, brána", "in_osm_30m": false}}, {"type": "Feature", "geometry": {"type": "Point", "coordinates": [13.8211165, 50.0897948]}, "properties": {"barrier": "lift_gate", "ref:zabaged": "36744393784295424", "zabaged_typ": "Závora, brána", "in_osm_30m": false}}, {"type": "Feature", "geometry": {"type": "Point", "coordinates": [13.8251597, 50.0771929]}, "properties": {"barrier": "lift_gate", "ref:zabaged": "36767495104757760", "zabaged_typ": "Závora, brána", "in_osm_30m": false}}, {"type": "Feature", "geometry": {"type": "Point", "coordinates": [13.7762894, 50.0679063]}, "properties": {"barrier": "bar", "motor_vehicle": "no", "ref:zabaged": "37228901092556800", "zabaged_typ": "Trvalá zábrana", "in_osm_30m": false}}, {"type": "Feature", "geometry": {"type": "Point", "coordinates": [13.8016228, 50.0914896]}, "properties": {"barrier": "lift_gate", "ref:zabaged": "36744386452652032", "zabaged_typ": "Závora, brána", "in_osm_30m": true}}, {"type": "Feature", "geometry": {"type": "Point", "coordinates": [13.8002369, 50.0913762]}, "properties": {"barrier": "lift_gate", "ref:zabaged": "36744379859206144", "zabaged_typ": "Závora, brána", "in_osm_30m": true}}, {"type": "Feature", "geometry": {"type": "Point", "coordinates": [13.8034812, 50.090186]}, "properties": {"barrier": "lift_gate", "ref:zabaged": "37228978737512448", "zabaged_typ": "Závora, brána", "in_osm_30m": false}}, {"type": "Feature", "geometry": {"type": "Point", "coordinates": [14.06811, 50.0005449]}, "properties": {"barrier": "lift_gate", "ref:zabaged": "7661803735613440", "zabaged_typ": "Závora, brána", "in_osm_30m": false}}, {"type": "Feature", "geometry": {"type": "Point", "coordinates": [13.9685088, 49.9774711]}, "properties": {"barrier": "lift_gate", "ref:zabaged": "33166240843300864", "zabaged_typ": "Závora, brána", "in_osm_30m": false}}, {"type": "Feature", "geometry": {"type": "Point", "coordinates": [13.9180315, 50.035083]}, "properties": {"barrier": "lift_gate", "ref:zabaged": "32100801107197952", "zabaged_typ": "Závora, brána", "in_osm_30m": true}}, {"type": "Feature", "geometry": {"type": "Point", "coordinates": [13.8690163, 50.0296555]}, "properties": {"barrier": "lift_gate", "ref:zabaged": "32077655058677760", "zabaged_typ": "Závora, brána", "in_osm_30m": false}}, {"type": "Feature", "geometry": {"type": "Point", "coordinates": [13.9776939, 49.9470055]}, "properties": {"barrier": "lift_gate", "ref:zabaged": "32263591172243456", "zabaged_typ": "Závora, brána", "in_osm_30m": false}}, {"type": "Feature", "geometry": {"type": "Point", "coordinates": [13.977922, 49.9585751]}, "properties": {"barrier": "lift_gate", "ref:zabaged": "32263587145711616", "zabaged_typ": "Závora, brána", "in_osm_30m": false}}, {"type": "Feature", "geometry": {"type": "Point", "coordinates": [13.9786186, 50.0194435]}, "properties": {"barrier": "lift_gate", "ref:zabaged": "32193107470581760", "zabaged_typ": "Závora, brána", "in_osm_30m": false}}, {"type": "Feature", "geometry": {"type": "Point", "coordinates": [13.8650108, 50.0283438]}, "properties": {"barrier": "bar", "motor_vehicle": "no", "ref:zabaged": "32077642056335360", "zabaged_typ": "Trvalá zábrana", "in_osm_30m": false}}, {"type": "Feature", "geometry": {"type": "Point", "coordinates": [13.8167667, 50.0595492]}, "properties": {"barrier": "lift_gate", "ref:zabaged": "32054628229054464", "zabaged_typ": "Závora, brána", "in_osm_30m": false}}, {"type": "Feature", "geometry": {"type": "Point", "coordinates": [13.9178995, 50.0349859]}, "properties": {"barrier": "lift_gate", "ref:zabaged": "32100803925770240", "zabaged_typ": "Závora, brána", "in_osm_30m": true}}, {"type": "Feature", "geometry": {"type": "Point", "coordinates": [13.9061204, 49.9977732]}, "properties": {"barrier": "lift_gate", "ref:zabaged": "32192919951638528", "zabaged_typ": "Závora, brána", "in_osm_30m": false}}, {"type": "Feature", "geometry": {"type": "Point", "coordinates": [14.0420542, 49.9562163]}, "properties": {"barrier": "lift_gate", "ref:zabaged": "34391751460388864", "zabaged_typ": "Závora, brána", "in_osm_30m": false}}, {"type": "Feature", "geometry": {"type": "Point", "coordinates": [13.8782059, 50.0857887]}, "properties": {"barrier": "lift_gate", "ref:zabaged": "37469407584190464", "zabaged_typ": "Závora, brána", "in_osm_30m": true}}, {"type": "Feature", "geometry": {"type": "Point", "coordinates": [13.8296714, 50.0895467]}, "properties": {"barrier": "lift_gate", "ref:zabaged": "37469011910328320", "zabaged_typ": "Závora, brána", "in_osm_30m": false}}, {"type": "Feature", "geometry": {"type": "Point", "coordinates": [13.8389394, 50.0658633]}, "properties": {"barrier": "lift_gate", "ref:zabaged": "37469541600591872", "zabaged_typ": "Závora, brána", "in_osm_30m": false}}, {"type": "Feature", "geometry": {"type": "Point", "coordinates": [13.8297884, 50.0890133]}, "properties": {"barrier": "lift_gate", "ref:zabaged": "37469010886918144", "zabaged_typ": "Závora, brána", "in_osm_30m": false}}, {"type": "Feature", "geometry": {"type": "Point", "coordinates": [13.8713293, 50.096668]}, "properties": {"barrier": "lift_gate", "ref:zabaged": "38548396583157760", "zabaged_typ": "Závora, brána", "in_osm_30m": false}}, {"type": "Feature", "geometry": {"type": "Point", "coordinates": [13.83081, 50.0741594]}, "properties": {"barrier": "lift_gate", "ref:zabaged": "37469145658294272", "zabaged_typ": "Závora, brána", "in_osm_30m": false}}, {"type": "Feature", "geometry": {"type": "Point", "coordinates": [13.9457985, 50.1181074]}, "properties": {"barrier": "bar", "motor_vehicle": "no", "ref:zabaged": "37420495271886848", "zabaged_typ": "Trvalá zábrana", "in_osm_30m": false}}, {"type": "Feature", "geometry": {"type": "Point", "coordinates": [13.9323606, 50.1073948]}, "properties": {"barrier": "lift_gate", "ref:zabaged": "38573312007208960", "zabaged_typ": "Závora, brána", "in_osm_30m": false}}, {"type": "Feature", "geometry": {"type": "Point", "coordinates": [13.9387036, 50.1101138]}, "properties": {"barrier": "lift_gate", "ref:zabaged": "37445470322163712", "zabaged_typ": "Závora, brána", "in_osm_30m": false}}, {"type": "Feature", "geometry": {"type": "Point", "coordinates": [13.9370651, 50.1078117]}, "properties": {"barrier": "lift_gate", "ref:zabaged": "37445468862545920", "zabaged_typ": "Závora, brána", "in_osm_30m": false}}, {"type": "Feature", "geometry": {"type": "Point", "coordinates": [13.7559019, 50.0956895]}, "properties": {"barrier": "lift_gate", "ref:zabaged": "37703576146935808", "zabaged_typ": "Závora, brána", "in_osm_30m": false}}, {"type": "Feature", "geometry": {"type": "Point", "coordinates": [13.7536268, 50.098627]}, "properties": {"barrier": "lift_gate", "ref:zabaged": "37703527811776512", "zabaged_typ": "Závora, brána", "in_osm_30m": false}}, {"type": "Feature", "geometry": {"type": "Point", "coordinates": [13.7907763, 50.0952447]}, "properties": {"barrier": "lift_gate", "ref:zabaged": "37635143963246592", "zabaged_typ": "Závora, brána", "in_osm_30m": false}}, {"type": "Feature", "geometry": {"type": "Point", "coordinates": [13.8716972, 50.0509332]}, "properties": {"barrier": "lift_gate", "ref:zabaged": "38146465490534400", "zabaged_typ": "Závora, brána", "in_osm_30m": false}}, {"type": "Feature", "geometry": {"type": "Point", "coordinates": [13.8728413, 50.0552208]}, "properties": {"barrier": "lift_gate", "ref:zabaged": "38146458158891008", "zabaged_typ": "Závora, brána", "in_osm_30m": true}}, {"type": "Feature", "geometry": {"type": "Point", "coordinates": [13.8420612, 49.9629317]}, "properties": {"barrier": "lift_gate", "ref:zabaged": "39010877789175808", "zabaged_typ": "Závora, brána", "in_osm_30m": false}}, {"type": "Feature", "geometry": {"type": "Point", "coordinates": [13.7783272, 49.95525]}, "properties": {"barrier": "lift_gate", "ref:zabaged": "38939979304402944", "zabaged_typ": "Závora, brána", "in_osm_30m": false}}, {"type": "Feature", "geometry": {"type": "Point", "coordinates": [13.9710741, 49.9777953]}, "properties": {"barrier": "lift_gate", "ref:zabaged": "39010894818050048", "zabaged_typ": "Závora, brána", "in_osm_30m": false}}, {"type": "Feature", "geometry": {"type": "Point", "coordinates": [13.8727807, 49.9481973]}, "properties": {"barrier": "bar", "motor_vehicle": "no", "ref:zabaged": "38939954222465024", "zabaged_typ": "Trvalá zábrana", "in_osm_30m": false}}, {"type": "Feature", "geometry": {"type": "Point", "coordinates": [13.9313656, 50.0369447]}, "properties": {"barrier": "lift_gate", "ref:zabaged": "39010897082974208", "zabaged_typ": "Závora, brána", "in_osm_30m": true}}, {"type": "Feature", "geometry": {"type": "Point", "coordinates": [13.7965495, 50.0401205]}, "properties": {"barrier": "lift_gate", "ref:zabaged": "38146687000117248", "zabaged_typ": "Závora, brána", "in_osm_30m": false}}, {"type": "Feature", "geometry": {"type": "Point", "coordinates": [13.7637942, 50.098136]}, "properties": {"barrier": "lift_gate", "ref:zabaged": "40481953345961984", "zabaged_typ": "Závora, brána", "in_osm_30m": true}}, {"type": "Feature", "geometry": {"type": "Point", "coordinates": [13.7827537, 49.9416055]}, "properties": {"barrier": "lift_gate", "ref:zabaged": "34947266456322048", "zabaged_typ": "Závora, brána", "in_osm_30m": false}}, {"type": "Feature", "geometry": {"type": "Point", "coordinates": [13.7650333, 49.9433951]}, "properties": {"barrier": "lift_gate", "ref:zabaged": "34947267194519552", "zabaged_typ": "Závora, brána", "in_osm_30m": false}}, {"type": "Feature", "geometry": {"type": "Point", "coordinates": [13.7988737, 50.0284379]}, "properties": {"barrier": "lift_gate", "ref:zabaged": "38146687268552704", "zabaged_typ": "Závora, brána", "in_osm_30m": false}}, {"type": "Feature", "geometry": {"type": "Point", "coordinates": [13.815134, 50.0268814]}, "properties": {"barrier": "lift_gate", "ref:zabaged": "38146687469879296", "zabaged_typ": "Závora, brána", "in_osm_30m": false}}, {"type": "Feature", "geometry": {"type": "Point", "coordinates": [13.8318146, 50.0300116]}, "properties": {"barrier": "lift_gate", "ref:zabaged": "38146687620874240", "zabaged_typ": "Závora, brána", "in_osm_30m": false}}, {"type": "Feature", "geometry": {"type": "Point", "coordinates": [13.9207694, 49.9510503]}, "properties": {"barrier": "lift_gate", "ref:zabaged": "38939958215442432", "zabaged_typ": "Závora, brána", "in_osm_30m": true}}, {"type": "Feature", "geometry": {"type": "Point", "coordinates": [13.7660845, 49.945332]}, "properties": {"barrier": "lift_gate", "ref:zabaged": "38939983884582912", "zabaged_typ": "Závora, brána", "in_osm_30m": false}}, {"type": "Feature", "geometry": {"type": "Point", "coordinates": [13.7639298, 49.9461423]}, "properties": {"barrier": "lift_gate", "ref:zabaged": "38939983934914560", "zabaged_typ": "Závora, brána", "in_osm_30m": false}}, {"type": "Feature", "geometry": {"type": "Point", "coordinates": [13.876593, 49.9815397]}, "properties": {"barrier": "lift_gate", "ref:zabaged": "39010884231626752", "zabaged_typ": "Závora, brána", "in_osm_30m": false}}, {"type": "Feature", "geometry": {"type": "Point", "coordinates": [13.9189011, 49.9958832]}, "properties": {"barrier": "lift_gate", "ref:zabaged": "39010890623746048", "zabaged_typ": "Závora, brána", "in_osm_30m": false}}, {"type": "Feature", "geometry": {"type": "Point", "coordinates": [13.8758696, 50.0174247]}, "properties": {"barrier": "lift_gate", "ref:zabaged": "39010895623356416", "zabaged_typ": "Závora, brána", "in_osm_30m": true}}, {"type": "Feature", "geometry": {"type": "Point", "coordinates": [14.0465642, 50.0199464]}, "properties": {"barrier": "bar", "motor_vehicle": "no", "ref:zabaged": "42865756026699776", "zabaged_typ": "Trvalá zábrana", "in_osm_30m": false}}, {"type": "Feature", "geometry": {"type": "Point", "coordinates": [14.0534581, 50.0239652]}, "properties": {"barrier": "lift_gate", "ref:zabaged": "42865765187059712", "zabaged_typ": "Závora, brána", "in_osm_30m": false}}, {"type": "Feature", "geometry": {"type": "Point", "coordinates": [14.000801, 50.0111901]}, "properties": {"barrier": "lift_gate", "ref:zabaged": "43004088836685824", "zabaged_typ": "Závora, brána", "in_osm_30m": false}}, {"type": "Feature", "geometry": {"type": "Point", "coordinates": [13.9924788, 50.0133276]}, "properties": {"barrier": "lift_gate", "ref:zabaged": "43004088467587072", "zabaged_typ": "Závora, brána", "in_osm_30m": false}}, {"type": "Feature", "geometry": {"type": "Point", "coordinates": [14.0049305, 50.0073217]}, "properties": {"barrier": "lift_gate", "ref:zabaged": "43004087460954112", "zabaged_typ": "Závora, brána", "in_osm_30m": false}}, {"type": "Feature", "geometry": {"type": "Point", "coordinates": [14.003963, 49.9472742]}, "properties": {"barrier": "lift_gate", "ref:zabaged": "42350806594224128", "zabaged_typ": "Závora, brána", "in_osm_30m": false}}, {"type": "Feature", "geometry": {"type": "Point", "coordinates": [14.0612217, 49.9716808]}, "properties": {"barrier": "lift_gate", "ref:zabaged": "43350096116449280", "zabaged_typ": "Závora, brána", "in_osm_30m": false}}, {"type": "Feature", "geometry": {"type": "Point", "coordinates": [14.0669117, 49.9628921]}, "properties": {"barrier": "lift_gate", "ref:zabaged": "43350097123082240", "zabaged_typ": "Závora, brána", "in_osm_30m": false}}, {"type": "Feature", "geometry": {"type": "Point", "coordinates": [14.020013, 49.9566694]}, "properties": {"barrier": "lift_gate", "ref:zabaged": "43350083550314496", "zabaged_typ": "Závora, brána", "in_osm_30m": false}}, {"type": "Feature", "geometry": {"type": "Point", "coordinates": [14.0653339, 49.9624081]}, "properties": {"barrier": "lift_gate", "ref:zabaged": "43350096972087296", "zabaged_typ": "Závora, brána", "in_osm_30m": false}}, {"type": "Feature", "geometry": {"type": "Point", "coordinates": [14.0660133, 49.9983867]}, "properties": {"barrier": "lift_gate", "ref:zabaged": "43557153721548800", "zabaged_typ": "Závora, brána", "in_osm_30m": false}}, {"type": "Feature", "geometry": {"type": "Point", "coordinates": [14.0679194, 49.9811972]}, "properties": {"barrier": "lift_gate", "ref:zabaged": "43522571886395392", "zabaged_typ": "Závora, brána", "in_osm_30m": false}}, {"type": "Feature", "geometry": {"type": "Point", "coordinates": [14.0574695, 50.0060441]}, "properties": {"barrier": "lift_gate", "ref:zabaged": "41460786173837312", "zabaged_typ": "Závora, brána", "in_osm_30m": false}}, {"type": "Feature", "geometry": {"type": "Point", "coordinates": [14.0671414, 49.9869847]}, "properties": {"barrier": "lift_gate", "ref:zabaged": "42072705196883968", "zabaged_typ": "Závora, brána", "in_osm_30m": false}}, {"type": "Feature", "geometry": {"type": "Point", "coordinates": [14.0480984, 50.0737546]}, "properties": {"barrier": "lift_gate", "ref:zabaged": "44269323790843904", "zabaged_typ": "Závora, brána", "in_osm_30m": false}}, {"type": "Feature", "geometry": {"type": "Point", "coordinates": [14.0495903, 50.047505]}, "properties": {"barrier": "lift_gate", "ref:zabaged": "42454005900640256", "zabaged_typ": "Závora, brána", "in_osm_30m": false}}, {"type": "Feature", "geometry": {"type": "Point", "coordinates": [14.0549512, 50.0759498]}, "properties": {"barrier": "lift_gate", "ref:zabaged": "44269326961737728", "zabaged_typ": "Závora, brána", "in_osm_30m": false}}, {"type": "Feature", "geometry": {"type": "Point", "coordinates": [14.0293368, 50.0714315]}, "properties": {"barrier": "lift_gate", "ref:zabaged": "44754280225177600", "zabaged_typ": "Závora, brána", "in_osm_30m": false}}, {"type": "Feature", "geometry": {"type": "Point", "coordinates": [14.0267232, 50.074957]}, "properties": {"barrier": "lift_gate", "ref:zabaged": "44754287221276672", "zabaged_typ": "Závora, brána", "in_osm_30m": false}}, {"type": "Feature", "geometry": {"type": "Point", "coordinates": [14.034186, 50.0435222]}, "properties": {"barrier": "lift_gate", "ref:zabaged": "44754206657085440", "zabaged_typ": "Závora, brána", "in_osm_30m": false}}, {"type": "Feature", "geometry": {"type": "Point", "coordinates": [13.9829836, 50.0419506]}, "properties": {"barrier": "lift_gate", "ref:zabaged": "44269372612542464", "zabaged_typ": "Závora, brána", "in_osm_30m": false}}, {"type": "Feature", "geometry": {"type": "Point", "coordinates": [13.9986537, 50.0516936]}, "properties": {"barrier": "lift_gate", "ref:zabaged": "44199358454824960", "zabaged_typ": "Závora, brána", "in_osm_30m": false}}, {"type": "Feature", "geometry": {"type": "Point", "coordinates": [14.0387559, 50.0536287]}, "properties": {"barrier": "lift_gate", "ref:zabaged": "44199315723255808", "zabaged_typ": "Závora, brána", "in_osm_30m": false}}, {"type": "Feature", "geometry": {"type": "Point", "coordinates": [13.9967038, 50.0592225]}, "properties": {"barrier": "lift_gate", "ref:zabaged": "44823787979407360", "zabaged_typ": "Závora, brána", "in_osm_30m": false}}, {"type": "Feature", "geometry": {"type": "Point", "coordinates": [14.025958, 50.0508116]}, "properties": {"barrier": "lift_gate", "ref:zabaged": "44095740338765824", "zabaged_typ": "Závora, brána", "in_osm_30m": false}}, {"type": "Feature", "geometry": {"type": "Point", "coordinates": [14.0271407, 50.0512885]}, "properties": {"barrier": "lift_gate", "ref:zabaged": "44823782862356480", "zabaged_typ": "Závora, brána", "in_osm_30m": false}}, {"type": "Feature", "geometry": {"type": "Point", "coordinates": [14.0092944, 50.0674046]}, "properties": {"barrier": "bar", "motor_vehicle": "no", "ref:zabaged": "44269495069442048", "zabaged_typ": "Trvalá zábrana", "in_osm_30m": false}}, {"type": "Feature", "geometry": {"type": "Point", "coordinates": [14.0134058, 50.0689779]}, "properties": {"barrier": "bar", "motor_vehicle": "no", "ref:zabaged": "44947873577566208", "zabaged_typ": "Trvalá zábrana", "in_osm_30m": false}}, {"type": "Feature", "geometry": {"type": "Point", "coordinates": [14.0138597, 50.0683703]}, "properties": {"barrier": "bar", "motor_vehicle": "no", "ref:zabaged": "44947873627897856", "zabaged_typ": "Trvalá zábrana", "in_osm_30m": false}}, {"type": "Feature", "geometry": {"type": "Point", "coordinates": [14.0335797, 50.0446398]}, "properties": {"barrier": "lift_gate", "ref:zabaged": "44754226085101568", "zabaged_typ": "Závora, brána", "in_osm_30m": false}}, {"type": "Feature", "geometry": {"type": "Point", "coordinates": [14.0042429, 50.0008715]}, "properties": {"barrier": "bar", "motor_vehicle": "no", "ref:zabaged": "44789193427124224", "zabaged_typ": "Trvalá zábrana", "in_osm_30m": false}}, {"type": "Feature", "geometry": {"type": "Point", "coordinates": [14.0456903, 50.006451]}, "properties": {"barrier": "lift_gate", "ref:zabaged": "44061258361602048", "zabaged_typ": "Závora, brána", "in_osm_30m": false}}, {"type": "Feature", "geometry": {"type": "Point", "coordinates": [14.0504437, 50.0029735]}, "properties": {"barrier": "lift_gate", "ref:zabaged": "44061262757232640", "zabaged_typ": "Závora, brána", "in_osm_30m": false}}, {"type": "Feature", "geometry": {"type": "Point", "coordinates": [14.0043937, 50.0008042]}, "properties": {"barrier": "bar", "motor_vehicle": "no", "ref:zabaged": "44789194014326784", "zabaged_typ": "Trvalá zábrana", "in_osm_30m": false}}, {"type": "Feature", "geometry": {"type": "Point", "coordinates": [13.9979504, 49.987414]}, "properties": {"barrier": "lift_gate", "ref:zabaged": "44268934156779520", "zabaged_typ": "Závora, brána", "in_osm_30m": false}}, {"type": "Feature", "geometry": {"type": "Point", "coordinates": [14.0466424, 50.0069674]}, "properties": {"barrier": "lift_gate", "ref:zabaged": "44061259150131200", "zabaged_typ": "Závora, brána", "in_osm_30m": false}}, {"type": "Feature", "geometry": {"type": "Point", "coordinates": [14.0578772, 50.0404131]}, "properties": {"barrier": "lift_gate", "ref:zabaged": "44754298847887360", "zabaged_typ": "Závora, brána", "in_osm_30m": false}}, {"type": "Feature", "geometry": {"type": "Point", "coordinates": [14.0553083, 50.0277195]}, "properties": {"barrier": "lift_gate", "ref:zabaged": "44754360067948544", "zabaged_typ": "Závora, brána", "in_osm_30m": false}}, {"type": "Feature", "geometry": {"type": "Point", "coordinates": [14.0609506, 50.028352]}, "properties": {"barrier": "lift_gate", "ref:zabaged": "45259065953091584", "zabaged_typ": "Závora, brána", "in_osm_30m": false}}, {"type": "Feature", "geometry": {"type": "Point", "coordinates": [14.0755393, 49.9691017]}, "properties": {"barrier": "lift_gate", "ref:zabaged": "44546409612967936", "zabaged_typ": "Závora, brána", "in_osm_30m": false}}, {"type": "Feature", "geometry": {"type": "Point", "coordinates": [14.0673302, 49.9678956]}, "properties": {"barrier": "lift_gate", "ref:zabaged": "43819810986917888", "zabaged_typ": "Závora, brána", "in_osm_30m": false}}, {"type": "Feature", "geometry": {"type": "Point", "coordinates": [14.0684504, 49.968488]}, "properties": {"barrier": "lift_gate", "ref:zabaged": "43819817597140992", "zabaged_typ": "Závora, brána", "in_osm_30m": false}}, {"type": "Feature", "geometry": {"type": "Point", "coordinates": [14.0668701, 49.9629474]}, "properties": {"barrier": "bar", "motor_vehicle": "no", "ref:zabaged": "43751180244877312", "zabaged_typ": "Trvalá zábrana", "in_osm_30m": false}}, {"type": "Feature", "geometry": {"type": "Point", "coordinates": [14.0672986, 49.9682262]}, "properties": {"barrier": "lift_gate", "ref:zabaged": "43819814828900352", "zabaged_typ": "Závora, brána", "in_osm_30m": false}}, {"type": "Feature", "geometry": {"type": "Point", "coordinates": [14.0727702, 49.9641868]}, "properties": {"barrier": "bar", "motor_vehicle": "no", "ref:zabaged": "45328414608982016", "zabaged_typ": "Trvalá zábrana", "in_osm_30m": false}}, {"type": "Feature", "geometry": {"type": "Point", "coordinates": [14.0750857, 49.9588645]}, "properties": {"barrier": "lift_gate", "ref:zabaged": "45328543843876864", "zabaged_typ": "Závora, brána", "in_osm_30m": false}}, {"type": "Feature", "geometry": {"type": "Point", "coordinates": [14.0678768, 49.968359]}, "properties": {"barrier": "lift_gate", "ref:zabaged": "43819814979895296", "zabaged_typ": "Závora, brána", "in_osm_30m": false}}, {"type": "Feature", "geometry": {"type": "Point", "coordinates": [14.0760407, 49.9556528]}, "properties": {"barrier": "lift_gate", "ref:zabaged": "44546549551726592", "zabaged_typ": "Závora, brána", "in_osm_30m": false}}, {"type": "Feature", "geometry": {"type": "Point", "coordinates": [14.0690194, 49.968621]}, "properties": {"barrier": "lift_gate", "ref:zabaged": "43819817697804288", "zabaged_typ": "Závora, brána", "in_osm_30m": false}}, {"type": "Feature", "geometry": {"type": "Point", "coordinates": [14.0761275, 49.9583008]}, "properties": {"barrier": "lift_gate", "ref:zabaged": "44546946181890048", "zabaged_typ": "Závora, brána", "in_osm_30m": false}}, {"type": "Feature", "geometry": {"type": "Point", "coordinates": [13.8888053, 50.1090936]}, "properties": {"barrier": "lift_gate", "ref:zabaged": "49404841553821696", "zabaged_typ": "Závora, brána", "in_osm_30m": false}}, {"type": "Feature", "geometry": {"type": "Point", "coordinates": [14.0694599, 49.9582093]}, "properties": {"barrier": "lift_gate", "ref:zabaged": "49154279184793600", "zabaged_typ": "Závora, brána", "in_osm_30m": false}}, {"type": "Feature", "geometry": {"type": "Point", "coordinates": [14.0662672, 49.957678]}, "properties": {"barrier": "lift_gate", "ref:zabaged": "49154279436451840", "zabaged_typ": "Závora, brána", "in_osm_30m": false}}, {"type": "Feature", "geometry": {"type": "Point", "coordinates": [14.0292955, 50.0357851]}, "properties": {"barrier": "lift_gate", "ref:zabaged": "49154354380275712", "zabaged_typ": "Závora, brána", "in_osm_30m": false}}, {"type": "Feature", "geometry": {"type": "Point", "coordinates": [13.7558332, 49.9947347]}, "properties": {"barrier": "lift_gate", "ref:zabaged": "51929233529765888", "zabaged_typ": "Závora, brána", "in_osm_30m": true}}, {"type": "Feature", "geometry": {"type": "Point", "coordinates": [13.9195566, 49.9551096]}, "properties": {"barrier": "lift_gate", "ref:zabaged": "51929208045174784", "zabaged_typ": "Závora, brána", "in_osm_30m": false}}, {"type": "Feature", "geometry": {"type": "Point", "coordinates": [13.865572, 49.9834522]}, "properties": {"barrier": "lift_gate", "ref:zabaged": "7909650427019264", "zabaged_typ": "Závora, brána", "in_osm_30m": false}}, {"type": "Feature", "geometry": {"type": "Point", "coordinates": [13.8050471, 49.9455587]}, "properties": {"barrier": "lift_gate", "ref:zabaged": "7909728675954688", "zabaged_typ": "Závora, brána", "in_osm_30m": false}}, {"type": "Feature", "geometry": {"type": "Point", "coordinates": [13.7950267, 49.9400496]}, "properties": {"barrier": "lift_gate", "ref:zabaged": "7909729481261056", "zabaged_typ": "Závora, brána", "in_osm_30m": false}}, {"type": "Feature", "geometry": {"type": "Point", "coordinates": [13.8801953, 49.9635565]}, "properties": {"barrier": "lift_gate", "ref:zabaged": "7909749412593664", "zabaged_typ": "Závora, brána", "in_osm_30m": false}}, {"type": "Feature", "geometry": {"type": "Point", "coordinates": [13.917086, 49.9632573]}, "properties": {"barrier": "lift_gate", "ref:zabaged": "7909752583487488", "zabaged_typ": "Závora, brána", "in_osm_30m": false}}, {"type": "Feature", "geometry": {"type": "Point", "coordinates": [13.9124911, 49.9692458]}, "properties": {"barrier": "lift_gate", "ref:zabaged": "7909753388793856", "zabaged_typ": "Závora, brána", "in_osm_30m": false}}, {"type": "Feature", "geometry": {"type": "Point", "coordinates": [13.9152225, 49.9735556]}, "properties": {"barrier": "lift_gate", "ref:zabaged": "7909753741115392", "zabaged_typ": "Závora, brána", "in_osm_30m": false}}, {"type": "Feature", "geometry": {"type": "Point", "coordinates": [13.9439603, 49.9738136]}, "properties": {"barrier": "lift_gate", "ref:zabaged": "7909754848411648", "zabaged_typ": "Závora, brána", "in_osm_30m": false}}, {"type": "Feature", "geometry": {"type": "Point", "coordinates": [13.9766573, 50.0332691]}, "properties": {"barrier": "lift_gate", "ref:zabaged": "7909764965072896", "zabaged_typ": "Závora, brána", "in_osm_30m": false}}, {"type": "Feature", "geometry": {"type": "Point", "coordinates": [13.9587605, 49.9660246]}, "properties": {"barrier": "lift_gate", "ref:zabaged": "8339085651345408", "zabaged_typ": "Závora, brána", "in_osm_30m": false}}, {"type": "Feature", "geometry": {"type": "Point", "coordinates": [13.747501, 50.0148344]}, "properties": {"barrier": "lift_gate", "ref:zabaged": "35038647992451072", "zabaged_typ": "Závora, brána", "in_osm_30m": false}}, {"type": "Feature", "geometry": {"type": "Point", "coordinates": [13.853957, 50.0028272]}, "properties": {"barrier": "lift_gate", "ref:zabaged": "35221394170052608", "zabaged_typ": "Závora, brána", "in_osm_30m": true}}, {"type": "Feature", "geometry": {"type": "Point", "coordinates": [13.9245976, 49.9948867]}, "properties": {"barrier": "lift_gate", "ref:zabaged": "35244940791382016", "zabaged_typ": "Závora, brána", "in_osm_30m": false}}, {"type": "Feature", "geometry": {"type": "Point", "coordinates": [13.9253632, 49.9862315]}, "properties": {"barrier": "lift_gate", "ref:zabaged": "35292578857353216", "zabaged_typ": "Závora, brána", "in_osm_30m": false}}, {"type": "Feature", "geometry": {"type": "Point", "coordinates": [13.8911216, 50.004497]}, "properties": {"barrier": "lift_gate", "ref:zabaged": "35361662802329600", "zabaged_typ": "Závora, brána", "in_osm_30m": false}}, {"type": "Feature", "geometry": {"type": "Point", "coordinates": [13.9428988, 50.0089697]}, "properties": {"barrier": "lift_gate", "ref:zabaged": "35890240384139264", "zabaged_typ": "Závora, brána", "in_osm_30m": false}}, {"type": "Feature", "geometry": {"type": "Point", "coordinates": [13.9226745, 50.0180966]}, "properties": {"barrier": "lift_gate", "ref:zabaged": "35890242598731776", "zabaged_typ": "Závora, brána", "in_osm_30m": false}}, {"type": "Feature", "geometry": {"type": "Point", "coordinates": [13.9297196, 49.9400453]}, "properties": {"barrier": "lift_gate", "ref:zabaged": "36075349229961216", "zabaged_typ": "Závora, brána", "in_osm_30m": false}}, {"type": "Feature", "geometry": {"type": "Point", "coordinates": [13.859843, 49.9360176]}, "properties": {"barrier": "lift_gate", "ref:zabaged": "36213344230703104", "zabaged_typ": "Závora, brána", "in_osm_30m": false}}, {"type": "Feature", "geometry": {"type": "Point", "coordinates": [13.8233437, 50.0331902]}, "properties": {"barrier": "lift_gate", "ref:zabaged": "38146687570542592", "zabaged_typ": "Závora, brána", "in_osm_30m": false}}, {"type": "Feature", "geometry": {"type": "Point", "coordinates": [13.7594865, 49.9950662]}, "properties": {"barrier": "lift_gate", "ref:zabaged": "38215704255660032", "zabaged_typ": "Závora, brána", "in_osm_30m": false}}, {"type": "Feature", "geometry": {"type": "Point", "coordinates": [13.8563429, 49.9463621]}, "properties": {"barrier": "lift_gate", "ref:zabaged": "38939950766358528", "zabaged_typ": "Závora, brána", "in_osm_30m": false}}, {"type": "Feature", "geometry": {"type": "Point", "coordinates": [13.8523875, 49.9754318]}, "properties": {"barrier": "lift_gate", "ref:zabaged": "39010881664712704", "zabaged_typ": "Závora, brána", "in_osm_30m": false}}, {"type": "Feature", "geometry": {"type": "Point", "coordinates": [13.8654089, 49.9876045]}, "properties": {"barrier": "lift_gate", "ref:zabaged": "39010884130963456", "zabaged_typ": "Závora, brána", "in_osm_30m": false}}, {"type": "Feature", "geometry": {"type": "Point", "coordinates": [13.9017298, 49.9963362]}, "properties": {"barrier": "lift_gate", "ref:zabaged": "39010895724019712", "zabaged_typ": "Závora, brána", "in_osm_30m": false}}, {"type": "Feature", "geometry": {"type": "Point", "coordinates": [13.9152689, 50.0589034]}, "properties": {"barrier": "lift_gate", "ref:zabaged": "39010895975677952", "zabaged_typ": "Závora, brána", "in_osm_30m": true}}, {"type": "Feature", "geometry": {"type": "Point", "coordinates": [13.9194662, 50.0592104]}, "properties": {"barrier": "lift_gate", "ref:zabaged": "39010896026009600", "zabaged_typ": "Závora, brána", "in_osm_30m": true}}, {"type": "Feature", "geometry": {"type": "Point", "coordinates": [14.0740511, 49.9614401]}, "properties": {"barrier": "bar", "motor_vehicle": "no", "ref:zabaged": "54145326830845952", "zabaged_typ": "Trvalá zábrana", "in_osm_30m": false}}, {"type": "Feature", "geometry": {"type": "Point", "coordinates": [14.0470041, 49.9898786]}, "properties": {"barrier": "lift_gate", "ref:zabaged": "53971668585938944", "zabaged_typ": "Závora, brána", "in_osm_30m": false}}, {"type": "Feature", "geometry": {"type": "Point", "coordinates": [13.7983576, 50.0982011]}, "properties": {"barrier": "lift_gate", "ref:zabaged": "51998916253581312", "zabaged_typ": "Závora, brána", "in_osm_30m": false}}, {"type": "Feature", "geometry": {"type": "Point", "coordinates": [13.9553006, 50.1130343]}, "properties": {"barrier": "lift_gate", "ref:zabaged": "52726516462649344", "zabaged_typ": "Závora, brána", "in_osm_30m": false}}, {"type": "Feature", "geometry": {"type": "Point", "coordinates": [13.7683847, 50.0986874]}, "properties": {"barrier": "lift_gate", "ref:zabaged": "51998913569226752", "zabaged_typ": "Závora, brána", "in_osm_30m": true}}, {"type": "Feature", "geometry": {"type": "Point", "coordinates": [13.8326936, 50.0711876]}, "properties": {"barrier": "lift_gate", "ref:zabaged": "51999026530222080", "zabaged_typ": "Závora, brána", "in_osm_30m": false}}, {"type": "Feature", "geometry": {"type": "Point", "coordinates": [13.9552028, 50.1130704]}, "properties": {"barrier": "lift_gate", "ref:zabaged": "52726516613644288", "zabaged_typ": "Závora, brána", "in_osm_30m": false}}, {"type": "Feature", "geometry": {"type": "Point", "coordinates": [13.7693067, 50.0956387]}, "properties": {"barrier": "lift_gate", "ref:zabaged": "51998915129507840", "zabaged_typ": "Závora, brána", "in_osm_30m": true}}, {"type": "Feature", "geometry": {"type": "Point", "coordinates": [13.7792066, 50.0948568]}, "properties": {"barrier": "lift_gate", "ref:zabaged": "51998915263725568", "zabaged_typ": "Závora, brána", "in_osm_30m": false}}, {"type": "Feature", "geometry": {"type": "Point", "coordinates": [13.8226341, 50.1031324]}, "properties": {"barrier": "lift_gate", "ref:zabaged": "51998929289478144", "zabaged_typ": "Závora, brána", "in_osm_30m": false}}, {"type": "Feature", "geometry": {"type": "Point", "coordinates": [13.7832572, 50.0949146]}, "properties": {"barrier": "lift_gate", "ref:zabaged": "51998915716710400", "zabaged_typ": "Závora, brána", "in_osm_30m": true}}, {"type": "Feature", "geometry": {"type": "Point", "coordinates": [13.8610604, 50.0914315]}, "properties": {"barrier": "lift_gate", "ref:zabaged": "7945736675131392", "zabaged_typ": "Závora, brána", "in_osm_30m": true}}, {"type": "Feature", "geometry": {"type": "Point", "coordinates": [13.8742155, 50.0873667]}, "properties": {"barrier": "lift_gate", "ref:zabaged": "7945736826126336", "zabaged_typ": "Závora, brána", "in_osm_30m": true}}, {"type": "Feature", "geometry": {"type": "Point", "coordinates": [13.9590094, 50.1082901]}, "properties": {"barrier": "lift_gate", "ref:zabaged": "7945738990387200", "zabaged_typ": "Závora, brána", "in_osm_30m": false}}, {"type": "Feature", "geometry": {"type": "Point", "coordinates": [13.8692856, 50.0999158]}, "properties": {"barrier": "lift_gate", "ref:zabaged": "7948923356315648", "zabaged_typ": "Závora, brána", "in_osm_30m": false}}, {"type": "Feature", "geometry": {"type": "Point", "coordinates": [13.8303821, 50.0743259]}, "properties": {"barrier": "lift_gate", "ref:zabaged": "37469145758957568", "zabaged_typ": "Závora, brána", "in_osm_30m": false}}, {"type": "Feature", "geometry": {"type": "Point", "coordinates": [13.8660784, 50.0912135]}, "properties": {"barrier": "lift_gate", "ref:zabaged": "37469551163604992", "zabaged_typ": "Závora, brána", "in_osm_30m": false}}, {"type": "Feature", "geometry": {"type": "Point", "coordinates": [13.7393332, 50.0705988]}, "properties": {"barrier": "lift_gate", "ref:zabaged": "38286690921480192", "zabaged_typ": "Závora, brána", "in_osm_30m": false}}, {"type": "Feature", "geometry": {"type": "Point", "coordinates": [13.848188, 50.0924133]}, "properties": {"barrier": "lift_gate", "ref:zabaged": "38548413628809216", "zabaged_typ": "Závora, brána", "in_osm_30m": false}}, {"type": "Feature", "geometry": {"type": "Point", "coordinates": [13.8300976, 50.07325]}, "properties": {"barrier": "lift_gate", "ref:zabaged": "40481917140729856", "zabaged_typ": "Závora, brána", "in_osm_30m": false}}, {"type": "Feature", "geometry": {"type": "Point", "coordinates": [14.0736683, 49.962178]}, "properties": {"barrier": "bar", "motor_vehicle": "no", "ref:zabaged": "54145326126202880", "zabaged_typ": "Trvalá zábrana", "in_osm_30m": false}}, {"type": "Feature", "geometry": {"type": "Point", "coordinates": [14.0523932, 49.9551816]}, "properties": {"barrier": "bar", "motor_vehicle": "no", "ref:zabaged": "66024796470640640", "zabaged_typ": "Trvalá zábrana", "in_osm_30m": false}}]}