{"type":"FeatureCollection","features":[{"type":"Feature","geometry":{"type":"Point","coordinates":[14.971642,50.60612]},"properties":{"fid_zbg":"2819143","in_osm":false,"proposed:natural":"stone or rock (mapper chooses)"}},{"type":"Feature","geometry":{"type":"Point","coordinates":[15.225223,50.525614]},"properties":{"fid_zbg":"5928737187037184","in_osm":false,"proposed:natural":"stone or rock (mapper chooses)"}},{"type":"Feature","geometry":{"type":"Point","coordinates":[15.317851,50.680669]},"properties":{"fid_zbg":"15988928","in_osm":false,"proposed:natural":"stone or rock (mapper chooses)"}},{"type":"Feature","geometry":{"type":"Point","coordinates":[15.170725,50.624428]},"properties":{"fid_zbg":"15988832","osm_dist_m":1197,"in_osm":false,"proposed:natural":"stone or rock (mapper chooses)"}},{"type":"Feature","geometry":{"type":"Point","coordinates":[15.118841,50.514962]},"properties":{"fid_zbg":"15988883","osm_dist_m":526,"in_osm":false,"proposed:natural":"stone or rock (mapper chooses)"}},{"type":"Feature","geometry":{"type":"Point","coordinates":[15.05233,50.51765]},"properties":{"fid_zbg":"15988863","osm_dist_m":189,"in_osm":false,"proposed:natural":"stone or rock (mapper chooses)"}},{"type":"Feature","geometry":{"type":"Point","coordinates":[15.256617,50.653016]},"properties":{"fid_zbg":"4321051773239296","osm_dist_m":274,"in_osm":false,"proposed:natural":"stone or rock (mapper chooses)"}},{"type":"Feature","geometry":{"type":"Point","coordinates":[15.181507,50.633566]},"properties":{"fid_zbg":"15988757","osm_dist_m":201,"in_osm":false,"proposed:natural":"stone or rock (mapper chooses)"}},{"type":"Feature","geometry":{"type":"Point","coordinates":[15.256405,50.665264]},"properties":{"fid_zbg":"15988745","osm_dist_m":660,"in_osm":false,"proposed:natural":"stone or rock (mapper chooses)"}},{"type":"Feature","geometry":{"type":"Point","coordinates":[15.21886,50.593657]},"properties":{"fid_zbg":"15988609","in_osm":false,"proposed:natural":"stone or rock (mapper chooses)"}},{"type":"Feature","geometry":{"type":"Point","coordinates":[15.305517,50.622342]},"properties":{"fid_zbg":"4414764285427712","osm_dist_m":250,"in_osm":false,"proposed:natural":"stone or rock (mapper chooses)"}},{"type":"Feature","geometry":{"type":"Point","coordinates":[15.320997,50.681621]},"properties":{"fid_zbg":"15988933","in_osm":false,"proposed:natural":"stone or rock (mapper chooses)"}},{"type":"Feature","geometry":{"type":"Point","coordinates":[15.308269,50.682675]},"properties":{"fid_zbg":"15988650","in_osm":false,"proposed:natural":"stone or rock (mapper chooses)"}},{"type":"Feature","geometry":{"type":"Point","coordinates":[15.190024,50.551145]},"properties":{"fid_zbg":"15988858","osm_dist_m":877,"in_osm":false,"proposed:natural":"stone or rock (mapper chooses)"}},{"type":"Feature","geometry":{"type":"Point","coordinates":[15.289132,50.467273]},"properties":{"fid_zbg":"5917698114453504","osm_dist_m":41,"in_osm":true,"proposed:natural":"stone or rock (mapper chooses)"}},{"type":"Feature","geometry":{"type":"Point","coordinates":[15.082177,50.513888]},"properties":{"fid_zbg":"15988872","osm_dist_m":1291,"in_osm":false,"proposed:natural":"stone or rock (mapper chooses)"}},{"type":"Feature","geometry":{"type":"Point","coordinates":[15.082673,50.525845]},"properties":{"fid_zbg":"16384110326972416","jmeno":"Salvátor","osm_dist_m":263,"in_osm":false,"proposed:natural":"stone or rock (mapper chooses)","proposed:name":"Salvátor"}},{"type":"Feature","geometry":{"type":"Point","coordinates":[15.214339,50.665719]},"properties":{"fid_zbg":"4330010202603520","in_osm":false,"proposed:natural":"stone or rock (mapper chooses)"}},{"type":"Feature","geometry":{"type":"Point","coordinates":[15.259027,50.678958]},"properties":{"fid_zbg":"15988741","osm_dist_m":1617,"in_osm":false,"proposed:natural":"stone or rock (mapper chooses)"}},{"type":"Feature","geometry":{"type":"Point","coordinates":[15.320104,50.693654]},"properties":{"fid_zbg":"15988631","in_osm":false,"proposed:natural":"stone or rock (mapper chooses)"}},{"type":"Feature","geometry":{"type":"Point","coordinates":[15.310997,50.629103]},"properties":{"fid_zbg":"1043389155903147","jmeno":"Myší skála","osm_dist_m":802,"in_osm":false,"proposed:natural":"stone or rock (mapper chooses)","proposed:name":"Myší skála"}},{"type":"Feature","geometry":{"type":"Point","coordinates":[15.178232,50.55217]},"properties":{"fid_zbg":"34625642645422080","jmeno":"Kapelník","osm_dist_m":649,"in_osm":false,"proposed:natural":"stone or rock (mapper chooses)","proposed:name":"Kapelník"}},{"type":"Feature","geometry":{"type":"Point","coordinates":[15.142721,50.495165]},"properties":{"fid_zbg":"15988898","in_osm":false,"proposed:natural":"stone or rock (mapper chooses)"}},{"type":"Feature","geometry":{"type":"Point","coordinates":[15.256597,50.652187]},"properties":{"fid_zbg":"4320103407550464","osm_dist_m":186,"in_osm":false,"proposed:natural":"stone or rock (mapper chooses)"}},{"type":"Feature","geometry":{"type":"Point","coordinates":[15.214582,50.661707]},"properties":{"fid_zbg":"15988749","in_osm":false,"proposed:natural":"stone or rock (mapper chooses)"}},{"type":"Feature","geometry":{"type":"Point","coordinates":[15.061531,50.505338]},"properties":{"fid_zbg":"15988890","osm_dist_m":1696,"in_osm":false,"proposed:natural":"stone or rock (mapper chooses)"}},{"type":"Feature","geometry":{"type":"Point","coordinates":[15.257189,50.660365]},"properties":{"fid_zbg":"15988754","osm_dist_m":791,"in_osm":false,"proposed:natural":"stone or rock (mapper chooses)"}},{"type":"Feature","geometry":{"type":"Point","coordinates":[15.27176,50.482226]},"properties":{"fid_zbg":"5916316309389312","osm_dist_m":543,"in_osm":false,"proposed:natural":"stone or rock (mapper chooses)"}},{"type":"Feature","geometry":{"type":"Point","coordinates":[15.314465,50.681013]},"properties":{"fid_zbg":"15988655","in_osm":false,"proposed:natural":"stone or rock (mapper chooses)"}},{"type":"Feature","geometry":{"type":"Point","coordinates":[15.311558,50.678952]},"properties":{"fid_zbg":"15988941","in_osm":false,"proposed:natural":"stone or rock (mapper chooses)"}},{"type":"Feature","geometry":{"type":"Point","coordinates":[15.328277,50.467192]},"properties":{"fid_zbg":"4688767008899072","in_osm":false,"proposed:natural":"stone or rock (mapper chooses)"}},{"type":"Feature","geometry":{"type":"Point","coordinates":[15.278002,50.46215]},"properties":{"fid_zbg":"5917923868672000","osm_dist_m":148,"in_osm":false,"proposed:natural":"stone or rock (mapper chooses)"}},{"type":"Feature","geometry":{"type":"Point","coordinates":[15.085569,50.497017]},"properties":{"fid_zbg":"15988889","osm_dist_m":74,"in_osm":false,"proposed:natural":"stone or rock (mapper chooses)"}},{"type":"Feature","geometry":{"type":"Point","coordinates":[15.245377,50.536681]},"properties":{"fid_zbg":"45502246749732864","jmeno":"Želva","osm_dist_m":2,"in_osm":true,"proposed:natural":"stone or rock (mapper chooses)","proposed:name":"Želva"}},{"type":"Feature","geometry":{"type":"Point","coordinates":[15.289238,50.466755]},"properties":{"fid_zbg":"45502269348642816","jmeno":"Krakonoš","osm_dist_m":80,"in_osm":false,"proposed:natural":"stone or rock (mapper chooses)","proposed:name":"Krakonoš"}},{"type":"Feature","geometry":{"type":"Point","coordinates":[15.219913,50.599559]},"properties":{"fid_zbg":"45502290555043840","jmeno":"Radnice","in_osm":false,"proposed:natural":"stone or rock (mapper chooses)","proposed:name":"Radnice"}},{"type":"Feature","geometry":{"type":"Point","coordinates":[15.220847,50.597724]},"properties":{"fid_zbg":"45502296712282112","jmeno":"Džbán","in_osm":false,"proposed:natural":"stone or rock (mapper chooses)","proposed:name":"Džbán"}},{"type":"Feature","geometry":{"type":"Point","coordinates":[15.213003,50.604749]},"properties":{"fid_zbg":"45502300386492416","jmeno":"Růženčina věž","in_osm":false,"proposed:natural":"stone or rock (mapper chooses)","proposed:name":"Růženčina věž"}},{"type":"Feature","geometry":{"type":"Point","coordinates":[15.171555,50.56148]},"properties":{"fid_zbg":"45502336121962496","jmeno":"Kočičí hlava","osm_dist_m":1215,"in_osm":false,"proposed:natural":"stone or rock (mapper chooses)","proposed:name":"Kočičí hlava"}},{"type":"Feature","geometry":{"type":"Point","coordinates":[15.315466,50.681227]},"properties":{"fid_zbg":"15988657","in_osm":false,"proposed:natural":"stone or rock (mapper chooses)"}},{"type":"Feature","geometry":{"type":"Point","coordinates":[15.141844,50.51129]},"properties":{"fid_zbg":"5111158704963584","in_osm":false,"proposed:natural":"stone or rock (mapper chooses)"}},{"type":"Feature","geometry":{"type":"Point","coordinates":[15.322224,50.691403]},"properties":{"fid_zbg":"15988637","in_osm":false,"proposed:natural":"stone or rock (mapper chooses)"}},{"type":"Feature","geometry":{"type":"Point","coordinates":[15.324626,50.667791]},"properties":{"fid_zbg":"10888523","in_osm":false,"proposed:natural":"stone or rock (mapper chooses)"}},{"type":"Feature","geometry":{"type":"Point","coordinates":[15.267766,50.673388]},"properties":{"fid_zbg":"15988743","osm_dist_m":941,"in_osm":false,"proposed:natural":"stone or rock (mapper chooses)"}},{"type":"Feature","geometry":{"type":"Point","coordinates":[15.079737,50.514961]},"properties":{"fid_zbg":"15988870","osm_dist_m":1154,"in_osm":false,"proposed:natural":"stone or rock (mapper chooses)"}},{"type":"Feature","geometry":{"type":"Point","coordinates":[15.210658,50.656416]},"properties":{"fid_zbg":"15988753","in_osm":false,"proposed:natural":"stone or rock (mapper chooses)"}},{"type":"Feature","geometry":{"type":"Point","coordinates":[15.320184,50.681116]},"properties":{"fid_zbg":"15988663","in_osm":false,"proposed:natural":"stone or rock (mapper chooses)"}},{"type":"Feature","geometry":{"type":"Point","coordinates":[15.317882,50.681018]},"properties":{"fid_zbg":"15988929","in_osm":false,"proposed:natural":"stone or rock (mapper chooses)"}},{"type":"Feature","geometry":{"type":"Point","coordinates":[15.321695,50.692141]},"properties":{"fid_zbg":"15988634","in_osm":false,"proposed:natural":"stone or rock (mapper chooses)"}},{"type":"Feature","geometry":{"type":"Point","coordinates":[15.324776,50.686057]},"properties":{"fid_zbg":"10888521","in_osm":false,"proposed:natural":"stone or rock (mapper chooses)"}},{"type":"Feature","geometry":{"type":"Point","coordinates":[15.207979,50.630638]},"properties":{"fid_zbg":"15988829","osm_dist_m":422,"in_osm":false,"proposed:natural":"stone or rock (mapper chooses)"}},{"type":"Feature","geometry":{"type":"Point","coordinates":[15.316268,50.67942]},"properties":{"fid_zbg":"15988937","in_osm":false,"proposed:natural":"stone or rock (mapper chooses)"}},{"type":"Feature","geometry":{"type":"Point","coordinates":[15.273169,50.464987]},"properties":{"fid_zbg":"5917925479284736","osm_dist_m":283,"in_osm":false,"proposed:natural":"stone or rock (mapper chooses)"}},{"type":"Feature","geometry":{"type":"Point","coordinates":[15.27245,50.48404]},"properties":{"fid_zbg":"5916315302756352","osm_dist_m":703,"in_osm":false,"proposed:natural":"stone or rock (mapper chooses)"}},{"type":"Feature","geometry":{"type":"Point","coordinates":[15.320661,50.693593]},"properties":{"fid_zbg":"15988632","in_osm":false,"proposed:natural":"stone or rock (mapper chooses)"}},{"type":"Feature","geometry":{"type":"Point","coordinates":[15.12606,50.525488]},"properties":{"fid_zbg":"15988884","osm_dist_m":394,"in_osm":false,"proposed:natural":"stone or rock (mapper chooses)"}},{"type":"Feature","geometry":{"type":"Point","coordinates":[15.1128,50.522768]},"properties":{"fid_zbg":"15988881","osm_dist_m":180,"in_osm":false,"proposed:natural":"stone or rock (mapper chooses)"}},{"type":"Feature","geometry":{"type":"Point","coordinates":[15.3163,50.68171]},"properties":{"fid_zbg":"15988658","in_osm":false,"proposed:natural":"stone or rock (mapper chooses)"}},{"type":"Feature","geometry":{"type":"Point","coordinates":[15.273886,50.484419]},"properties":{"fid_zbg":"5916318574313472","osm_dist_m":717,"in_osm":false,"proposed:natural":"stone or rock (mapper chooses)"}},{"type":"Feature","geometry":{"type":"Point","coordinates":[15.294098,50.468267]},"properties":{"fid_zbg":"5917706519838720","osm_dist_m":277,"in_osm":false,"proposed:natural":"stone or rock (mapper chooses)"}},{"type":"Feature","geometry":{"type":"Point","coordinates":[15.279363,50.46409]},"properties":{"fid_zbg":"5917925227626496","osm_dist_m":88,"in_osm":false,"proposed:natural":"stone or rock (mapper chooses)"}},{"type":"Feature","geometry":{"type":"Point","coordinates":[15.317052,50.677311]},"properties":{"fid_zbg":"15988939","in_osm":false,"proposed:natural":"stone or rock (mapper chooses)"}},{"type":"Feature","geometry":{"type":"Point","coordinates":[15.317606,50.683038]},"properties":{"fid_zbg":"15988660","in_osm":false,"proposed:natural":"stone or rock (mapper chooses)"}},{"type":"Feature","geometry":{"type":"Point","coordinates":[15.255607,50.653337]},"properties":{"fid_zbg":"4321052075229184","osm_dist_m":329,"in_osm":false,"proposed:natural":"stone or rock (mapper chooses)"}},{"type":"Feature","geometry":{"type":"Point","coordinates":[15.274494,50.464693]},"properties":{"fid_zbg":"5917925428953088","osm_dist_m":256,"in_osm":false,"proposed:natural":"stone or rock (mapper chooses)"}},{"type":"Feature","geometry":{"type":"Point","coordinates":[15.278198,50.467196]},"properties":{"fid_zbg":"5917927190560768","osm_dist_m":16,"in_osm":true,"proposed:natural":"stone or rock (mapper chooses)"}},{"type":"Feature","geometry":{"type":"Point","coordinates":[15.275072,50.478655]},"properties":{"fid_zbg":"5918044966617088","osm_dist_m":85,"in_osm":false,"proposed:natural":"stone or rock (mapper chooses)"}},{"type":"Feature","geometry":{"type":"Point","coordinates":[15.209389,50.65656]},"properties":{"fid_zbg":"15988748","in_osm":false,"proposed:natural":"stone or rock (mapper chooses)"}},{"type":"Feature","geometry":{"type":"Point","coordinates":[15.235595,50.645467]},"properties":{"fid_zbg":"15988840","in_osm":false,"proposed:natural":"stone or rock (mapper chooses)"}},{"type":"Feature","geometry":{"type":"Point","coordinates":[15.337887,50.681566]},"properties":{"fid_zbg":"4907324237938688","in_osm":false,"proposed:natural":"stone or rock (mapper chooses)"}},{"type":"Feature","geometry":{"type":"Point","coordinates":[15.322505,50.466687]},"properties":{"fid_zbg":"51164987552432128","in_osm":false,"proposed:natural":"stone or rock (mapper chooses)"}},{"type":"Feature","geometry":{"type":"Point","coordinates":[15.121326,50.498634]},"properties":{"fid_zbg":"15988896","in_osm":false,"proposed:natural":"stone or rock (mapper chooses)"}},{"type":"Feature","geometry":{"type":"Point","coordinates":[15.302553,50.659548]},"properties":{"fid_zbg":"15988952","in_osm":false,"proposed:natural":"stone or rock (mapper chooses)"}},{"type":"Feature","geometry":{"type":"Point","coordinates":[15.310416,50.685526]},"properties":{"fid_zbg":"15988645","in_osm":false,"proposed:natural":"stone or rock (mapper chooses)"}},{"type":"Feature","geometry":{"type":"Point","coordinates":[15.120248,50.663919]},"properties":{"fid_zbg":"15988737","osm_dist_m":646,"in_osm":false,"proposed:natural":"stone or rock (mapper chooses)"}},{"type":"Feature","geometry":{"type":"Point","coordinates":[15.271276,50.483158]},"properties":{"fid_zbg":"5916315957067776","osm_dist_m":649,"in_osm":false,"proposed:natural":"stone or rock (mapper chooses)"}},{"type":"Feature","geometry":{"type":"Point","coordinates":[15.270472,50.487272]},"properties":{"fid_zbg":"5916313994133504","osm_dist_m":1087,"in_osm":false,"proposed:natural":"stone or rock (mapper chooses)"}},{"type":"Feature","geometry":{"type":"Point","coordinates":[15.026861,50.689641]},"properties":{"fid_zbg":"15988992","in_osm":false,"proposed:natural":"stone or rock (mapper chooses)"}},{"type":"Feature","geometry":{"type":"Point","coordinates":[15.219496,50.59418]},"properties":{"fid_zbg":"15988608","in_osm":false,"proposed:natural":"stone or rock (mapper chooses)"}},{"type":"Feature","geometry":{"type":"Point","coordinates":[15.314974,50.681526]},"properties":{"fid_zbg":"15988656","in_osm":false,"proposed:natural":"stone or rock (mapper chooses)"}},{"type":"Feature","geometry":{"type":"Point","coordinates":[15.308139,50.678448]},"properties":{"fid_zbg":"15988944","in_osm":false,"proposed:natural":"stone or rock (mapper chooses)"}},{"type":"Feature","geometry":{"type":"Point","coordinates":[15.322156,50.68176]},"properties":{"fid_zbg":"15988951","in_osm":false,"proposed:natural":"stone or rock (mapper chooses)"}},{"type":"Feature","geometry":{"type":"Point","coordinates":[15.20099,50.687783]},"properties":{"fid_zbg":"15988733","in_osm":false,"proposed:natural":"stone or rock (mapper chooses)"}},{"type":"Feature","geometry":{"type":"Point","coordinates":[15.319141,50.691683]},"properties":{"fid_zbg":"15988638","in_osm":false,"proposed:natural":"stone or rock (mapper chooses)"}},{"type":"Feature","geometry":{"type":"Point","coordinates":[15.228639,50.625771]},"properties":{"fid_zbg":"15988847","in_osm":false,"proposed:natural":"stone or rock (mapper chooses)"}},{"type":"Feature","geometry":{"type":"Point","coordinates":[15.257811,50.649615]},"properties":{"fid_zbg":"4320106729439232","osm_dist_m":111,"in_osm":false,"proposed:natural":"stone or rock (mapper chooses)"}},{"type":"Feature","geometry":{"type":"Point","coordinates":[15.227324,50.52443]},"properties":{"fid_zbg":"5928744334131200","in_osm":false,"proposed:natural":"stone or rock (mapper chooses)"}},{"type":"Feature","geometry":{"type":"Point","coordinates":[15.316857,50.690591]},"properties":{"fid_zbg":"15988641","in_osm":false,"proposed:natural":"stone or rock (mapper chooses)"}},{"type":"Feature","geometry":{"type":"Point","coordinates":[15.208561,50.631019]},"properties":{"fid_zbg":"15988762","osm_dist_m":474,"in_osm":false,"proposed:natural":"stone or rock (mapper chooses)"}},{"type":"Feature","geometry":{"type":"Point","coordinates":[15.270557,50.484009]},"properties":{"fid_zbg":"5916315000766464","osm_dist_m":756,"in_osm":false,"proposed:natural":"stone or rock (mapper chooses)"}},{"type":"Feature","geometry":{"type":"Point","coordinates":[15.364872,50.680242]},"properties":{"fid_zbg":"10888526","in_osm":false,"proposed:natural":"stone or rock (mapper chooses)"}},{"type":"Feature","geometry":{"type":"Point","coordinates":[15.252676,50.586985]},"properties":{"fid_zbg":"15988853","osm_dist_m":960,"in_osm":false,"proposed:natural":"stone or rock (mapper chooses)"}},{"type":"Feature","geometry":{"type":"Point","coordinates":[15.222632,50.522716]},"properties":{"fid_zbg":"5928970994319360","in_osm":false,"proposed:natural":"stone or rock (mapper chooses)"}},{"type":"Feature","geometry":{"type":"Point","coordinates":[15.207042,50.630088]},"properties":{"fid_zbg":"15988830","osm_dist_m":350,"in_osm":false,"proposed:natural":"stone or rock (mapper chooses)"}},{"type":"Feature","geometry":{"type":"Point","coordinates":[15.206741,50.62536]},"properties":{"fid_zbg":"15988837","osm_dist_m":176,"in_osm":false,"proposed:natural":"stone or rock (mapper chooses)"}},{"type":"Feature","geometry":{"type":"Point","coordinates":[15.342193,50.678785]},"properties":{"fid_zbg":"10888525","in_osm":false,"proposed:natural":"stone or rock (mapper chooses)"}},{"type":"Feature","geometry":{"type":"Point","coordinates":[15.119731,50.664129]},"properties":{"fid_zbg":"15988736","osm_dist_m":687,"in_osm":false,"proposed:natural":"stone or rock (mapper chooses)"}},{"type":"Feature","geometry":{"type":"Point","coordinates":[15.314005,50.68171]},"properties":{"fid_zbg":"15988653","in_osm":false,"proposed:natural":"stone or rock (mapper chooses)"}},{"type":"Feature","geometry":{"type":"Point","coordinates":[14.933896,50.655267]},"properties":{"fid_zbg":"2819202","in_osm":false,"proposed:natural":"stone or rock (mapper chooses)"}},{"type":"Feature","geometry":{"type":"Point","coordinates":[15.221952,50.59247]},"properties":{"fid_zbg":"15988855","in_osm":false,"proposed:natural":"stone or rock (mapper chooses)"}},{"type":"Feature","geometry":{"type":"Point","coordinates":[15.280262,50.463055]},"properties":{"fid_zbg":"5917923969335296","osm_dist_m":39,"in_osm":true,"proposed:natural":"stone or rock (mapper chooses)"}},{"type":"Feature","geometry":{"type":"Point","coordinates":[15.255629,50.664588]},"properties":{"fid_zbg":"15988744","osm_dist_m":716,"in_osm":false,"proposed:natural":"stone or rock (mapper chooses)"}},{"type":"Feature","geometry":{"type":"Point","coordinates":[15.317672,50.677552]},"properties":{"fid_zbg":"15988938","in_osm":false,"proposed:natural":"stone or rock (mapper chooses)"}},{"type":"Feature","geometry":{"type":"Point","coordinates":[15.316322,50.690542]},"properties":{"fid_zbg":"15988640","in_osm":false,"proposed:natural":"stone or rock (mapper chooses)"}},{"type":"Feature","geometry":{"type":"Point","coordinates":[15.28336,50.460966]},"properties":{"fid_zbg":"5917923365355520","osm_dist_m":293,"in_osm":false,"proposed:natural":"stone or rock (mapper chooses)"}},{"type":"Feature","geometry":{"type":"Point","coordinates":[15.279423,50.474163]},"properties":{"fid_zbg":"5918053925650432","osm_dist_m":352,"in_osm":false,"proposed:natural":"stone or rock (mapper chooses)"}},{"type":"Feature","geometry":{"type":"Point","coordinates":[15.208791,50.631414]},"properties":{"fid_zbg":"15988761","osm_dist_m":521,"in_osm":false,"proposed:natural":"stone or rock (mapper chooses)"}},{"type":"Feature","geometry":{"type":"Point","coordinates":[15.111115,50.689606]},"properties":{"fid_zbg":"15988735","in_osm":false,"proposed:natural":"stone or rock (mapper chooses)"}},{"type":"Feature","geometry":{"type":"Point","coordinates":[15.305609,50.677285]},"properties":{"fid_zbg":"4397683452149760","in_osm":false,"proposed:natural":"stone or rock (mapper chooses)"}},{"type":"Feature","geometry":{"type":"Point","coordinates":[15.281233,50.475931]},"properties":{"fid_zbg":"5916260458037248","osm_dist_m":450,"in_osm":false,"proposed:natural":"stone or rock (mapper chooses)"}},{"type":"Feature","geometry":{"type":"Point","coordinates":[15.282673,50.461676]},"properties":{"fid_zbg":"5917923566682112","osm_dist_m":202,"in_osm":false,"proposed:natural":"stone or rock (mapper chooses)"}},{"type":"Feature","geometry":{"type":"Point","coordinates":[15.28292,50.467332]},"properties":{"fid_zbg":"5917927895203840","osm_dist_m":11,"in_osm":true,"proposed:natural":"stone or rock (mapper chooses)"}},{"type":"Feature","geometry":{"type":"Point","coordinates":[15.319322,50.648865]},"properties":{"fid_zbg":"15988953","in_osm":false,"proposed:natural":"stone or rock (mapper chooses)"}},{"type":"Feature","geometry":{"type":"Point","coordinates":[15.283677,50.46725]},"properties":{"fid_zbg":"5917928247525376","osm_dist_m":1,"in_osm":true,"proposed:natural":"stone or rock (mapper chooses)"}},{"type":"Feature","geometry":{"type":"Point","coordinates":[15.288633,50.468096]},"properties":{"fid_zbg":"5918057650192384","osm_dist_m":87,"in_osm":false,"proposed:natural":"stone or rock (mapper chooses)"}},{"type":"Feature","geometry":{"type":"Point","coordinates":[15.222881,50.583902]},"properties":{"fid_zbg":"15988854","in_osm":false,"proposed:natural":"stone or rock (mapper chooses)"}},{"type":"Feature","geometry":{"type":"Point","coordinates":[15.091358,50.673321]},"properties":{"fid_zbg":"15988734","osm_dist_m":464,"in_osm":false,"proposed:natural":"stone or rock (mapper chooses)"}},{"type":"Feature","geometry":{"type":"Point","coordinates":[15.313629,50.683106]},"properties":{"fid_zbg":"15988950","in_osm":false,"proposed:natural":"stone or rock (mapper chooses)"}},{"type":"Feature","geometry":{"type":"Point","coordinates":[15.26897,50.646006]},"properties":{"fid_zbg":"15988846","osm_dist_m":962,"in_osm":false,"proposed:natural":"stone or rock (mapper chooses)"}},{"type":"Feature","geometry":{"type":"Point","coordinates":[15.275978,50.462321]},"properties":{"fid_zbg":"5917931418419200","osm_dist_m":240,"in_osm":false,"proposed:natural":"stone or rock (mapper chooses)"}},{"type":"Feature","geometry":{"type":"Point","coordinates":[15.265879,50.664809]},"properties":{"fid_zbg":"15988747","osm_dist_m":20,"in_osm":true,"proposed:natural":"stone or rock (mapper chooses)"}},{"type":"Feature","geometry":{"type":"Point","coordinates":[15.257172,50.650861]},"properties":{"fid_zbg":"4320103508213760","osm_dist_m":34,"in_osm":true,"proposed:natural":"stone or rock (mapper chooses)"}},{"type":"Feature","geometry":{"type":"Point","coordinates":[15.309858,50.626434]},"properties":{"fid_zbg":"4414763429789696","osm_dist_m":556,"in_osm":false,"proposed:natural":"stone or rock (mapper chooses)"}},{"type":"Feature","geometry":{"type":"Point","coordinates":[15.289205,50.467598]},"properties":{"fid_zbg":"5917823087935488","osm_dist_m":34,"in_osm":true,"proposed:natural":"stone or rock (mapper chooses)"}},{"type":"Feature","geometry":{"type":"Point","coordinates":[15.28958,50.467927]},"properties":{"fid_zbg":"5917698013790208","osm_dist_m":29,"in_osm":true,"proposed:natural":"stone or rock (mapper chooses)"}},{"type":"Feature","geometry":{"type":"Point","coordinates":[15.223006,50.522458]},"properties":{"fid_zbg":"5928971044651008","in_osm":false,"proposed:natural":"stone or rock (mapper chooses)"}},{"type":"Feature","geometry":{"type":"Point","coordinates":[15.313048,50.68138]},"properties":{"fid_zbg":"15988654","in_osm":false,"proposed:natural":"stone or rock (mapper chooses)"}},{"type":"Feature","geometry":{"type":"Point","coordinates":[15.296029,50.46682]},"properties":{"fid_zbg":"5917854612324352","osm_dist_m":452,"in_osm":false,"proposed:natural":"stone or rock (mapper chooses)"}},{"type":"Feature","geometry":{"type":"Point","coordinates":[15.308991,50.679512]},"properties":{"fid_zbg":"15988651","in_osm":false,"proposed:natural":"stone or rock (mapper chooses)"}},{"type":"Feature","geometry":{"type":"Point","coordinates":[15.314395,50.683176]},"properties":{"fid_zbg":"15988949","in_osm":false,"proposed:natural":"stone or rock (mapper chooses)"}},{"type":"Feature","geometry":{"type":"Point","coordinates":[15.309838,50.684739]},"properties":{"fid_zbg":"15988648","in_osm":false,"proposed:natural":"stone or rock (mapper chooses)"}},{"type":"Feature","geometry":{"type":"Point","coordinates":[15.28309,50.467613]},"properties":{"fid_zbg":"5917928499183616","osm_dist_m":23,"in_osm":true,"proposed:natural":"stone or rock (mapper chooses)"}},{"type":"Feature","geometry":{"type":"Point","coordinates":[15.240158,50.643013]},"properties":{"fid_zbg":"15988844","osm_dist_m":1476,"in_osm":false,"proposed:natural":"stone or rock (mapper chooses)"}},{"type":"Feature","geometry":{"type":"Point","coordinates":[15.273383,50.668002]},"properties":{"fid_zbg":"15988946","osm_dist_m":634,"in_osm":false,"proposed:natural":"stone or rock (mapper chooses)"}},{"type":"Feature","geometry":{"type":"Point","coordinates":[15.257331,50.649577]},"properties":{"fid_zbg":"4320106679107584","osm_dist_m":111,"in_osm":false,"proposed:natural":"stone or rock (mapper chooses)"}},{"type":"Feature","geometry":{"type":"Point","coordinates":[15.315093,50.677117]},"properties":{"fid_zbg":"15988940","in_osm":false,"proposed:natural":"stone or rock (mapper chooses)"}},{"type":"Feature","geometry":{"type":"Point","coordinates":[15.30989,50.684306]},"properties":{"fid_zbg":"15988649","in_osm":false,"proposed:natural":"stone or rock (mapper chooses)"}},{"type":"Feature","geometry":{"type":"Point","coordinates":[15.113391,50.522748]},"properties":{"fid_zbg":"15988882","osm_dist_m":221,"in_osm":false,"proposed:natural":"stone or rock (mapper chooses)"}},{"type":"Feature","geometry":{"type":"Point","coordinates":[15.170942,50.624077]},"properties":{"fid_zbg":"15988833","osm_dist_m":1224,"in_osm":false,"proposed:natural":"stone or rock (mapper chooses)"}},{"type":"Feature","geometry":{"type":"Point","coordinates":[15.272098,50.482425]},"properties":{"fid_zbg":"5916316561047552","osm_dist_m":550,"in_osm":false,"proposed:natural":"stone or rock (mapper chooses)"}},{"type":"Feature","geometry":{"type":"Point","coordinates":[15.228177,50.524458]},"properties":{"fid_zbg":"5928744384462848","in_osm":false,"proposed:natural":"stone or rock (mapper chooses)"}},{"type":"Feature","geometry":{"type":"Point","coordinates":[15.310413,50.679095]},"properties":{"fid_zbg":"15988942","in_osm":false,"proposed:natural":"stone or rock (mapper chooses)"}},{"type":"Feature","geometry":{"type":"Point","coordinates":[15.139551,50.510951]},"properties":{"fid_zbg":"5111158604300288","osm_dist_m":1317,"in_osm":false,"proposed:natural":"stone or rock (mapper chooses)"}},{"type":"Feature","geometry":{"type":"Point","coordinates":[15.189483,50.551173]},"properties":{"fid_zbg":"15988859","osm_dist_m":870,"in_osm":false,"proposed:natural":"stone or rock (mapper chooses)"}},{"type":"Feature","geometry":{"type":"Point","coordinates":[15.322045,50.692564]},"properties":{"fid_zbg":"15988633","in_osm":false,"proposed:natural":"stone or rock (mapper chooses)"}},{"type":"Feature","geometry":{"type":"Point","coordinates":[15.272844,50.483285]},"properties":{"fid_zbg":"5916317869670400","osm_dist_m":615,"in_osm":false,"proposed:natural":"stone or rock (mapper chooses)"}},{"type":"Feature","geometry":{"type":"Point","coordinates":[15.168716,50.514419]},"properties":{"fid_zbg":"15988885","jmeno":"Pekařova brána","in_osm":false,"proposed:natural":"stone or rock (mapper chooses)","proposed:name":"Pekařova brána"}},{"type":"Feature","geometry":{"type":"Point","coordinates":[15.280337,50.474918]},"properties":{"fid_zbg":"5916261112348672","osm_dist_m":455,"in_osm":false,"proposed:natural":"stone or rock (mapper chooses)"}},{"type":"Feature","geometry":{"type":"Point","coordinates":[15.318305,50.683342]},"properties":{"fid_zbg":"15988661","in_osm":false,"proposed:natural":"stone or rock (mapper chooses)"}},{"type":"Feature","geometry":{"type":"Point","coordinates":[15.270745,50.48325]},"properties":{"fid_zbg":"5916315906736128","osm_dist_m":677,"in_osm":false,"proposed:natural":"stone or rock (mapper chooses)"}},{"type":"Feature","geometry":{"type":"Point","coordinates":[15.275265,50.483093]},"properties":{"fid_zbg":"5916319983599616","osm_dist_m":558,"in_osm":false,"proposed:natural":"stone or rock (mapper chooses)"}},{"type":"Feature","geometry":{"type":"Point","coordinates":[15.271366,50.484016]},"properties":{"fid_zbg":"5916315101429760","osm_dist_m":730,"in_osm":false,"proposed:natural":"stone or rock (mapper chooses)"}},{"type":"Feature","geometry":{"type":"Point","coordinates":[15.176762,50.552331]},"properties":{"fid_zbg":"34625642595090432","osm_dist_m":609,"in_osm":false,"proposed:natural":"stone or rock (mapper chooses)"}},{"type":"Feature","geometry":{"type":"Point","coordinates":[15.181966,50.633581]},"properties":{"fid_zbg":"15988758","osm_dist_m":233,"in_osm":false,"proposed:natural":"stone or rock (mapper chooses)"}},{"type":"Feature","geometry":{"type":"Point","coordinates":[15.316636,50.691992]},"properties":{"fid_zbg":"15988639","in_osm":false,"proposed:natural":"stone or rock (mapper chooses)"}},{"type":"Feature","geometry":{"type":"Point","coordinates":[15.065713,50.513328]},"properties":{"fid_zbg":"15988875","osm_dist_m":1193,"in_osm":false,"proposed:natural":"stone or rock (mapper chooses)"}},{"type":"Feature","geometry":{"type":"Point","coordinates":[15.262776,50.644161]},"properties":{"fid_zbg":"4322975448825856","osm_dist_m":806,"in_osm":false,"proposed:natural":"stone or rock (mapper chooses)"}},{"type":"Feature","geometry":{"type":"Point","coordinates":[15.31789,50.687831]},"properties":{"fid_zbg":"15988643","in_osm":false,"proposed:natural":"stone or rock (mapper chooses)"}},{"type":"Feature","geometry":{"type":"Point","coordinates":[15.263606,50.665108]},"properties":{"fid_zbg":"15988746","osm_dist_m":152,"in_osm":false,"proposed:natural":"stone or rock (mapper chooses)"}},{"type":"Feature","geometry":{"type":"Point","coordinates":[15.313748,50.681436]},"properties":{"fid_zbg":"15988652","in_osm":false,"proposed:natural":"stone or rock (mapper chooses)"}},{"type":"Feature","geometry":{"type":"Point","coordinates":[15.061956,50.508495]},"properties":{"fid_zbg":"15988878","osm_dist_m":1402,"in_osm":false,"proposed:natural":"stone or rock (mapper chooses)"}},{"type":"Feature","geometry":{"type":"Point","coordinates":[15.317804,50.682581]},"properties":{"fid_zbg":"15988659","in_osm":false,"proposed:natural":"stone or rock (mapper chooses)"}},{"type":"Feature","geometry":{"type":"Point","coordinates":[15.291967,50.46815]},"properties":{"fid_zbg":"5917705513205760","osm_dist_m":131,"in_osm":false,"proposed:natural":"stone or rock (mapper chooses)"}},{"type":"Feature","geometry":{"type":"Point","coordinates":[15.275484,50.462336]},"properties":{"fid_zbg":"5912255099043840","osm_dist_m":270,"in_osm":false,"proposed:natural":"stone or rock (mapper chooses)"}},{"type":"Feature","geometry":{"type":"Point","coordinates":[15.216428,50.634831]},"properties":{"fid_zbg":"15988839","osm_dist_m":1120,"in_osm":false,"proposed:natural":"stone or rock (mapper chooses)"}},{"type":"Feature","geometry":{"type":"Point","coordinates":[15.284423,50.466991]},"properties":{"fid_zbg":"5917928650178560","osm_dist_m":18,"in_osm":true,"proposed:natural":"stone or rock (mapper chooses)"}},{"type":"Feature","geometry":{"type":"Point","coordinates":[15.318046,50.681538]},"properties":{"fid_zbg":"15988662","in_osm":false,"proposed:natural":"stone or rock (mapper chooses)"}},{"type":"Feature","geometry":{"type":"Point","coordinates":[15.290992,50.467393]},"properties":{"fid_zbg":"5917696503840768","osm_dist_m":90,"in_osm":false,"proposed:natural":"stone or rock (mapper chooses)"}},{"type":"Feature","geometry":{"type":"Point","coordinates":[15.284016,50.4671]},"properties":{"fid_zbg":"5917928348188672","osm_dist_m":11,"in_osm":true,"proposed:natural":"stone or rock (mapper chooses)"}},{"type":"Feature","geometry":{"type":"Point","coordinates":[15.16978,50.624427]},"properties":{"fid_zbg":"15988835","osm_dist_m":1230,"in_osm":false,"proposed:natural":"stone or rock (mapper chooses)"}},{"type":"Feature","geometry":{"type":"Point","coordinates":[15.322219,50.692189]},"properties":{"fid_zbg":"15988635","in_osm":false,"proposed:natural":"stone or rock (mapper chooses)"}},{"type":"Feature","geometry":{"type":"Point","coordinates":[15.21351,50.657496]},"properties":{"fid_zbg":"15988750","in_osm":false,"proposed:natural":"stone or rock (mapper chooses)"}},{"type":"Feature","geometry":{"type":"Point","coordinates":[15.114312,50.666218]},"properties":{"fid_zbg":"15988739","osm_dist_m":1124,"in_osm":false,"proposed:natural":"stone or rock (mapper chooses)"}},{"type":"Feature","geometry":{"type":"Point","coordinates":[15.08156,50.514486]},"properties":{"fid_zbg":"15988871","osm_dist_m":1219,"in_osm":false,"proposed:natural":"stone or rock (mapper chooses)"}},{"type":"Feature","geometry":{"type":"Point","coordinates":[14.904248,50.583741]},"properties":{"fid_zbg":"5204223297847296","in_osm":false,"proposed:natural":"stone or rock (mapper chooses)"}},{"type":"Feature","geometry":{"type":"Point","coordinates":[15.278122,50.473541]},"properties":{"fid_zbg":"5930044903915520","osm_dist_m":258,"in_osm":false,"proposed:natural":"stone or rock (mapper chooses)"}},{"type":"Feature","geometry":{"type":"Point","coordinates":[15.066825,50.508558]},"properties":{"fid_zbg":"15988877","osm_dist_m":1602,"in_osm":false,"proposed:natural":"stone or rock (mapper chooses)"}},{"type":"Feature","geometry":{"type":"Point","coordinates":[15.126124,50.528745]},"properties":{"fid_zbg":"15988880","osm_dist_m":72,"in_osm":false,"proposed:natural":"stone or rock (mapper chooses)"}},{"type":"Feature","geometry":{"type":"Point","coordinates":[15.321937,50.691158]},"properties":{"fid_zbg":"15988636","in_osm":false,"proposed:natural":"stone or rock (mapper chooses)"}},{"type":"Feature","geometry":{"type":"Point","coordinates":[15.191104,50.622911]},"properties":{"fid_zbg":"1963722062956203","osm_dist_m":967,"in_osm":false,"proposed:natural":"stone or rock (mapper chooses)"}},{"type":"Feature","geometry":{"type":"Point","coordinates":[15.232597,50.646283]},"properties":{"fid_zbg":"15988842","in_osm":false,"proposed:natural":"stone or rock (mapper chooses)"}},{"type":"Feature","geometry":{"type":"Point","coordinates":[15.289918,50.46795]},"properties":{"fid_zbg":"5918063740321792","osm_dist_m":29,"in_osm":true,"proposed:natural":"stone or rock (mapper chooses)"}},{"type":"Feature","geometry":{"type":"Point","coordinates":[14.975031,50.602249]},"properties":{"fid_zbg":"6011775161991168","in_osm":false,"proposed:natural":"stone or rock (mapper chooses)"}},{"type":"Feature","geometry":{"type":"Point","coordinates":[15.242204,50.542076]},"properties":{"fid_zbg":"15988888","osm_dist_m":636,"in_osm":false,"proposed:natural":"stone or rock (mapper chooses)"}},{"type":"Feature","geometry":{"type":"Point","coordinates":[15.120684,50.663788]},"properties":{"fid_zbg":"15988738","osm_dist_m":613,"in_osm":false,"proposed:natural":"stone or rock (mapper chooses)"}},{"type":"Feature","geometry":{"type":"Point","coordinates":[15.318456,50.687947]},"properties":{"fid_zbg":"15988644","in_osm":false,"proposed:natural":"stone or rock (mapper chooses)"}},{"type":"Feature","geometry":{"type":"Point","coordinates":[15.31019,50.685995]},"properties":{"fid_zbg":"15988646","in_osm":false,"proposed:natural":"stone or rock (mapper chooses)"}},{"type":"Feature","geometry":{"type":"Point","coordinates":[15.282088,50.467835]},"properties":{"fid_zbg":"5917927844872192","osm_dist_m":74,"in_osm":false,"proposed:natural":"stone or rock (mapper chooses)"}},{"type":"Feature","geometry":{"type":"Point","coordinates":[15.317955,50.679068]},"properties":{"fid_zbg":"15988935","in_osm":false,"proposed:natural":"stone or rock (mapper chooses)"}},{"type":"Feature","geometry":{"type":"Point","coordinates":[15.23681,50.481367]},"properties":{"fid_zbg":"5910763570987008","in_osm":false,"proposed:natural":"stone or rock (mapper chooses)"}},{"type":"Feature","geometry":{"type":"Point","coordinates":[15.208656,50.631705]},"properties":{"fid_zbg":"15988760","osm_dist_m":549,"in_osm":false,"proposed:natural":"stone or rock (mapper chooses)"}},{"type":"Feature","geometry":{"type":"Point","coordinates":[15.290928,50.467267]},"properties":{"fid_zbg":"5917829832376320","osm_dist_m":91,"in_osm":false,"proposed:natural":"stone or rock (mapper chooses)"}},{"type":"Feature","geometry":{"type":"Point","coordinates":[15.316471,50.67907]},"properties":{"fid_zbg":"15988936","in_osm":false,"proposed:natural":"stone or rock (mapper chooses)"}},{"type":"Feature","geometry":{"type":"Point","coordinates":[15.065966,50.51267]},"properties":{"fid_zbg":"15988876","osm_dist_m":1250,"in_osm":false,"proposed:natural":"stone or rock (mapper chooses)"}},{"type":"Feature","geometry":{"type":"Point","coordinates":[15.322204,50.672733]},"properties":{"fid_zbg":"15988945","in_osm":false,"proposed:natural":"stone or rock (mapper chooses)"}},{"type":"Feature","geometry":{"type":"Point","coordinates":[15.321717,50.667995]},"properties":{"fid_zbg":"15988947","in_osm":false,"proposed:natural":"stone or rock (mapper chooses)"}},{"type":"Feature","geometry":{"type":"Point","coordinates":[15.277359,50.474645]},"properties":{"fid_zbg":"5912223591432192","osm_dist_m":375,"in_osm":false,"proposed:natural":"stone or rock (mapper chooses)"}},{"type":"Feature","geometry":{"type":"Point","coordinates":[15.325365,50.688247]},"properties":{"fid_zbg":"10888504","in_osm":false,"proposed:natural":"stone or rock (mapper chooses)"}},{"type":"Feature","geometry":{"type":"Point","coordinates":[15.239935,50.54216]},"properties":{"fid_zbg":"15988887","osm_dist_m":717,"in_osm":false,"proposed:natural":"stone or rock (mapper chooses)"}},{"type":"Feature","geometry":{"type":"Point","coordinates":[15.313448,50.674276]},"properties":{"fid_zbg":"15988948","in_osm":false,"proposed:natural":"stone or rock (mapper chooses)"}},{"type":"Feature","geometry":{"type":"Point","coordinates":[15.27894,50.467063]},"properties":{"fid_zbg":"5917927140229120","osm_dist_m":7,"in_osm":true,"proposed:natural":"stone or rock (mapper chooses)"}},{"type":"Feature","geometry":{"type":"Point","coordinates":[15.117844,50.499781]},"properties":{"fid_zbg":"15988893","osm_dist_m":783,"in_osm":false,"proposed:natural":"stone or rock (mapper chooses)"}},{"type":"Feature","geometry":{"type":"Point","coordinates":[15.219636,50.632041]},"properties":{"fid_zbg":"15988838","osm_dist_m":1087,"in_osm":false,"proposed:natural":"stone or rock (mapper chooses)"}},{"type":"Feature","geometry":{"type":"Point","coordinates":[15.318614,50.689838]},"properties":{"fid_zbg":"15988642","in_osm":false,"proposed:natural":"stone or rock (mapper chooses)"}},{"type":"Feature","geometry":{"type":"Point","coordinates":[15.321787,50.667373]},"properties":{"fid_zbg":"15988647","in_osm":false,"proposed:natural":"stone or rock (mapper chooses)"}},{"type":"Feature","geometry":{"type":"Point","coordinates":[15.214999,50.661095]},"properties":{"fid_zbg":"15988751","in_osm":false,"proposed:natural":"stone or rock (mapper chooses)"}},{"type":"Feature","geometry":{"type":"Point","coordinates":[15.279462,50.475147]},"properties":{"fid_zbg":"5916260911022080","osm_dist_m":413,"in_osm":false,"proposed:natural":"stone or rock (mapper chooses)"}},{"type":"Feature","geometry":{"type":"Point","coordinates":[15.25654,50.668568]},"properties":{"fid_zbg":"4397579970281472","osm_dist_m":762,"in_osm":false,"proposed:natural":"stone or rock (mapper chooses)"}},{"type":"Feature","geometry":{"type":"Point","coordinates":[15.270049,50.486134]},"properties":{"fid_zbg":"5916314044465152","osm_dist_m":982,"in_osm":false,"proposed:natural":"stone or rock (mapper chooses)"}},{"type":"Feature","geometry":{"type":"Point","coordinates":[15.286755,50.467505]},"properties":{"fid_zbg":"5917865030975488","osm_dist_m":29,"in_osm":true,"proposed:natural":"stone or rock (mapper chooses)"}},{"type":"Feature","geometry":{"type":"Point","coordinates":[15.285868,50.467788]},"properties":{"fid_zbg":"5917931217092608","osm_dist_m":64,"in_osm":false,"proposed:natural":"stone or rock (mapper chooses)"}},{"type":"Feature","geometry":{"type":"Point","coordinates":[15.325603,50.675171]},"properties":{"fid_zbg":"10888522","in_osm":false,"proposed:natural":"stone or rock (mapper chooses)"}},{"type":"Feature","geometry":{"type":"Point","coordinates":[15.275576,50.4654]},"properties":{"fid_zbg":"5917924875304960","osm_dist_m":158,"in_osm":false,"proposed:natural":"stone or rock (mapper chooses)"}},{"type":"Feature","geometry":{"type":"Point","coordinates":[15.060573,50.625934]},"properties":{"fid_zbg":"15988756","in_osm":false,"proposed:natural":"stone or rock (mapper chooses)"}},{"type":"Feature","geometry":{"type":"Point","coordinates":[15.270703,50.484293]},"properties":{"fid_zbg":"5916315051098112","osm_dist_m":779,"in_osm":false,"proposed:natural":"stone or rock (mapper chooses)"}},{"type":"Feature","geometry":{"type":"Point","coordinates":[15.373433,50.578408]},"properties":{"fid_zbg":"4891154759811072","in_osm":false,"proposed:natural":"stone or rock (mapper chooses)"}},{"type":"Feature","geometry":{"type":"Point","coordinates":[15.209083,50.632545]},"properties":{"fid_zbg":"15988831","osm_dist_m":646,"in_osm":false,"proposed:natural":"stone or rock (mapper chooses)"}},{"type":"Feature","geometry":{"type":"Point","coordinates":[15.233966,50.509948]},"properties":{"fid_zbg":"5931665280991232","in_osm":false,"proposed:natural":"stone or rock (mapper chooses)"}},{"type":"Feature","geometry":{"type":"Point","coordinates":[15.233364,50.645729]},"properties":{"fid_zbg":"15988843","in_osm":false,"proposed:natural":"stone or rock (mapper chooses)"}},{"type":"Feature","geometry":{"type":"Point","coordinates":[15.280281,50.475351]},"properties":{"fid_zbg":"5918031024750592","osm_dist_m":435,"in_osm":false,"proposed:natural":"stone or rock (mapper chooses)"}},{"type":"Feature","geometry":{"type":"Point","coordinates":[15.325903,50.66542]},"properties":{"fid_zbg":"10888524","in_osm":false,"proposed:natural":"stone or rock (mapper chooses)"}},{"type":"Feature","geometry":{"type":"Point","coordinates":[15.323144,50.688627]},"properties":{"fid_zbg":"10888503","in_osm":false,"proposed:natural":"stone or rock (mapper chooses)"}},{"type":"Feature","geometry":{"type":"Point","coordinates":[15.279839,50.475051]},"properties":{"fid_zbg":"5916261011685376","osm_dist_m":438,"in_osm":false,"proposed:natural":"stone or rock (mapper chooses)"}},{"type":"Feature","geometry":{"type":"Point","coordinates":[14.970864,50.606174]},"properties":{"fid_zbg":"2819142","in_osm":false,"proposed:natural":"stone or rock (mapper chooses)"}},{"type":"Feature","geometry":{"type":"Point","coordinates":[15.299121,50.467355]},"properties":{"fid_zbg":"5918079242469376","osm_dist_m":644,"in_osm":false,"proposed:natural":"stone or rock (mapper chooses)"}},{"type":"Feature","geometry":{"type":"Point","coordinates":[15.222699,50.52199]},"properties":{"fid_zbg":"5928971145314304","in_osm":false,"proposed:natural":"stone or rock (mapper chooses)"}},{"type":"Feature","geometry":{"type":"Point","coordinates":[15.216466,50.634403]},"properties":{"fid_zbg":"15988841","osm_dist_m":1085,"in_osm":false,"proposed:natural":"stone or rock (mapper chooses)"}},{"type":"Feature","geometry":{"type":"Point","coordinates":[15.225743,50.523459]},"properties":{"fid_zbg":"5928909992361984","in_osm":false,"proposed:natural":"stone or rock (mapper chooses)"}},{"type":"Feature","geometry":{"type":"Point","coordinates":[15.137821,50.497164]},"properties":{"fid_zbg":"15988897","in_osm":false,"proposed:natural":"stone or rock (mapper chooses)"}},{"type":"Feature","geometry":{"type":"Point","coordinates":[15.015967,50.694913]},"properties":{"fid_zbg":"15988991","in_osm":false,"proposed:natural":"stone or rock (mapper chooses)"}},{"type":"Feature","geometry":{"type":"Point","coordinates":[15.141561,50.547089]},"properties":{"fid_zbg":"15988857","in_osm":false,"proposed:natural":"stone or rock (mapper chooses)"}},{"type":"Feature","geometry":{"type":"Point","coordinates":[15.1702,50.62421]},"properties":{"fid_zbg":"15988834","osm_dist_m":1236,"in_osm":false,"proposed:natural":"stone or rock (mapper chooses)"}},{"type":"Feature","geometry":{"type":"Point","coordinates":[15.13567,50.485455]},"properties":{"fid_zbg":"5138871360684032","osm_dist_m":1159,"in_osm":false,"proposed:natural":"stone or rock (mapper chooses)"}},{"type":"Feature","geometry":{"type":"Point","coordinates":[15.190687,50.601963]},"properties":{"fid_zbg":"15988850","in_osm":false,"proposed:natural":"stone or rock (mapper chooses)"}},{"type":"Feature","geometry":{"type":"Point","coordinates":[15.272823,50.643147]},"properties":{"fid_zbg":"4046846263558144","jmeno":"Kozinec","in_osm":false,"proposed:natural":"stone or rock (mapper chooses)","proposed:name":"Kozinec"}},{"type":"Feature","geometry":{"type":"Point","coordinates":[15.258738,50.659491]},"properties":{"fid_zbg":"15988755","osm_dist_m":783,"in_osm":false,"proposed:natural":"stone or rock (mapper chooses)"}},{"type":"Feature","geometry":{"type":"Point","coordinates":[15.119031,50.496767]},"properties":{"fid_zbg":"15988894","osm_dist_m":776,"in_osm":false,"proposed:natural":"stone or rock (mapper chooses)"}},{"type":"Feature","geometry":{"type":"Point","coordinates":[15.320609,50.683012]},"properties":{"fid_zbg":"15988932","in_osm":false,"proposed:natural":"stone or rock (mapper chooses)"}},{"type":"Feature","geometry":{"type":"Point","coordinates":[15.189811,50.602709]},"properties":{"fid_zbg":"15988849","in_osm":false,"proposed:natural":"stone or rock (mapper chooses)"}},{"type":"Feature","geometry":{"type":"Point","coordinates":[15.299397,50.518551]},"properties":{"fid_zbg":"15988899","in_osm":false,"proposed:natural":"stone or rock (mapper chooses)"}},{"type":"Feature","geometry":{"type":"Point","coordinates":[15.093969,50.672316]},"properties":{"fid_zbg":"5826019017621504","jmeno":"Medvědí kámen","osm_dist_m":677,"in_osm":false,"proposed:natural":"stone or rock (mapper chooses)","proposed:name":"Medvědí kámen"}},{"type":"Feature","geometry":{"type":"Point","coordinates":[15.064517,50.527003]},"properties":{"fid_zbg":"3115907974955008","jmeno":"Kobylí hlava","osm_dist_m":2,"in_osm":true,"proposed:natural":"stone or rock (mapper chooses)","proposed:name":"Kobylí hlava"}},{"type":"Feature","geometry":{"type":"Point","coordinates":[15.226416,50.525513]},"properties":{"fid_zbg":"15988886","in_osm":false,"proposed:natural":"stone or rock (mapper chooses)"}},{"type":"Feature","geometry":{"type":"Point","coordinates":[14.982717,50.55257]},"properties":{"fid_zbg":"2818971","jmeno":"Severní stěna","osm_dist_m":1,"in_osm":true,"proposed:natural":"stone or rock (mapper chooses)","proposed:name":"Severní stěna"}},{"type":"Feature","geometry":{"type":"Point","coordinates":[15.320287,50.683437]},"properties":{"fid_zbg":"15988931","in_osm":false,"proposed:natural":"stone or rock (mapper chooses)"}},{"type":"Feature","geometry":{"type":"Point","coordinates":[15.196278,50.547937]},"properties":{"fid_zbg":"15988860","jmeno":"Osudová","osm_dist_m":1344,"in_osm":false,"proposed:natural":"stone or rock (mapper chooses)","proposed:name":"Osudová"}},{"type":"Feature","geometry":{"type":"Point","coordinates":[15.054081,50.517169]},"properties":{"fid_zbg":"15988862","jmeno":"Skalní brána","osm_dist_m":293,"in_osm":false,"proposed:natural":"stone or rock (mapper chooses)","proposed:name":"Skalní brána"}},{"type":"Feature","geometry":{"type":"Point","coordinates":[15.207756,50.62372]},"properties":{"fid_zbg":"15988851","osm_dist_m":338,"in_osm":false,"proposed:natural":"stone or rock (mapper chooses)"}},{"type":"Feature","geometry":{"type":"Point","coordinates":[15.119414,50.4966]},"properties":{"fid_zbg":"15988895","osm_dist_m":803,"in_osm":false,"proposed:natural":"stone or rock (mapper chooses)"}},{"type":"Feature","geometry":{"type":"Point","coordinates":[15.224407,50.596371]},"properties":{"fid_zbg":"15988852","in_osm":false,"proposed:natural":"stone or rock (mapper chooses)"}},{"type":"Feature","geometry":{"type":"Point","coordinates":[15.04629,50.516135]},"properties":{"fid_zbg":"5998581911650304","jmeno":"Obětní kámen","osm_dist_m":508,"in_osm":false,"proposed:natural":"stone or rock (mapper chooses)","proposed:name":"Obětní kámen"}},{"type":"Feature","geometry":{"type":"Point","coordinates":[15.062455,50.506451]},"properties":{"fid_zbg":"15988874","osm_dist_m":1615,"in_osm":false,"proposed:natural":"stone or rock (mapper chooses)"}},{"type":"Feature","geometry":{"type":"Point","coordinates":[15.061438,50.506005]},"properties":{"fid_zbg":"15988873","osm_dist_m":1627,"in_osm":false,"proposed:natural":"stone or rock (mapper chooses)"}},{"type":"Feature","geometry":{"type":"Point","coordinates":[15.059096,50.507578]},"properties":{"fid_zbg":"15988879","osm_dist_m":1400,"in_osm":false,"proposed:natural":"stone or rock (mapper chooses)"}},{"type":"Feature","geometry":{"type":"Point","coordinates":[15.330066,50.693665]},"properties":{"fid_zbg":"10888502","in_osm":false,"proposed:natural":"stone or rock (mapper chooses)"}},{"type":"Feature","geometry":{"type":"Point","coordinates":[15.319274,50.683266]},"properties":{"fid_zbg":"15988930","in_osm":false,"proposed:natural":"stone or rock (mapper chooses)"}},{"type":"Feature","geometry":{"type":"Point","coordinates":[15.255821,50.672041]},"properties":{"fid_zbg":"15988742","osm_dist_m":1049,"in_osm":false,"proposed:natural":"stone or rock (mapper chooses)"}},{"type":"Feature","geometry":{"type":"Point","coordinates":[15.383402,50.659992]},"properties":{"fid_zbg":"1612376541497003","jmeno":"Liškova skála","in_osm":false,"proposed:natural":"stone or rock (mapper chooses)","proposed:name":"Liškova skála"}},{"type":"Feature","geometry":{"type":"Point","coordinates":[15.302166,50.623071]},"properties":{"fid_zbg":"8334469064818688","osm_dist_m":78,"in_osm":false,"proposed:natural":"stone or rock (mapper chooses)"}},{"type":"Feature","geometry":{"type":"Point","coordinates":[15.308767,50.618115]},"properties":{"fid_zbg":"4414579299844096","osm_dist_m":173,"in_osm":false,"proposed:natural":"stone or rock (mapper chooses)"}},{"type":"Feature","geometry":{"type":"Point","coordinates":[15.322738,50.465899]},"properties":{"fid_zbg":"8395280584015872","jmeno":"Bradáčova věž","in_osm":false,"proposed:natural":"stone or rock (mapper chooses)","proposed:name":"Bradáčova věž"}},{"type":"Feature","geometry":{"type":"Point","coordinates":[15.322161,50.465832]},"properties":{"fid_zbg":"8395280634347520","jmeno":"Jičínská věž","in_osm":false,"proposed:natural":"stone or rock (mapper chooses)","proposed:name":"Jičínská věž"}},{"type":"Feature","geometry":{"type":"Point","coordinates":[15.323359,50.466267]},"properties":{"fid_zbg":"11074940912533504","in_osm":false,"proposed:natural":"stone or rock (mapper chooses)"}},{"type":"Feature","geometry":{"type":"Point","coordinates":[15.322979,50.466139]},"properties":{"fid_zbg":"11074943395561472","in_osm":false,"proposed:natural":"stone or rock (mapper chooses)"}},{"type":"Feature","geometry":{"type":"Point","coordinates":[15.164289,50.420061]},"properties":{"fid_zbg":"16129437170925568","in_osm":false,"proposed:natural":"stone or rock (mapper chooses)"}},{"type":"Feature","geometry":{"type":"Point","coordinates":[15.074915,50.525197]},"properties":{"fid_zbg":"15920543886737408","jmeno":"Hladká věž","osm_dist_m":291,"in_osm":false,"proposed:natural":"stone or rock (mapper chooses)","proposed:name":"Hladká věž"}},{"type":"Feature","geometry":{"type":"Point","coordinates":[15.07061,50.51599]},"properties":{"fid_zbg":"15920558097039360","jmeno":"Kočičí hrad","osm_dist_m":1130,"in_osm":false,"proposed:natural":"stone or rock (mapper chooses)","proposed:name":"Kočičí hrad"}},{"type":"Feature","geometry":{"type":"Point","coordinates":[15.255053,50.647124]},"properties":{"fid_zbg":"15988845","osm_dist_m":416,"in_osm":false,"proposed:natural":"stone or rock (mapper chooses)"}},{"type":"Feature","geometry":{"type":"Point","coordinates":[14.976698,50.604457]},"properties":{"fid_zbg":"51487990937026560","in_osm":false,"proposed:natural":"stone or rock (mapper chooses)"}},{"type":"Feature","geometry":{"type":"Point","coordinates":[15.192643,50.604057]},"properties":{"fid_zbg":"51964408691163136","in_osm":false,"proposed:natural":"stone or rock (mapper chooses)"}},{"type":"Feature","geometry":{"type":"Point","coordinates":[15.193399,50.602217]},"properties":{"fid_zbg":"51964429696237568","in_osm":false,"proposed:natural":"stone or rock (mapper chooses)"}},{"type":"Feature","geometry":{"type":"Point","coordinates":[15.19293,50.602343]},"properties":{"fid_zbg":"51964444846063616","in_osm":false,"proposed:natural":"stone or rock (mapper chooses)"}},{"type":"Feature","geometry":{"type":"Point","coordinates":[14.945298,50.673576]},"properties":{"fid_zbg":"2819141","jmeno":"Čertův stolec","in_osm":false,"proposed:natural":"stone or rock (mapper chooses)","proposed:name":"Čertův stolec"}},{"type":"Feature","geometry":{"type":"Point","coordinates":[14.944182,50.672868]},"properties":{"fid_zbg":"53497803921424384","in_osm":false,"proposed:natural":"stone or rock (mapper chooses)"}},{"type":"Feature","geometry":{"type":"Point","coordinates":[14.943878,50.672681]},"properties":{"fid_zbg":"53497804726730752","in_osm":false,"proposed:natural":"stone or rock (mapper chooses)"}},{"type":"Feature","geometry":{"type":"Point","coordinates":[14.933186,50.574189]},"properties":{"fid_zbg":"2819163","jmeno":"Ondřej","in_osm":false,"proposed:natural":"stone or rock (mapper chooses)","proposed:name":"Ondřej"}},{"type":"Feature","geometry":{"type":"Point","coordinates":[15.160275,50.569465]},"properties":{"fid_zbg":"54250997085634560","in_osm":false,"proposed:natural":"stone or rock (mapper chooses)"}},{"type":"Feature","geometry":{"type":"Point","coordinates":[15.159031,50.569749]},"properties":{"fid_zbg":"54250999317004288","in_osm":false,"proposed:natural":"stone or rock (mapper chooses)"}},{"type":"Feature","geometry":{"type":"Point","coordinates":[15.16225,50.569093]},"properties":{"fid_zbg":"54250999266672640","in_osm":false,"proposed:natural":"stone or rock (mapper chooses)"}},{"type":"Feature","geometry":{"type":"Point","coordinates":[15.252054,50.670505]},"properties":{"fid_zbg":"53762905090293760","osm_dist_m":1144,"in_osm":false,"proposed:natural":"stone or rock (mapper chooses)"}},{"type":"Feature","geometry":{"type":"Point","coordinates":[15.310436,50.677378]},"properties":{"fid_zbg":"15988943","in_osm":false,"proposed:natural":"stone or rock (mapper chooses)"}},{"type":"Feature","geometry":{"type":"Point","coordinates":[15.05284,50.518002]},"properties":{"fid_zbg":"15988864","osm_dist_m":169,"in_osm":false,"proposed:natural":"stone or rock (mapper chooses)"}},{"type":"Feature","geometry":{"type":"Point","coordinates":[15.052431,50.517994]},"properties":{"fid_zbg":"15988865","osm_dist_m":156,"in_osm":false,"proposed:natural":"stone or rock (mapper chooses)"}},{"type":"Feature","geometry":{"type":"Point","coordinates":[15.105591,50.500691]},"properties":{"fid_zbg":"76012998233161728","osm_dist_m":500,"in_osm":false,"proposed:natural":"stone or rock (mapper chooses)"}},{"type":"Feature","geometry":{"type":"Point","coordinates":[15.103498,50.500397]},"properties":{"fid_zbg":"76012998887473152","osm_dist_m":543,"in_osm":false,"proposed:natural":"stone or rock (mapper chooses)"}},{"type":"Feature","geometry":{"type":"Point","coordinates":[15.107664,50.49961]},"properties":{"fid_zbg":"76013007863283712","osm_dist_m":350,"in_osm":false,"proposed:natural":"stone or rock (mapper chooses)"}},{"type":"Feature","geometry":{"type":"Point","coordinates":[15.107227,50.499414]},"properties":{"fid_zbg":"76013007913615360","osm_dist_m":332,"in_osm":false,"proposed:natural":"stone or rock (mapper chooses)"}},{"type":"Feature","geometry":{"type":"Point","coordinates":[15.118882,50.527944]},"properties":{"fid_zbg":"76013122669772800","osm_dist_m":587,"in_osm":false,"proposed:natural":"stone or rock (mapper chooses)"}},{"type":"Feature","geometry":{"type":"Point","coordinates":[15.105191,50.500684]},"properties":{"fid_zbg":"76012998283493376","osm_dist_m":510,"in_osm":false,"proposed:natural":"stone or rock (mapper chooses)"}},{"type":"Feature","geometry":{"type":"Point","coordinates":[15.088673,50.514333]},"properties":{"fid_zbg":"76187467539021824","osm_dist_m":1400,"in_osm":false,"proposed:natural":"stone or rock (mapper chooses)"}},{"type":"Feature","geometry":{"type":"Point","coordinates":[15.106281,50.499863]},"properties":{"fid_zbg":"76012997780176896","osm_dist_m":397,"in_osm":false,"proposed:natural":"stone or rock (mapper chooses)"}},{"type":"Feature","geometry":{"type":"Point","coordinates":[15.105735,50.5003]},"properties":{"fid_zbg":"76012997880840192","osm_dist_m":456,"in_osm":false,"proposed:natural":"stone or rock (mapper chooses)"}},{"type":"Feature","geometry":{"type":"Point","coordinates":[15.105975,50.499952]},"properties":{"fid_zbg":"76012997830508544","osm_dist_m":414,"in_osm":false,"proposed:natural":"stone or rock (mapper chooses)"}},{"type":"Feature","geometry":{"type":"Point","coordinates":[15.104554,50.50018]},"properties":{"fid_zbg":"76012998635814912","osm_dist_m":481,"in_osm":false,"proposed:natural":"stone or rock (mapper chooses)"}},{"type":"Feature","geometry":{"type":"Point","coordinates":[15.106695,50.499549]},"properties":{"fid_zbg":"76013007812952064","osm_dist_m":355,"in_osm":false,"proposed:natural":"stone or rock (mapper chooses)"}},{"type":"Feature","geometry":{"type":"Point","coordinates":[15.089344,50.514159]},"properties":{"fid_zbg":"76187467589353472","osm_dist_m":1441,"in_osm":false,"proposed:natural":"stone or rock (mapper chooses)"}},{"type":"Feature","geometry":{"type":"Point","coordinates":[15.105991,50.500112]},"properties":{"fid_zbg":"76012998132498432","osm_dist_m":430,"in_osm":false,"proposed:natural":"stone or rock (mapper chooses)"}},{"type":"Feature","geometry":{"type":"Point","coordinates":[15.112777,50.501667]},"properties":{"fid_zbg":"76012999189463040","osm_dist_m":665,"in_osm":false,"proposed:natural":"stone or rock (mapper chooses)"}},{"type":"Feature","geometry":{"type":"Point","coordinates":[15.174186,50.439133]},"properties":{"fid_zbg":"77713279752863744","in_osm":false,"proposed:natural":"stone or rock (mapper chooses)"}},{"type":"Feature","geometry":{"type":"Point","coordinates":[15.028964,50.512169]},"properties":{"fid_zbg":"77787296031571968","osm_dist_m":254,"in_osm":false,"proposed:natural":"stone or rock (mapper chooses)"}},{"type":"Feature","geometry":{"type":"Point","coordinates":[15.029472,50.512288]},"properties":{"fid_zbg":"77787296081903616","osm_dist_m":290,"in_osm":false,"proposed:natural":"stone or rock (mapper chooses)"}},{"type":"Feature","geometry":{"type":"Point","coordinates":[15.054682,50.522106]},"properties":{"fid_zbg":"15988861","osm_dist_m":369,"in_osm":false,"proposed:natural":"stone or rock (mapper chooses)"}},{"type":"Feature","geometry":{"type":"Point","coordinates":[15.056513,50.515982]},"properties":{"fid_zbg":"15988866","osm_dist_m":504,"in_osm":false,"proposed:natural":"stone or rock (mapper chooses)"}},{"type":"Feature","geometry":{"type":"Point","coordinates":[15.057907,50.514676]},"properties":{"fid_zbg":"15988867","osm_dist_m":677,"in_osm":false,"proposed:natural":"stone or rock (mapper chooses)"}},{"type":"Feature","geometry":{"type":"Point","coordinates":[15.058841,50.514818]},"properties":{"fid_zbg":"15988868","osm_dist_m":710,"in_osm":false,"proposed:natural":"stone or rock (mapper chooses)"}}]}