{"type": "FeatureCollection", "features": [{"type": "Feature", "geometry": {"type": "Point", "coordinates": [13.9455333, 49.7351667]}, "properties": {"natural": "spring", "ref:zabaged": "50535859702726656", "zabaged_typ": "pramen", "in_osm_50m": false}}, {"type": "Feature", "geometry": {"type": "Point", "coordinates": [13.9202216, 49.7087798]}, "properties": {"natural": "spring", "ref:zabaged": "50501246896832512", "zabaged_typ": "pramen", "in_osm_50m": true}}, {"type": "Feature", "geometry": {"type": "Point", "coordinates": [13.7936583, 49.7518288]}, "properties": {"man_made": "water_well", "ref:zabaged": "51164488413478912", "zabaged_typ": "studna, vrt", "in_osm_50m": false}}, {"type": "Feature", "geometry": {"type": "Point", "coordinates": [13.996408, 49.8193322]}, "properties": {"natural": "spring", "ref:zabaged": "50779522978545664", "zabaged_typ": "pramen", "in_osm_50m": false}}, {"type": "Feature", "geometry": {"type": "Point", "coordinates": [14.0078885, 49.8111159]}, "properties": {"natural": "spring", "ref:zabaged": "50779424110411776", "zabaged_typ": "pramen", "in_osm_50m": false}}, {"type": "Feature", "geometry": {"type": "Point", "coordinates": [13.9950383, 49.8212205]}, "properties": {"natural": "spring", "ref:zabaged": "50779524589158400", "zabaged_typ": "pramen", "in_osm_50m": false}}, {"type": "Feature", "geometry": {"type": "Point", "coordinates": [13.9848917, 49.8074047]}, "properties": {"natural": "spring", "ref:zabaged": "50779564032393216", "zabaged_typ": "pramen", "in_osm_50m": false}}, {"type": "Feature", "geometry": {"type": "Point", "coordinates": [13.7435973, 49.7771711]}, "properties": {"natural": "spring", "ref:zabaged": "51235044928258048", "zabaged_typ": "pramen", "in_osm_50m": false}}, {"type": "Feature", "geometry": {"type": "Point", "coordinates": [13.7358252, 49.7893371]}, "properties": {"amenity": "fountain", "ref:zabaged": "51164615266009088", "zabaged_typ": "kašna", "in_osm_50m": false}}, {"type": "Feature", "geometry": {"type": "Point", "coordinates": [13.7377948, 49.7883893]}, "properties": {"man_made": "water_well", "ref:zabaged": "51164690495045632", "zabaged_typ": "studna, vrt", "in_osm_50m": false}}, {"type": "Feature", "geometry": {"type": "Point", "coordinates": [13.7440033, 49.7784406]}, "properties": {"man_made": "water_well", "ref:zabaged": "7362149", "zabaged_typ": "studna, vrt", "in_osm_50m": false}}, {"type": "Feature", "geometry": {"type": "Point", "coordinates": [13.8678356, 49.7981729]}, "properties": {"man_made": "water_well", "ref:zabaged": "7362132", "zabaged_typ": "studna, vrt", "in_osm_50m": false}}, {"type": "Feature", "geometry": {"type": "Point", "coordinates": [13.8744812, 49.8004614]}, "properties": {"man_made": "water_well", "ref:zabaged": "7362141", "zabaged_typ": "studna, vrt", "in_osm_50m": false}}, {"type": "Feature", "geometry": {"type": "Point", "coordinates": [13.7202392, 49.7796608]}, "properties": {"man_made": "water_well", "ref:zabaged": "7362146", "zabaged_typ": "studna, vrt", "in_osm_50m": false}}, {"type": "Feature", "geometry": {"type": "Point", "coordinates": [13.7430012, 49.7763679]}, "properties": {"man_made": "water_well", "ref:zabaged": "7362151", "zabaged_typ": "studna, vrt", "in_osm_50m": false}}, {"type": "Feature", "geometry": {"type": "Point", "coordinates": [13.8097812, 49.782971]}, "properties": {"man_made": "water_well", "ref:zabaged": "7362166", "zabaged_typ": "studna, vrt", "in_osm_50m": false}}, {"type": "Feature", "geometry": {"type": "Point", "coordinates": [13.838766, 49.7822789]}, "properties": {"man_made": "water_well", "ref:zabaged": "7362167", "zabaged_typ": "studna, vrt", "in_osm_50m": false}}, {"type": "Feature", "geometry": {"type": "Point", "coordinates": [13.8679679, 49.7875428]}, "properties": {"natural": "spring", "ref:zabaged": "7362169", "zabaged_typ": "pramen", "in_osm_50m": true}}, {"type": "Feature", "geometry": {"type": "Point", "coordinates": [13.8845769, 49.7792926]}, "properties": {"man_made": "water_well", "ref:zabaged": "7362171", "zabaged_typ": "studna, vrt", "in_osm_50m": false}}, {"type": "Feature", "geometry": {"type": "Point", "coordinates": [13.725259, 49.7292911]}, "properties": {"natural": "spring", "ref:zabaged": "7362174", "zabaged_typ": "pramen", "in_osm_50m": false}}, {"type": "Feature", "geometry": {"type": "Point", "coordinates": [13.8044252, 49.7458884]}, "properties": {"man_made": "water_well", "ref:zabaged": "7362177", "zabaged_typ": "studna, vrt", "in_osm_50m": false}}, {"type": "Feature", "geometry": {"type": "Point", "coordinates": [13.9526856, 49.719502]}, "properties": {"man_made": "water_well", "ref:zabaged": "7362178", "zabaged_typ": "studna, vrt", "in_osm_50m": false}}, {"type": "Feature", "geometry": {"type": "Point", "coordinates": [13.8792516, 49.7220143]}, "properties": {"natural": "spring", "name": "Mariin pramen", "ref:zabaged": "7362179", "zabaged_typ": "pramen", "in_osm_50m": true}}, {"type": "Feature", "geometry": {"type": "Point", "coordinates": [13.988227, 49.7921219]}, "properties": {"man_made": "water_well", "ref:zabaged": "7362331", "zabaged_typ": "studna, vrt", "in_osm_50m": false}}, {"type": "Feature", "geometry": {"type": "Point", "coordinates": [13.9561172, 49.7958332]}, "properties": {"man_made": "water_well", "ref:zabaged": "7362336", "zabaged_typ": "studna, vrt", "in_osm_50m": false}}, {"type": "Feature", "geometry": {"type": "Point", "coordinates": [13.9697138, 49.7107404]}, "properties": {"man_made": "water_well", "ref:zabaged": "7362338", "zabaged_typ": "studna, vrt", "in_osm_50m": false}}, {"type": "Feature", "geometry": {"type": "Point", "coordinates": [13.9475517, 49.7498132]}, "properties": {"man_made": "water_well", "ref:zabaged": "7362349", "zabaged_typ": "studna, vrt", "in_osm_50m": false}}, {"type": "Feature", "geometry": {"type": "Point", "coordinates": [13.9832679, 49.732246]}, "properties": {"man_made": "water_well", "ref:zabaged": "7362353", "zabaged_typ": "studna, vrt", "in_osm_50m": true}}, {"type": "Feature", "geometry": {"type": "Point", "coordinates": [13.9569442, 49.7339992]}, "properties": {"man_made": "water_well", "ref:zabaged": "7362354", "zabaged_typ": "studna, vrt", "in_osm_50m": false}}, {"type": "Feature", "geometry": {"type": "Point", "coordinates": [13.98185, 49.7369483]}, "properties": {"man_made": "water_well", "ref:zabaged": "7362357", "zabaged_typ": "studna, vrt", "in_osm_50m": false}}, {"type": "Feature", "geometry": {"type": "Point", "coordinates": [13.9160476, 49.7089532]}, "properties": {"natural": "spring", "name": "U Kloboučku", "ref:zabaged": "7362362", "zabaged_typ": "pramen", "in_osm_50m": true}}, {"type": "Feature", "geometry": {"type": "Point", "coordinates": [14.0045353, 49.7092415]}, "properties": {"man_made": "water_well", "ref:zabaged": "7362452", "zabaged_typ": "studna, vrt", "in_osm_50m": false}}, {"type": "Feature", "geometry": {"type": "Point", "coordinates": [14.0010037, 49.8144555]}, "properties": {"natural": "spring", "name": "Fabiánův pramen", "ref:zabaged": "7362474", "zabaged_typ": "pramen", "in_osm_50m": false}}, {"type": "Feature", "geometry": {"type": "Point", "coordinates": [14.0016004, 49.8125409]}, "properties": {"natural": "spring", "name": "Křížový pramen", "ref:zabaged": "7362475", "zabaged_typ": "pramen", "in_osm_50m": false}}, {"type": "Feature", "geometry": {"type": "Point", "coordinates": [14.0518799, 49.7499043]}, "properties": {"man_made": "water_well", "ref:zabaged": "7362633", "zabaged_typ": "studna, vrt", "in_osm_50m": false}}, {"type": "Feature", "geometry": {"type": "Point", "coordinates": [14.019282, 49.7311465]}, "properties": {"man_made": "water_well", "ref:zabaged": "7362636", "zabaged_typ": "studna, vrt", "in_osm_50m": false}}, {"type": "Feature", "geometry": {"type": "Point", "coordinates": [13.8089121, 49.7015126]}, "properties": {"man_made": "water_well", "ref:zabaged": "7363117", "zabaged_typ": "studna, vrt", "in_osm_50m": false}}, {"type": "Feature", "geometry": {"type": "Point", "coordinates": [13.9004864, 49.6361574]}, "properties": {"man_made": "water_well", "ref:zabaged": "7363131", "zabaged_typ": "studna, vrt", "in_osm_50m": false}}, {"type": "Feature", "geometry": {"type": "Point", "coordinates": [13.8703017, 49.631065]}, "properties": {"man_made": "water_well", "ref:zabaged": "7363132", "zabaged_typ": "studna, vrt", "in_osm_50m": true}}, {"type": "Feature", "geometry": {"type": "Point", "coordinates": [13.7947102, 49.6151709]}, "properties": {"man_made": "water_well", "ref:zabaged": "7363147", "zabaged_typ": "studna, vrt", "in_osm_50m": false}}, {"type": "Feature", "geometry": {"type": "Point", "coordinates": [13.8893191, 49.6028755]}, "properties": {"man_made": "water_well", "ref:zabaged": "7363148", "zabaged_typ": "studna, vrt", "in_osm_50m": false}}, {"type": "Feature", "geometry": {"type": "Point", "coordinates": [13.8397451, 49.5891376]}, "properties": {"natural": "spring", "ref:zabaged": "7363153", "zabaged_typ": "pramen", "in_osm_50m": false}}, {"type": "Feature", "geometry": {"type": "Point", "coordinates": [13.9241851, 49.6037807]}, "properties": {"man_made": "water_well", "ref:zabaged": "7363187", "zabaged_typ": "studna, vrt", "in_osm_50m": false}}, {"type": "Feature", "geometry": {"type": "Point", "coordinates": [13.9142446, 49.6047162]}, "properties": {"man_made": "water_well", "ref:zabaged": "7363188", "zabaged_typ": "studna, vrt", "in_osm_50m": false}}, {"type": "Feature", "geometry": {"type": "Point", "coordinates": [13.9554906, 49.5962169]}, "properties": {"man_made": "water_well", "ref:zabaged": "7363191", "zabaged_typ": "studna, vrt", "in_osm_50m": false}}, {"type": "Feature", "geometry": {"type": "Point", "coordinates": [13.8637871, 49.6152217]}, "properties": {"man_made": "water_well", "ref:zabaged": "7363329", "zabaged_typ": "studna, vrt", "in_osm_50m": false}}, {"type": "Feature", "geometry": {"type": "Point", "coordinates": [13.8750187, 49.6175389]}, "properties": {"man_made": "water_well", "ref:zabaged": "7363334", "zabaged_typ": "studna, vrt", "in_osm_50m": false}}, {"type": "Feature", "geometry": {"type": "Point", "coordinates": [14.0704672, 49.6540255]}, "properties": {"man_made": "water_well", "ref:zabaged": "7363444", "zabaged_typ": "studna, vrt", "in_osm_50m": false}}, {"type": "Feature", "geometry": {"type": "Point", "coordinates": [14.024412, 49.6306293]}, "properties": {"man_made": "water_well", "ref:zabaged": "7363465", "zabaged_typ": "studna, vrt", "in_osm_50m": false}}, {"type": "Feature", "geometry": {"type": "Point", "coordinates": [13.9836758, 49.7151011]}, "properties": {"man_made": "water_well", "ref:zabaged": "436783846262137", "zabaged_typ": "studna, vrt", "in_osm_50m": false}}, {"type": "Feature", "geometry": {"type": "Point", "coordinates": [14.0355468, 49.6493467]}, "properties": {"man_made": "water_well", "ref:zabaged": "460128688014713", "zabaged_typ": "studna, vrt", "in_osm_50m": false}}, {"type": "Feature", "geometry": {"type": "Point", "coordinates": [14.0396519, 49.6941734]}, "properties": {"man_made": "water_well", "ref:zabaged": "462725230626169", "zabaged_typ": "studna, vrt", "in_osm_50m": false}}, {"type": "Feature", "geometry": {"type": "Point", "coordinates": [14.0096462, 49.6868928]}, "properties": {"amenity": "fountain", "ref:zabaged": "481515276338553", "zabaged_typ": "kašna", "in_osm_50m": false}}, {"type": "Feature", "geometry": {"type": "Point", "coordinates": [13.888176, 49.7191241]}, "properties": {"natural": "spring", "name": "Knížecí studánka", "ref:zabaged": "1467123515786617", "zabaged_typ": "pramen", "in_osm_50m": true}}, {"type": "Feature", "geometry": {"type": "Point", "coordinates": [13.7756735, 49.8003231]}, "properties": {"man_made": "water_well", "ref:zabaged": "1599708015363449", "zabaged_typ": "studna, vrt", "in_osm_50m": false}}, {"type": "Feature", "geometry": {"type": "Point", "coordinates": [13.8844758, 49.7466198]}, "properties": {"natural": "spring", "name": "U panny Lídy", "ref:zabaged": "2547290560528384", "zabaged_typ": "pramen", "in_osm_50m": true}}, {"type": "Feature", "geometry": {"type": "Point", "coordinates": [13.9234314, 49.7062784]}, "properties": {"natural": "spring", "name": "Pod Kloboučkem", "ref:zabaged": "2549301158871040", "zabaged_typ": "pramen", "in_osm_50m": true}}, {"type": "Feature", "geometry": {"type": "Point", "coordinates": [14.0024479, 49.810014]}, "properties": {"natural": "spring", "name": "U Plešivce", "ref:zabaged": "3391127566680064", "zabaged_typ": "pramen", "in_osm_50m": false}}, {"type": "Feature", "geometry": {"type": "Point", "coordinates": [13.7981026, 49.6959018]}, "properties": {"natural": "spring", "name": "Vladařská studánka", "ref:zabaged": "3644415998427136", "zabaged_typ": "pramen", "in_osm_50m": true}}, {"type": "Feature", "geometry": {"type": "Point", "coordinates": [13.7314162, 49.693574]}, "properties": {"natural": "spring", "name": "Rudolfova", "ref:zabaged": "3712144327573504", "zabaged_typ": "pramen", "in_osm_50m": false}}, {"type": "Feature", "geometry": {"type": "Point", "coordinates": [13.8731972, 49.7023437]}, "properties": {"natural": "spring", "name": "U Carvánky", "ref:zabaged": "3729531982577664", "zabaged_typ": "pramen", "in_osm_50m": true}}, {"type": "Feature", "geometry": {"type": "Point", "coordinates": [13.9000359, 49.6810294]}, "properties": {"natural": "spring", "name": "U Pilky", "ref:zabaged": "3729665529217024", "zabaged_typ": "pramen", "in_osm_50m": true}}, {"type": "Feature", "geometry": {"type": "Point", "coordinates": [14.012436, 49.6326732]}, "properties": {"natural": "spring", "name": "studánka Svatého Huberta", "ref:zabaged": "6841892381655040", "zabaged_typ": "pramen", "in_osm_50m": false}}, {"type": "Feature", "geometry": {"type": "Point", "coordinates": [13.7988051, 49.6986607]}, "properties": {"natural": "spring", "name": "U Hladové studánky", "ref:zabaged": "7486796719980544", "zabaged_typ": "pramen", "in_osm_50m": true}}, {"type": "Feature", "geometry": {"type": "Point", "coordinates": [13.9885624, 49.663261]}, "properties": {"natural": "spring", "name": "Zdabořská studánka", "ref:zabaged": "7486857470279680", "zabaged_typ": "pramen", "in_osm_50m": true}}, {"type": "Feature", "geometry": {"type": "Point", "coordinates": [13.7539069, 49.7932078]}, "properties": {"man_made": "water_well", "ref:zabaged": "7362128", "zabaged_typ": "studna, vrt", "in_osm_50m": false}}, {"type": "Feature", "geometry": {"type": "Point", "coordinates": [13.7557805, 49.7916974]}, "properties": {"man_made": "water_well", "ref:zabaged": "7362129", "zabaged_typ": "studna, vrt", "in_osm_50m": false}}, {"type": "Feature", "geometry": {"type": "Point", "coordinates": [13.7792973, 49.7947085]}, "properties": {"man_made": "water_well", "ref:zabaged": "7362130", "zabaged_typ": "studna, vrt", "in_osm_50m": false}}, {"type": "Feature", "geometry": {"type": "Point", "coordinates": [13.8598824, 49.792268]}, "properties": {"man_made": "water_well", "ref:zabaged": "7362131", "zabaged_typ": "studna, vrt", "in_osm_50m": false}}, {"type": "Feature", "geometry": {"type": "Point", "coordinates": [13.9303296, 49.8018607]}, "properties": {"man_made": "water_well", "ref:zabaged": "7362143", "zabaged_typ": "studna, vrt", "in_osm_50m": false}}, {"type": "Feature", "geometry": {"type": "Point", "coordinates": [13.7265385, 49.7881093]}, "properties": {"man_made": "water_well", "ref:zabaged": "7362148", "zabaged_typ": "studna, vrt", "in_osm_50m": false}}, {"type": "Feature", "geometry": {"type": "Point", "coordinates": [13.7252212, 49.7760392]}, "properties": {"man_made": "water_well", "ref:zabaged": "7362150", "zabaged_typ": "studna, vrt", "in_osm_50m": false}}, {"type": "Feature", "geometry": {"type": "Point", "coordinates": [13.7439834, 49.7767634]}, "properties": {"man_made": "water_well", "ref:zabaged": "7362152", "zabaged_typ": "studna, vrt", "in_osm_50m": false}}, {"type": "Feature", "geometry": {"type": "Point", "coordinates": [13.7457656, 49.7757923]}, "properties": {"man_made": "water_well", "ref:zabaged": "7362162", "zabaged_typ": "studna, vrt", "in_osm_50m": false}}, {"type": "Feature", "geometry": {"type": "Point", "coordinates": [13.7467461, 49.7756465]}, "properties": {"man_made": "water_well", "ref:zabaged": "7362163", "zabaged_typ": "studna, vrt", "in_osm_50m": false}}, {"type": "Feature", "geometry": {"type": "Point", "coordinates": [13.7826842, 49.7694264]}, "properties": {"natural": "spring", "ref:zabaged": "7362164", "zabaged_typ": "pramen", "in_osm_50m": false}}, {"type": "Feature", "geometry": {"type": "Point", "coordinates": [13.7941766, 49.7643059]}, "properties": {"natural": "spring", "ref:zabaged": "7362165", "zabaged_typ": "pramen", "in_osm_50m": false}}, {"type": "Feature", "geometry": {"type": "Point", "coordinates": [13.8408315, 49.7831513]}, "properties": {"man_made": "water_well", "ref:zabaged": "7362168", "zabaged_typ": "studna, vrt", "in_osm_50m": false}}, {"type": "Feature", "geometry": {"type": "Point", "coordinates": [13.7732847, 49.7536466]}, "properties": {"man_made": "water_well", "ref:zabaged": "7362176", "zabaged_typ": "studna, vrt", "in_osm_50m": false}}, {"type": "Feature", "geometry": {"type": "Point", "coordinates": [13.9811317, 49.7973359]}, "properties": {"natural": "spring", "ref:zabaged": "7362332", "zabaged_typ": "pramen", "in_osm_50m": false}}, {"type": "Feature", "geometry": {"type": "Point", "coordinates": [13.9625555, 49.7879176]}, "properties": {"man_made": "water_well", "ref:zabaged": "7362335", "zabaged_typ": "studna, vrt", "in_osm_50m": false}}, {"type": "Feature", "geometry": {"type": "Point", "coordinates": [13.9464547, 49.8116064]}, "properties": {"man_made": "water_well", "ref:zabaged": "7362342", "zabaged_typ": "studna, vrt", "in_osm_50m": false}}, {"type": "Feature", "geometry": {"type": "Point", "coordinates": [13.9690187, 49.8162401]}, "properties": {"man_made": "water_well", "ref:zabaged": "7362344", "zabaged_typ": "studna, vrt", "in_osm_50m": false}}, {"type": "Feature", "geometry": {"type": "Point", "coordinates": [13.9498877, 49.8004747]}, "properties": {"natural": "spring", "ref:zabaged": "7362346", "zabaged_typ": "pramen", "in_osm_50m": false}}, {"type": "Feature", "geometry": {"type": "Point", "coordinates": [13.9505756, 49.7986659]}, "properties": {"man_made": "water_well", "ref:zabaged": "7362347", "zabaged_typ": "studna, vrt", "in_osm_50m": false}}, {"type": "Feature", "geometry": {"type": "Point", "coordinates": [13.9605308, 49.7583198]}, "properties": {"man_made": "water_well", "ref:zabaged": "7362348", "zabaged_typ": "studna, vrt", "in_osm_50m": false}}, {"type": "Feature", "geometry": {"type": "Point", "coordinates": [13.9489487, 49.7471394]}, "properties": {"man_made": "water_well", "ref:zabaged": "7362350", "zabaged_typ": "studna, vrt", "in_osm_50m": false}}, {"type": "Feature", "geometry": {"type": "Point", "coordinates": [13.987, 49.7473997]}, "properties": {"natural": "spring", "ref:zabaged": "7362351", "zabaged_typ": "pramen", "in_osm_50m": false}}, {"type": "Feature", "geometry": {"type": "Point", "coordinates": [13.9874056, 49.7235563]}, "properties": {"man_made": "water_well", "ref:zabaged": "7362355", "zabaged_typ": "studna, vrt", "in_osm_50m": false}}, {"type": "Feature", "geometry": {"type": "Point", "coordinates": [13.9847196, 49.7232621]}, "properties": {"man_made": "water_well", "ref:zabaged": "7362356", "zabaged_typ": "studna, vrt", "in_osm_50m": false}}, {"type": "Feature", "geometry": {"type": "Point", "coordinates": [13.7505816, 49.702853]}, "properties": {"natural": "spring", "ref:zabaged": "7362359", "zabaged_typ": "pramen", "in_osm_50m": false}}, {"type": "Feature", "geometry": {"type": "Point", "coordinates": [13.7702988, 49.7148229]}, "properties": {"man_made": "water_well", "ref:zabaged": "7362360", "zabaged_typ": "studna, vrt", "in_osm_50m": false}}, {"type": "Feature", "geometry": {"type": "Point", "coordinates": [13.7675271, 49.7170197]}, "properties": {"man_made": "water_well", "ref:zabaged": "7362361", "zabaged_typ": "studna, vrt", "in_osm_50m": false}}, {"type": "Feature", "geometry": {"type": "Point", "coordinates": [14.0259049, 49.7826124]}, "properties": {"natural": "spring", "ref:zabaged": "7362432", "zabaged_typ": "pramen", "in_osm_50m": true}}, {"type": "Feature", "geometry": {"type": "Point", "coordinates": [14.0265161, 49.7876271]}, "properties": {"man_made": "water_well", "ref:zabaged": "7362433", "zabaged_typ": "studna, vrt", "in_osm_50m": false}}, {"type": "Feature", "geometry": {"type": "Point", "coordinates": [14.028485, 49.7882257]}, "properties": {"man_made": "water_well", "ref:zabaged": "7362434", "zabaged_typ": "studna, vrt", "in_osm_50m": true}}, {"type": "Feature", "geometry": {"type": "Point", "coordinates": [14.0074427, 49.7758884]}, "properties": {"man_made": "water_well", "ref:zabaged": "7362435", "zabaged_typ": "studna, vrt", "in_osm_50m": false}}, {"type": "Feature", "geometry": {"type": "Point", "coordinates": [13.9954316, 49.7746886]}, "properties": {"man_made": "water_well", "ref:zabaged": "7362446", "zabaged_typ": "studna, vrt", "in_osm_50m": false}}, {"type": "Feature", "geometry": {"type": "Point", "coordinates": [14.0655444, 49.7154632]}, "properties": {"man_made": "water_well", "ref:zabaged": "7362450", "zabaged_typ": "studna, vrt", "in_osm_50m": false}}, {"type": "Feature", "geometry": {"type": "Point", "coordinates": [14.0172294, 49.7179391]}, "properties": {"man_made": "water_well", "ref:zabaged": "7362453", "zabaged_typ": "studna, vrt", "in_osm_50m": false}}, {"type": "Feature", "geometry": {"type": "Point", "coordinates": [14.014398, 49.7219021]}, "properties": {"natural": "spring", "ref:zabaged": "7362454", "zabaged_typ": "pramen", "in_osm_50m": false}}, {"type": "Feature", "geometry": {"type": "Point", "coordinates": [13.99816, 49.7362352]}, "properties": {"man_made": "water_well", "ref:zabaged": "7362631", "zabaged_typ": "studna, vrt", "in_osm_50m": false}}, {"type": "Feature", "geometry": {"type": "Point", "coordinates": [13.9983999, 49.7360335]}, "properties": {"man_made": "water_well", "ref:zabaged": "7362632", "zabaged_typ": "studna, vrt", "in_osm_50m": false}}, {"type": "Feature", "geometry": {"type": "Point", "coordinates": [14.0520895, 49.7491805]}, "properties": {"man_made": "water_well", "ref:zabaged": "7362634", "zabaged_typ": "studna, vrt", "in_osm_50m": false}}, {"type": "Feature", "geometry": {"type": "Point", "coordinates": [14.0207689, 49.729589]}, "properties": {"man_made": "water_well", "ref:zabaged": "7362637", "zabaged_typ": "studna, vrt", "in_osm_50m": false}}, {"type": "Feature", "geometry": {"type": "Point", "coordinates": [14.0479246, 49.7275438]}, "properties": {"man_made": "water_well", "ref:zabaged": "7362638", "zabaged_typ": "studna, vrt", "in_osm_50m": false}}, {"type": "Feature", "geometry": {"type": "Point", "coordinates": [13.7880486, 49.7014053]}, "properties": {"man_made": "water_well", "ref:zabaged": "7363115", "zabaged_typ": "studna, vrt", "in_osm_50m": false}}, {"type": "Feature", "geometry": {"type": "Point", "coordinates": [13.8009654, 49.7006581]}, "properties": {"man_made": "water_well", "ref:zabaged": "7363116", "zabaged_typ": "studna, vrt", "in_osm_50m": false}}, {"type": "Feature", "geometry": {"type": "Point", "coordinates": [13.8152433, 49.7018233]}, "properties": {"man_made": "water_well", "ref:zabaged": "7363118", "zabaged_typ": "studna, vrt", "in_osm_50m": false}}, {"type": "Feature", "geometry": {"type": "Point", "coordinates": [13.8119223, 49.6910829]}, "properties": {"man_made": "water_well", "ref:zabaged": "7363119", "zabaged_typ": "studna, vrt", "in_osm_50m": false}}, {"type": "Feature", "geometry": {"type": "Point", "coordinates": [13.8059585, 49.6892575]}, "properties": {"man_made": "water_well", "ref:zabaged": "7363120", "zabaged_typ": "studna, vrt", "in_osm_50m": false}}, {"type": "Feature", "geometry": {"type": "Point", "coordinates": [13.8039397, 49.6955177]}, "properties": {"man_made": "water_well", "ref:zabaged": "7363121", "zabaged_typ": "studna, vrt", "in_osm_50m": false}}, {"type": "Feature", "geometry": {"type": "Point", "coordinates": [13.8111072, 49.6632167]}, "properties": {"man_made": "water_well", "ref:zabaged": "7363123", "zabaged_typ": "studna, vrt", "in_osm_50m": true}}, {"type": "Feature", "geometry": {"type": "Point", "coordinates": [13.8790123, 49.6700752]}, "properties": {"man_made": "water_well", "ref:zabaged": "7363124", "zabaged_typ": "studna, vrt", "in_osm_50m": true}}, {"type": "Feature", "geometry": {"type": "Point", "coordinates": [13.8381066, 49.6478779]}, "properties": {"man_made": "water_well", "ref:zabaged": "7363127", "zabaged_typ": "studna, vrt", "in_osm_50m": false}}, {"type": "Feature", "geometry": {"type": "Point", "coordinates": [13.8390375, 49.6443638]}, "properties": {"man_made": "water_well", "ref:zabaged": "7363128", "zabaged_typ": "studna, vrt", "in_osm_50m": true}}, {"type": "Feature", "geometry": {"type": "Point", "coordinates": [13.828932, 49.6259722]}, "properties": {"natural": "spring", "ref:zabaged": "7363129", "zabaged_typ": "pramen", "in_osm_50m": false}}, {"type": "Feature", "geometry": {"type": "Point", "coordinates": [13.9113785, 49.6493412]}, "properties": {"man_made": "water_well", "ref:zabaged": "7363133", "zabaged_typ": "studna, vrt", "in_osm_50m": false}}, {"type": "Feature", "geometry": {"type": "Point", "coordinates": [13.9631599, 49.6521372]}, "properties": {"man_made": "water_well", "ref:zabaged": "7363134", "zabaged_typ": "studna, vrt", "in_osm_50m": false}}, {"type": "Feature", "geometry": {"type": "Point", "coordinates": [13.9629599, 49.6516817]}, "properties": {"man_made": "water_well", "ref:zabaged": "7363135", "zabaged_typ": "studna, vrt", "in_osm_50m": false}}, {"type": "Feature", "geometry": {"type": "Point", "coordinates": [13.9665368, 49.6402341]}, "properties": {"man_made": "water_well", "ref:zabaged": "7363136", "zabaged_typ": "studna, vrt", "in_osm_50m": false}}, {"type": "Feature", "geometry": {"type": "Point", "coordinates": [13.9436969, 49.6585365]}, "properties": {"man_made": "water_well", "ref:zabaged": "7363137", "zabaged_typ": "studna, vrt", "in_osm_50m": false}}, {"type": "Feature", "geometry": {"type": "Point", "coordinates": [13.9658033, 49.6374427]}, "properties": {"man_made": "water_well", "ref:zabaged": "7363138", "zabaged_typ": "studna, vrt", "in_osm_50m": false}}, {"type": "Feature", "geometry": {"type": "Point", "coordinates": [13.9667847, 49.6373353]}, "properties": {"man_made": "water_well", "ref:zabaged": "7363139", "zabaged_typ": "studna, vrt", "in_osm_50m": false}}, {"type": "Feature", "geometry": {"type": "Point", "coordinates": [13.9276271, 49.6223273]}, "properties": {"man_made": "water_well", "ref:zabaged": "7363140", "zabaged_typ": "studna, vrt", "in_osm_50m": false}}, {"type": "Feature", "geometry": {"type": "Point", "coordinates": [13.9704149, 49.6169249]}, "properties": {"man_made": "water_well", "ref:zabaged": "7363141", "zabaged_typ": "studna, vrt", "in_osm_50m": false}}, {"type": "Feature", "geometry": {"type": "Point", "coordinates": [13.8427429, 49.6258027]}, "properties": {"man_made": "water_well", "ref:zabaged": "7363145", "zabaged_typ": "studna, vrt", "in_osm_50m": false}}, {"type": "Feature", "geometry": {"type": "Point", "coordinates": [13.8422514, 49.6245984]}, "properties": {"man_made": "water_well", "ref:zabaged": "7363146", "zabaged_typ": "studna, vrt", "in_osm_50m": false}}, {"type": "Feature", "geometry": {"type": "Point", "coordinates": [13.8970298, 49.5919638]}, "properties": {"man_made": "water_well", "ref:zabaged": "7363151", "zabaged_typ": "studna, vrt", "in_osm_50m": false}}, {"type": "Feature", "geometry": {"type": "Point", "coordinates": [13.8481944, 49.598476]}, "properties": {"man_made": "water_well", "ref:zabaged": "7363186", "zabaged_typ": "studna, vrt", "in_osm_50m": false}}, {"type": "Feature", "geometry": {"type": "Point", "coordinates": [13.9367919, 49.5961263]}, "properties": {"man_made": "water_well", "ref:zabaged": "7363189", "zabaged_typ": "studna, vrt", "in_osm_50m": false}}, {"type": "Feature", "geometry": {"type": "Point", "coordinates": [13.8722809, 49.6212379]}, "properties": {"man_made": "water_well", "ref:zabaged": "7363330", "zabaged_typ": "studna, vrt", "in_osm_50m": false}}, {"type": "Feature", "geometry": {"type": "Point", "coordinates": [13.8714124, 49.6221907]}, "properties": {"man_made": "water_well", "ref:zabaged": "7363331", "zabaged_typ": "studna, vrt", "in_osm_50m": false}}, {"type": "Feature", "geometry": {"type": "Point", "coordinates": [13.8729447, 49.620501]}, "properties": {"man_made": "water_well", "ref:zabaged": "7363332", "zabaged_typ": "studna, vrt", "in_osm_50m": false}}, {"type": "Feature", "geometry": {"type": "Point", "coordinates": [13.8760891, 49.6168347]}, "properties": {"man_made": "water_well", "ref:zabaged": "7363333", "zabaged_typ": "studna, vrt", "in_osm_50m": false}}, {"type": "Feature", "geometry": {"type": "Point", "coordinates": [13.9774482, 49.6393426]}, "properties": {"man_made": "water_well", "ref:zabaged": "7363335", "zabaged_typ": "studna, vrt", "in_osm_50m": false}}, {"type": "Feature", "geometry": {"type": "Point", "coordinates": [13.9359211, 49.5966055]}, "properties": {"man_made": "water_well", "ref:zabaged": "7363190", "zabaged_typ": "studna, vrt", "in_osm_50m": false}}, {"type": "Feature", "geometry": {"type": "Point", "coordinates": [13.9744693, 49.6370436]}, "properties": {"man_made": "water_well", "ref:zabaged": "7363336", "zabaged_typ": "studna, vrt", "in_osm_50m": false}}, {"type": "Feature", "geometry": {"type": "Point", "coordinates": [13.9742996, 49.6947741]}, "properties": {"natural": "spring", "ref:zabaged": "7363344", "zabaged_typ": "pramen", "in_osm_50m": true}}, {"type": "Feature", "geometry": {"type": "Point", "coordinates": [13.988248, 49.6612359]}, "properties": {"man_made": "water_well", "ref:zabaged": "7363345", "zabaged_typ": "studna, vrt", "in_osm_50m": false}}, {"type": "Feature", "geometry": {"type": "Point", "coordinates": [14.0595368, 49.6476561]}, "properties": {"man_made": "water_well", "ref:zabaged": "7363445", "zabaged_typ": "studna, vrt", "in_osm_50m": false}}, {"type": "Feature", "geometry": {"type": "Point", "coordinates": [14.0452721, 49.6029087]}, "properties": {"man_made": "water_well", "ref:zabaged": "7363467", "zabaged_typ": "studna, vrt", "in_osm_50m": false}}, {"type": "Feature", "geometry": {"type": "Point", "coordinates": [13.9828003, 49.7321612]}, "properties": {"natural": "spring", "ref:zabaged": "433899473732985", "zabaged_typ": "pramen", "in_osm_50m": true}}, {"type": "Feature", "geometry": {"type": "Point", "coordinates": [13.9278637, 49.7230291]}, "properties": {"man_made": "water_well", "ref:zabaged": "434492380546425", "zabaged_typ": "studna, vrt", "in_osm_50m": false}}, {"type": "Feature", "geometry": {"type": "Point", "coordinates": [13.9702144, 49.7660007]}, "properties": {"man_made": "water_well", "ref:zabaged": "437769860023673", "zabaged_typ": "studna, vrt", "in_osm_50m": false}}, {"type": "Feature", "geometry": {"type": "Point", "coordinates": [13.8048742, 49.745503]}, "properties": {"man_made": "water_well", "ref:zabaged": "457193950283129", "zabaged_typ": "studna, vrt", "in_osm_50m": false}}, {"type": "Feature", "geometry": {"type": "Point", "coordinates": [14.0506665, 49.6106472]}, "properties": {"man_made": "water_well", "ref:zabaged": "458557484959097", "zabaged_typ": "studna, vrt", "in_osm_50m": false}}, {"type": "Feature", "geometry": {"type": "Point", "coordinates": [13.8657016, 49.5938466]}, "properties": {"man_made": "water_well", "ref:zabaged": "462210337867129", "zabaged_typ": "studna, vrt", "in_osm_50m": false}}, {"type": "Feature", "geometry": {"type": "Point", "coordinates": [13.865146, 49.5944518]}, "properties": {"man_made": "water_well", "ref:zabaged": "462210388198777", "zabaged_typ": "studna, vrt", "in_osm_50m": false}}, {"type": "Feature", "geometry": {"type": "Point", "coordinates": [14.0262783, 49.7011934]}, "properties": {"man_made": "water_well", "ref:zabaged": "462791232193913", "zabaged_typ": "studna, vrt", "in_osm_50m": false}}, {"type": "Feature", "geometry": {"type": "Point", "coordinates": [14.0531909, 49.6329724]}, "properties": {"man_made": "water_well", "ref:zabaged": "463409355163001", "zabaged_typ": "studna, vrt", "in_osm_50m": false}}, {"type": "Feature", "geometry": {"type": "Point", "coordinates": [14.0442614, 49.6112086]}, "properties": {"man_made": "water_well", "ref:zabaged": "463439302493561", "zabaged_typ": "studna, vrt", "in_osm_50m": false}}, {"type": "Feature", "geometry": {"type": "Point", "coordinates": [14.0404924, 49.6617495]}, "properties": {"man_made": "water_well", "ref:zabaged": "467984736847225", "zabaged_typ": "studna, vrt", "in_osm_50m": false}}, {"type": "Feature", "geometry": {"type": "Point", "coordinates": [13.7363361, 49.7933469]}, "properties": {"man_made": "water_well", "ref:zabaged": "1599369686025593", "zabaged_typ": "studna, vrt", "in_osm_50m": false}}, {"type": "Feature", "geometry": {"type": "Point", "coordinates": [13.9777443, 49.7826782]}, "properties": {"man_made": "water_well", "ref:zabaged": "1598565117855097", "zabaged_typ": "studna, vrt", "in_osm_50m": false}}, {"type": "Feature", "geometry": {"type": "Point", "coordinates": [13.8474187, 49.6007222]}, "properties": {"man_made": "water_well", "ref:zabaged": "1603396989617529", "zabaged_typ": "studna, vrt", "in_osm_50m": false}}, {"type": "Feature", "geometry": {"type": "Point", "coordinates": [13.8170613, 49.6150687]}, "properties": {"man_made": "water_well", "ref:zabaged": "1602388695713145", "zabaged_typ": "studna, vrt", "in_osm_50m": false}}, {"type": "Feature", "geometry": {"type": "Point", "coordinates": [13.9870437, 49.6021096]}, "properties": {"man_made": "water_well", "ref:zabaged": "1605663927043449", "zabaged_typ": "studna, vrt", "in_osm_50m": false}}, {"type": "Feature", "geometry": {"type": "Point", "coordinates": [13.9868924, 49.6018148]}, "properties": {"man_made": "water_well", "ref:zabaged": "1605663977375097", "zabaged_typ": "studna, vrt", "in_osm_50m": false}}, {"type": "Feature", "geometry": {"type": "Point", "coordinates": [13.9712024, 49.6498799]}, "properties": {"man_made": "water_well", "ref:zabaged": "1616917043348857", "zabaged_typ": "studna, vrt", "in_osm_50m": false}}, {"type": "Feature", "geometry": {"type": "Point", "coordinates": [13.8390875, 49.6446965]}, "properties": {"natural": "spring", "ref:zabaged": "1625430121514361", "zabaged_typ": "pramen", "in_osm_50m": true}}, {"type": "Feature", "geometry": {"type": "Point", "coordinates": [13.9377578, 49.5952359]}, "properties": {"man_made": "water_well", "ref:zabaged": "1643967032591737", "zabaged_typ": "studna, vrt", "in_osm_50m": false}}, {"type": "Feature", "geometry": {"type": "Point", "coordinates": [13.9376666, 49.5955784]}, "properties": {"man_made": "water_well", "ref:zabaged": "1643967183586681", "zabaged_typ": "studna, vrt", "in_osm_50m": false}}, {"type": "Feature", "geometry": {"type": "Point", "coordinates": [13.9790139, 49.702241]}, "properties": {"natural": "spring", "ref:zabaged": "1666275025618297", "zabaged_typ": "pramen", "in_osm_50m": true}}, {"type": "Feature", "geometry": {"type": "Point", "coordinates": [13.8731062, 49.7786604]}, "properties": {"natural": "spring", "ref:zabaged": "1876648597128569", "zabaged_typ": "pramen", "in_osm_50m": false}}, {"type": "Feature", "geometry": {"type": "Point", "coordinates": [14.0208366, 49.7647976]}, "properties": {"man_made": "water_well", "ref:zabaged": "3370123045896192", "zabaged_typ": "studna, vrt", "in_osm_50m": false}}, {"type": "Feature", "geometry": {"type": "Point", "coordinates": [14.0208582, 49.7646229]}, "properties": {"man_made": "water_well", "ref:zabaged": "3370123146559488", "zabaged_typ": "studna, vrt", "in_osm_50m": false}}, {"type": "Feature", "geometry": {"type": "Point", "coordinates": [14.0223429, 49.7650875]}, "properties": {"man_made": "water_well", "ref:zabaged": "3370123398217728", "zabaged_typ": "studna, vrt", "in_osm_50m": false}}, {"type": "Feature", "geometry": {"type": "Point", "coordinates": [14.0490026, 49.7597331]}, "properties": {"man_made": "water_well", "ref:zabaged": "3370280214855680", "zabaged_typ": "studna, vrt", "in_osm_50m": false}}, {"type": "Feature", "geometry": {"type": "Point", "coordinates": [13.9370832, 49.7229809]}, "properties": {"natural": "spring", "ref:zabaged": "3520806973865984", "zabaged_typ": "pramen", "in_osm_50m": false}}, {"type": "Feature", "geometry": {"type": "Point", "coordinates": [13.943938, 49.7356019]}, "properties": {"man_made": "water_well", "ref:zabaged": "3520805765906432", "zabaged_typ": "studna, vrt", "in_osm_50m": false}}, {"type": "Feature", "geometry": {"type": "Point", "coordinates": [13.9401086, 49.705354]}, "properties": {"man_made": "water_well", "ref:zabaged": "3521439055478784", "zabaged_typ": "studna, vrt", "in_osm_50m": false}}, {"type": "Feature", "geometry": {"type": "Point", "coordinates": [13.8563586, 49.7949123]}, "properties": {"man_made": "water_well", "ref:zabaged": "3521522371133440", "zabaged_typ": "studna, vrt", "in_osm_50m": false}}, {"type": "Feature", "geometry": {"type": "Point", "coordinates": [13.8391668, 49.7829892]}, "properties": {"man_made": "water_well", "ref:zabaged": "3523374424784896", "zabaged_typ": "studna, vrt", "in_osm_50m": false}}, {"type": "Feature", "geometry": {"type": "Point", "coordinates": [13.8337387, 49.7738709]}, "properties": {"amenity": "fountain", "ref:zabaged": "3523386101727232", "zabaged_typ": "kašna", "in_osm_50m": false}}, {"type": "Feature", "geometry": {"type": "Point", "coordinates": [13.8411595, 49.7759936]}, "properties": {"man_made": "water_well", "ref:zabaged": "3523916077203456", "zabaged_typ": "studna, vrt", "in_osm_50m": true}}, {"type": "Feature", "geometry": {"type": "Point", "coordinates": [13.9801831, 49.7090006]}, "properties": {"man_made": "water_well", "ref:zabaged": "3528381719117824", "zabaged_typ": "studna, vrt", "in_osm_50m": false}}, {"type": "Feature", "geometry": {"type": "Point", "coordinates": [13.9564834, 49.7345808]}, "properties": {"man_made": "water_well", "ref:zabaged": "3528449733951488", "zabaged_typ": "studna, vrt", "in_osm_50m": false}}, {"type": "Feature", "geometry": {"type": "Point", "coordinates": [13.8039092, 49.7453908]}, "properties": {"natural": "spring", "ref:zabaged": "3531015054163968", "zabaged_typ": "pramen", "in_osm_50m": false}}, {"type": "Feature", "geometry": {"type": "Point", "coordinates": [13.8016227, 49.7515665]}, "properties": {"man_made": "water_well", "ref:zabaged": "3531293824385024", "zabaged_typ": "studna, vrt", "in_osm_50m": false}}, {"type": "Feature", "geometry": {"type": "Point", "coordinates": [13.8017551, 49.7512865]}, "properties": {"man_made": "water_well", "ref:zabaged": "3531294747131904", "zabaged_typ": "studna, vrt", "in_osm_50m": false}}, {"type": "Feature", "geometry": {"type": "Point", "coordinates": [13.96168, 49.7934845]}, "properties": {"man_made": "water_well", "ref:zabaged": "3533106871009280", "zabaged_typ": "studna, vrt", "in_osm_50m": false}}, {"type": "Feature", "geometry": {"type": "Point", "coordinates": [13.9600865, 49.7870234]}, "properties": {"man_made": "water_well", "ref:zabaged": "3533974219522048", "zabaged_typ": "studna, vrt", "in_osm_50m": false}}, {"type": "Feature", "geometry": {"type": "Point", "coordinates": [13.966098, 49.7759031]}, "properties": {"natural": "spring", "ref:zabaged": "3534027587846144", "zabaged_typ": "pramen", "in_osm_50m": false}}, {"type": "Feature", "geometry": {"type": "Point", "coordinates": [13.8767104, 49.7765716]}, "properties": {"natural": "spring", "ref:zabaged": "3551243192500224", "zabaged_typ": "pramen", "in_osm_50m": false}}, {"type": "Feature", "geometry": {"type": "Point", "coordinates": [13.9892217, 49.7512719]}, "properties": {"man_made": "water_well", "ref:zabaged": "3558262947446784", "zabaged_typ": "studna, vrt", "in_osm_50m": false}}, {"type": "Feature", "geometry": {"type": "Point", "coordinates": [13.8612048, 49.7724321]}, "properties": {"man_made": "water_well", "ref:zabaged": "3619638164324352", "zabaged_typ": "studna, vrt", "in_osm_50m": false}}, {"type": "Feature", "geometry": {"type": "Point", "coordinates": [13.9851025, 49.6922149]}, "properties": {"man_made": "water_well", "ref:zabaged": "3619775519391744", "zabaged_typ": "studna, vrt", "in_osm_50m": false}}, {"type": "Feature", "geometry": {"type": "Point", "coordinates": [13.990549, 49.6040293]}, "properties": {"natural": "spring", "ref:zabaged": "3626880183828480", "zabaged_typ": "pramen", "in_osm_50m": false}}, {"type": "Feature", "geometry": {"type": "Point", "coordinates": [14.0136481, 49.6210059]}, "properties": {"man_made": "water_well", "ref:zabaged": "3634866155421696", "zabaged_typ": "studna, vrt", "in_osm_50m": false}}, {"type": "Feature", "geometry": {"type": "Point", "coordinates": [13.9089227, 49.587803]}, "properties": {"man_made": "water_well", "ref:zabaged": "3637613122551808", "zabaged_typ": "studna, vrt", "in_osm_50m": false}}, {"type": "Feature", "geometry": {"type": "Point", "coordinates": [14.0189022, 49.6143305]}, "properties": {"man_made": "water_well", "ref:zabaged": "3641424469819392", "zabaged_typ": "studna, vrt", "in_osm_50m": false}}, {"type": "Feature", "geometry": {"type": "Point", "coordinates": [14.0452662, 49.6036625]}, "properties": {"man_made": "water_well", "ref:zabaged": "3641990163988480", "zabaged_typ": "studna, vrt", "in_osm_50m": false}}, {"type": "Feature", "geometry": {"type": "Point", "coordinates": [13.9907828, 49.6040889]}, "properties": {"man_made": "water_well", "ref:zabaged": "3642011957592064", "zabaged_typ": "studna, vrt", "in_osm_50m": false}}, {"type": "Feature", "geometry": {"type": "Point", "coordinates": [13.8223746, 49.6276886]}, "properties": {"man_made": "water_well", "ref:zabaged": "3644232472461312", "zabaged_typ": "studna, vrt", "in_osm_50m": false}}, {"type": "Feature", "geometry": {"type": "Point", "coordinates": [13.8427977, 49.6252795]}, "properties": {"man_made": "water_well", "ref:zabaged": "3644258393260032", "zabaged_typ": "studna, vrt", "in_osm_50m": false}}, {"type": "Feature", "geometry": {"type": "Point", "coordinates": [13.8462545, 49.6278615]}, "properties": {"natural": "spring", "ref:zabaged": "3644265641017344", "zabaged_typ": "pramen", "in_osm_50m": false}}, {"type": "Feature", "geometry": {"type": "Point", "coordinates": [13.8474021, 49.6281167]}, "properties": {"natural": "spring", "ref:zabaged": "3644266496655360", "zabaged_typ": "pramen", "in_osm_50m": false}}, {"type": "Feature", "geometry": {"type": "Point", "coordinates": [13.851611, 49.6067585]}, "properties": {"man_made": "water_well", "ref:zabaged": "3644310285189120", "zabaged_typ": "studna, vrt", "in_osm_50m": false}}, {"type": "Feature", "geometry": {"type": "Point", "coordinates": [13.8190865, 49.6887122]}, "properties": {"natural": "spring", "ref:zabaged": "3644430997258240", "zabaged_typ": "pramen", "in_osm_50m": true}}, {"type": "Feature", "geometry": {"type": "Point", "coordinates": [13.7554686, 49.648249]}, "properties": {"man_made": "water_well", "ref:zabaged": "3710184614526976", "zabaged_typ": "studna, vrt", "in_osm_50m": false}}, {"type": "Feature", "geometry": {"type": "Point", "coordinates": [13.8828332, 49.597411]}, "properties": {"man_made": "water_well", "ref:zabaged": "3710289237245952", "zabaged_typ": "studna, vrt", "in_osm_50m": false}}, {"type": "Feature", "geometry": {"type": "Point", "coordinates": [13.7771152, 49.6539132]}, "properties": {"natural": "spring", "ref:zabaged": "3710292911456256", "zabaged_typ": "pramen", "in_osm_50m": true}}, {"type": "Feature", "geometry": {"type": "Point", "coordinates": [13.7529582, 49.6856472]}, "properties": {"natural": "spring", "ref:zabaged": "3712091445788672", "zabaged_typ": "pramen", "in_osm_50m": true}}, {"type": "Feature", "geometry": {"type": "Point", "coordinates": [13.7373187, 49.6688114]}, "properties": {"natural": "spring", "ref:zabaged": "3712097284259840", "zabaged_typ": "pramen", "in_osm_50m": false}}, {"type": "Feature", "geometry": {"type": "Point", "coordinates": [13.7719591, 49.673034]}, "properties": {"natural": "spring", "ref:zabaged": "3712129228079104", "zabaged_typ": "pramen", "in_osm_50m": true}}, {"type": "Feature", "geometry": {"type": "Point", "coordinates": [13.8738138, 49.6070474]}, "properties": {"man_made": "water_well", "ref:zabaged": "3722491222556672", "zabaged_typ": "studna, vrt", "in_osm_50m": false}}, {"type": "Feature", "geometry": {"type": "Point", "coordinates": [13.8663473, 49.6012214]}, "properties": {"amenity": "fountain", "ref:zabaged": "3729827697786880", "zabaged_typ": "kašna", "in_osm_50m": true}}, {"type": "Feature", "geometry": {"type": "Point", "coordinates": [13.9115505, 49.6063509]}, "properties": {"man_made": "water_well", "ref:zabaged": "3732639961841664", "zabaged_typ": "studna, vrt", "in_osm_50m": false}}, {"type": "Feature", "geometry": {"type": "Point", "coordinates": [13.9145708, 49.6043795]}, "properties": {"man_made": "water_well", "ref:zabaged": "3732645800312832", "zabaged_typ": "studna, vrt", "in_osm_50m": false}}, {"type": "Feature", "geometry": {"type": "Point", "coordinates": [13.9077583, 49.6139668]}, "properties": {"man_made": "water_well", "ref:zabaged": "3732541831905280", "zabaged_typ": "studna, vrt", "in_osm_50m": false}}, {"type": "Feature", "geometry": {"type": "Point", "coordinates": [14.0396935, 49.6863066]}, "properties": {"man_made": "water_well", "ref:zabaged": "3733638239748096", "zabaged_typ": "studna, vrt", "in_osm_50m": false}}, {"type": "Feature", "geometry": {"type": "Point", "coordinates": [14.0001328, 49.6759536]}, "properties": {"amenity": "fountain", "ref:zabaged": "3733674780524544", "zabaged_typ": "kašna", "in_osm_50m": true}}, {"type": "Feature", "geometry": {"type": "Point", "coordinates": [13.9961439, 49.6783507]}, "properties": {"amenity": "fountain", "ref:zabaged": "3735099904360448", "zabaged_typ": "kašna", "in_osm_50m": true}}, {"type": "Feature", "geometry": {"type": "Point", "coordinates": [14.0094435, 49.6880792]}, "properties": {"amenity": "fountain", "ref:zabaged": "3737072468754432", "zabaged_typ": "kašna", "in_osm_50m": true}}, {"type": "Feature", "geometry": {"type": "Point", "coordinates": [14.008862, 49.6890501]}, "properties": {"amenity": "fountain", "ref:zabaged": "3737073022402560", "zabaged_typ": "kašna", "in_osm_50m": true}}, {"type": "Feature", "geometry": {"type": "Point", "coordinates": [13.8029571, 49.6622348]}, "properties": {"man_made": "water_well", "ref:zabaged": "3736156432760832", "zabaged_typ": "studna, vrt", "in_osm_50m": true}}, {"type": "Feature", "geometry": {"type": "Point", "coordinates": [13.8024388, 49.6619655]}, "properties": {"man_made": "water_well", "ref:zabaged": "3736157640720384", "zabaged_typ": "studna, vrt", "in_osm_50m": true}}, {"type": "Feature", "geometry": {"type": "Point", "coordinates": [13.8459208, 49.5855427]}, "properties": {"man_made": "water_well", "ref:zabaged": "3740803855810560", "zabaged_typ": "studna, vrt", "in_osm_50m": false}}, {"type": "Feature", "geometry": {"type": "Point", "coordinates": [13.847538, 49.5814918]}, "properties": {"man_made": "water_well", "ref:zabaged": "3740811657216000", "zabaged_typ": "studna, vrt", "in_osm_50m": false}}, {"type": "Feature", "geometry": {"type": "Point", "coordinates": [13.8463108, 49.5849783]}, "properties": {"man_made": "water_well", "ref:zabaged": "3740839138295808", "zabaged_typ": "studna, vrt", "in_osm_50m": false}}, {"type": "Feature", "geometry": {"type": "Point", "coordinates": [13.8270856, 49.6492958]}, "properties": {"man_made": "water_well", "ref:zabaged": "3744719054045184", "zabaged_typ": "studna, vrt", "in_osm_50m": false}}, {"type": "Feature", "geometry": {"type": "Point", "coordinates": [13.8264444, 49.6494686]}, "properties": {"man_made": "water_well", "ref:zabaged": "3744719305703424", "zabaged_typ": "studna, vrt", "in_osm_50m": false}}, {"type": "Feature", "geometry": {"type": "Point", "coordinates": [13.8256719, 49.6496811]}, "properties": {"man_made": "water_well", "ref:zabaged": "3744719456698368", "zabaged_typ": "studna, vrt", "in_osm_50m": false}}, {"type": "Feature", "geometry": {"type": "Point", "coordinates": [14.0534701, 49.6980146]}, "properties": {"man_made": "water_well", "ref:zabaged": "4921110260875264", "zabaged_typ": "studna, vrt", "in_osm_50m": false}}, {"type": "Feature", "geometry": {"type": "Point", "coordinates": [14.0547702, 49.6632017]}, "properties": {"man_made": "water_well", "ref:zabaged": "6917203408453632", "zabaged_typ": "studna, vrt", "in_osm_50m": false}}, {"type": "Feature", "geometry": {"type": "Point", "coordinates": [13.8614521, 49.7658155]}, "properties": {"natural": "spring", "ref:zabaged": "7875622172884992", "zabaged_typ": "pramen", "in_osm_50m": true}}, {"type": "Feature", "geometry": {"type": "Point", "coordinates": [13.900792, 49.7688999]}, "properties": {"natural": "spring", "ref:zabaged": "7875625746432000", "zabaged_typ": "pramen", "in_osm_50m": true}}, {"type": "Feature", "geometry": {"type": "Point", "coordinates": [13.9265186, 49.7072598]}, "properties": {"natural": "spring", "ref:zabaged": "7875683829153792", "zabaged_typ": "pramen", "in_osm_50m": true}}, {"type": "Feature", "geometry": {"type": "Point", "coordinates": [13.9290938, 49.7063049]}, "properties": {"natural": "spring", "ref:zabaged": "7875684886118400", "zabaged_typ": "pramen", "in_osm_50m": false}}, {"type": "Feature", "geometry": {"type": "Point", "coordinates": [13.8263822, 49.6832555]}, "properties": {"natural": "spring", "name": "Uhlířská", "ref:zabaged": "3644453159960576", "zabaged_typ": "pramen", "in_osm_50m": true}}, {"type": "Feature", "geometry": {"type": "Point", "coordinates": [13.8471219, 49.6657221]}, "properties": {"natural": "spring", "name": "Mariina studánka", "ref:zabaged": "47898525857480704", "zabaged_typ": "pramen", "in_osm_50m": false}}, {"type": "Feature", "geometry": {"type": "Point", "coordinates": [13.7819003, 49.5752984]}, "properties": {"natural": "spring", "name": "Kobylí hlava", "ref:zabaged": "47967729507893248", "zabaged_typ": "pramen", "in_osm_50m": false}}, {"type": "Feature", "geometry": {"type": "Point", "coordinates": [13.8020082, 49.6286429]}, "properties": {"natural": "spring", "name": "Varta", "ref:zabaged": "48265873235902464", "zabaged_typ": "pramen", "in_osm_50m": true}}, {"type": "Feature", "geometry": {"type": "Point", "coordinates": [13.869223, 49.6687601]}, "properties": {"natural": "spring", "name": "Pod brdeckou cestou", "ref:zabaged": "48508543216648192", "zabaged_typ": "pramen", "in_osm_50m": true}}, {"type": "Feature", "geometry": {"type": "Point", "coordinates": [13.89135, 49.6765591]}, "properties": {"natural": "spring", "name": "Maruška", "ref:zabaged": "48508619217436672", "zabaged_typ": "pramen", "in_osm_50m": true}}, {"type": "Feature", "geometry": {"type": "Point", "coordinates": [13.9822093, 49.7606679]}, "properties": {"natural": "spring", "name": "U spadlého mostu", "ref:zabaged": "7362352", "zabaged_typ": "pramen", "in_osm_50m": false}}, {"type": "Feature", "geometry": {"type": "Point", "coordinates": [13.9963155, 49.8011779]}, "properties": {"natural": "spring", "name": "Eliščina studánka", "ref:zabaged": "7362445", "zabaged_typ": "pramen", "in_osm_50m": false}}, {"type": "Feature", "geometry": {"type": "Point", "coordinates": [13.8785007, 49.7949663]}, "properties": {"natural": "spring", "name": "Bílá zář", "ref:zabaged": "3548475975270400", "zabaged_typ": "pramen", "in_osm_50m": true}}, {"type": "Feature", "geometry": {"type": "Point", "coordinates": [14.0023906, 49.7597728]}, "properties": {"natural": "spring", "name": "Pod Slonovcem", "ref:zabaged": "49225851945877504", "zabaged_typ": "pramen", "in_osm_50m": false}}, {"type": "Feature", "geometry": {"type": "Point", "coordinates": [13.9927636, 49.8006101]}, "properties": {"natural": "spring", "name": "U Milenky", "ref:zabaged": "50779566448312320", "zabaged_typ": "pramen", "in_osm_50m": false}}, {"type": "Feature", "geometry": {"type": "Point", "coordinates": [13.8905931, 49.7243915]}, "properties": {"natural": "spring", "name": "Anička", "ref:zabaged": "50883528396636160", "zabaged_typ": "pramen", "in_osm_50m": false}}, {"type": "Feature", "geometry": {"type": "Point", "coordinates": [13.8579997, 49.714699]}, "properties": {"natural": "spring", "name": "Pod Jordánem", "ref:zabaged": "50883566279589888", "zabaged_typ": "pramen", "in_osm_50m": true}}, {"type": "Feature", "geometry": {"type": "Point", "coordinates": [14.0047124, 49.7873958]}, "properties": {"natural": "spring", "name": "U cikánky", "ref:zabaged": "50989802933190656", "zabaged_typ": "pramen", "in_osm_50m": true}}, {"type": "Feature", "geometry": {"type": "Point", "coordinates": [13.9875861, 49.8004141]}, "properties": {"natural": "spring", "name": "Živá voda", "ref:zabaged": "3533964958498816", "zabaged_typ": "pramen", "in_osm_50m": false}}, {"type": "Feature", "geometry": {"type": "Point", "coordinates": [13.9908866, 49.605441]}, "properties": {"man_made": "water_well", "ref:zabaged": "46701027906289664", "zabaged_typ": "studna, vrt", "in_osm_50m": false}}, {"type": "Feature", "geometry": {"type": "Point", "coordinates": [13.9247855, 49.6806111]}, "properties": {"natural": "spring", "ref:zabaged": "47068884741652480", "zabaged_typ": "pramen", "in_osm_50m": false}}, {"type": "Feature", "geometry": {"type": "Point", "coordinates": [13.9506576, 49.7033962]}, "properties": {"natural": "spring", "ref:zabaged": "47068887610556416", "zabaged_typ": "pramen", "in_osm_50m": false}}, {"type": "Feature", "geometry": {"type": "Point", "coordinates": [13.9727069, 49.7102053]}, "properties": {"man_made": "water_well", "ref:zabaged": "47034086883065856", "zabaged_typ": "studna, vrt", "in_osm_50m": false}}, {"type": "Feature", "geometry": {"type": "Point", "coordinates": [13.973961, 49.7101436]}, "properties": {"man_made": "water_well", "ref:zabaged": "47034086832734208", "zabaged_typ": "studna, vrt", "in_osm_50m": false}}, {"type": "Feature", "geometry": {"type": "Point", "coordinates": [13.9434461, 49.6287747]}, "properties": {"man_made": "water_well", "ref:zabaged": "47415067594981376", "zabaged_typ": "studna, vrt", "in_osm_50m": false}}, {"type": "Feature", "geometry": {"type": "Point", "coordinates": [13.8077594, 49.6863781]}, "properties": {"natural": "spring", "ref:zabaged": "47898417812209664", "zabaged_typ": "pramen", "in_osm_50m": true}}, {"type": "Feature", "geometry": {"type": "Point", "coordinates": [13.8997836, 49.6527446]}, "properties": {"natural": "spring", "ref:zabaged": "47518839457447936", "zabaged_typ": "pramen", "in_osm_50m": true}}, {"type": "Feature", "geometry": {"type": "Point", "coordinates": [13.8994743, 49.6505436]}, "properties": {"natural": "spring", "ref:zabaged": "47518840061427712", "zabaged_typ": "pramen", "in_osm_50m": true}}, {"type": "Feature", "geometry": {"type": "Point", "coordinates": [13.9203335, 49.6696095]}, "properties": {"natural": "spring", "ref:zabaged": "48473424644800512", "zabaged_typ": "pramen", "in_osm_50m": true}}, {"type": "Feature", "geometry": {"type": "Point", "coordinates": [13.7893194, 49.6152365]}, "properties": {"natural": "spring", "ref:zabaged": "48403684542906368", "zabaged_typ": "pramen", "in_osm_50m": false}}, {"type": "Feature", "geometry": {"type": "Point", "coordinates": [13.777004, 49.7044151]}, "properties": {"natural": "spring", "ref:zabaged": "49544143684239360", "zabaged_typ": "pramen", "in_osm_50m": true}}, {"type": "Feature", "geometry": {"type": "Point", "coordinates": [14.014163, 49.6891796]}, "properties": {"amenity": "fountain", "ref:zabaged": "49787375466840064", "zabaged_typ": "kašna", "in_osm_50m": true}}, {"type": "Feature", "geometry": {"type": "Point", "coordinates": [14.0272165, 49.7002154]}, "properties": {"man_made": "water_well", "ref:zabaged": "462791131530617", "zabaged_typ": "studna, vrt", "in_osm_50m": false}}, {"type": "Feature", "geometry": {"type": "Point", "coordinates": [13.8107716, 49.7813402]}, "properties": {"man_made": "water_well", "ref:zabaged": "49925930306502656", "zabaged_typ": "studna, vrt", "in_osm_50m": false}}, {"type": "Feature", "geometry": {"type": "Point", "coordinates": [13.722999, 49.7450981]}, "properties": {"natural": "spring", "ref:zabaged": "48890458486603776", "zabaged_typ": "pramen", "in_osm_50m": false}}, {"type": "Feature", "geometry": {"type": "Point", "coordinates": [13.740473, 49.7457337]}, "properties": {"natural": "spring", "ref:zabaged": "49509360237281280", "zabaged_typ": "pramen", "in_osm_50m": false}}, {"type": "Feature", "geometry": {"type": "Point", "coordinates": [14.0235465, 49.7807024]}, "properties": {"natural": "spring", "ref:zabaged": "49226263641980928", "zabaged_typ": "pramen", "in_osm_50m": true}}, {"type": "Feature", "geometry": {"type": "Point", "coordinates": [14.0262581, 49.7625495]}, "properties": {"natural": "spring", "ref:zabaged": "49226263004446720", "zabaged_typ": "pramen", "in_osm_50m": false}}, {"type": "Feature", "geometry": {"type": "Point", "coordinates": [13.9789536, 49.7591265]}, "properties": {"natural": "spring", "ref:zabaged": "49226254448066560", "zabaged_typ": "pramen", "in_osm_50m": false}}, {"type": "Feature", "geometry": {"type": "Point", "coordinates": [13.917194, 49.7796031]}, "properties": {"man_made": "water_well", "ref:zabaged": "49439654444793856", "zabaged_typ": "studna, vrt", "in_osm_50m": false}}, {"type": "Feature", "geometry": {"type": "Point", "coordinates": [13.9429985, 49.8102436]}, "properties": {"man_made": "water_well", "ref:zabaged": "49260939060445184", "zabaged_typ": "studna, vrt", "in_osm_50m": false}}, {"type": "Feature", "geometry": {"type": "Point", "coordinates": [13.9416411, 49.788141]}, "properties": {"man_made": "water_well", "ref:zabaged": "49439605958639616", "zabaged_typ": "studna, vrt", "in_osm_50m": false}}, {"type": "Feature", "geometry": {"type": "Point", "coordinates": [13.9438096, 49.8103069]}, "properties": {"man_made": "water_well", "ref:zabaged": "7362343", "zabaged_typ": "studna, vrt", "in_osm_50m": false}}, {"type": "Feature", "geometry": {"type": "Point", "coordinates": [13.8573765, 49.8065109]}, "properties": {"amenity": "fountain", "ref:zabaged": "1454111811700089", "zabaged_typ": "kašna", "in_osm_50m": false}}, {"type": "Feature", "geometry": {"type": "Point", "coordinates": [13.8789314, 49.7951548]}, "properties": {"natural": "spring", "name": "Charlotte", "ref:zabaged": "50883985542217728", "zabaged_typ": "pramen", "in_osm_50m": true}}, {"type": "Feature", "geometry": {"type": "Point", "coordinates": [13.8469136, 49.7735526]}, "properties": {"natural": "spring", "name": "Klajnarka", "ref:zabaged": "50884007671365632", "zabaged_typ": "pramen", "in_osm_50m": false}}, {"type": "Feature", "geometry": {"type": "Point", "coordinates": [13.7938244, 49.7495183]}, "properties": {"natural": "spring", "name": "U Koců", "ref:zabaged": "53462943987138560", "zabaged_typ": "pramen", "in_osm_50m": true}}]}