{"type": "FeatureCollection", "features": [{"type": "Feature", "geometry": {"type": "LineString", "coordinates": [[15.657903, 49.501542], [15.657899, 49.501382], [15.657885, 49.501101], [15.657865, 49.50094], [15.657832, 49.500769], [15.657806, 49.500654], [15.657778, 49.500564], [15.657664, 49.500277], [15.65763, 49.500205]]}, "properties": {"dataset": "ZABAGED 6.12 Liniová vegetace", "natural": "tree_row", "ref:zabaged": "935150", "typveg_p": "stromořadí", "length_m": 150, "osm_tree_row_or_hedge_within_15m": false}}, {"type": "Feature", "geometry": {"type": "LineString", "coordinates": [[15.690399, 49.496356], [15.690376, 49.496359], [15.690221, 49.496381], [15.688877, 49.496545], [15.687546, 49.496709], [15.686891, 49.496789], [15.686173, 49.496882], [15.685896, 49.496924], [15.684759, 49.497099], [15.683648, 49.497258], [15.683441, 49.497287], [15.683322, 49.497301], [15.683155, 49.497318], [15.681925, 49.497409], [15.680401, 49.497513]]}, "properties": {"dataset": "ZABAGED 6.12 Liniová vegetace", "natural": "tree_row", "ref:zabaged": "3775585121730560", "typveg_p": "stromořadí", "length_m": 735, "osm_tree_row_or_hedge_within_15m": false}}, {"type": "Feature", "geometry": {"type": "LineString", "coordinates": [[15.660922, 49.498973], [15.660979, 49.498947], [15.661013, 49.49891], [15.66113, 49.49897], [15.661292, 49.499008], [15.661471, 49.499015], [15.661692, 49.498963], [15.661813, 49.49892], [15.662056, 49.498834], [15.662131, 49.498699], [15.662214, 49.498629], [15.662285, 49.498595], [15.662375, 49.49847], [15.662447, 49.498474], [15.662474, 49.498503], [15.662483, 49.498584], [15.662488, 49.498673], [15.662516, 49.498718], [15.662578, 49.498756], [15.66265, 49.498787], [15.662786, 49.498802], [15.662825, 49.498804]]}, "properties": {"dataset": "ZABAGED 6.12 Liniová vegetace", "natural": "tree_row", "ref:zabaged": "6031564727123968", "typveg_p": "stromořadí", "length_m": 199, "osm_tree_row_or_hedge_within_15m": false}}, {"type": "Feature", "geometry": {"type": "LineString", "coordinates": [[15.663575, 49.498188], [15.663461, 49.498151], [15.663394, 49.498122], [15.663351, 49.498078], [15.663367, 49.497896], [15.663341, 49.497831], [15.66322, 49.497693], [15.662931, 49.497307], [15.66317, 49.497215], [15.663425, 49.497188], [15.663842, 49.497101]]}, "properties": {"dataset": "ZABAGED 6.12 Liniová vegetace", "natural": "tree_row", "ref:zabaged": "936123", "typveg_p": "stromořadí", "length_m": 184, "osm_tree_row_or_hedge_within_15m": false}}, {"type": "Feature", "geometry": {"type": "LineString", "coordinates": [[15.632905, 49.464591], [15.63292, 49.464359], [15.633012, 49.464159], [15.633286, 49.463846], [15.633575, 49.463568], [15.63379, 49.463395], [15.634204, 49.4632], [15.63448, 49.463047], [15.634707, 49.462903]]}, "properties": {"dataset": "ZABAGED 6.12 Liniová vegetace", "natural": "tree_row", "ref:zabaged": "935428", "typveg_p": "stromořadí", "length_m": 237, "osm_tree_row_or_hedge_within_15m": false}}, {"type": "Feature", "geometry": {"type": "LineString", "coordinates": [[15.632426, 49.467405], [15.632546, 49.467495], [15.632763, 49.46764], [15.633035, 49.46772], [15.633426, 49.467827]]}, "properties": {"dataset": "ZABAGED 6.12 Liniová vegetace", "natural": "tree_row", "ref:zabaged": "644659541968460", "typveg_p": "stromořadí", "length_m": 88, "osm_tree_row_or_hedge_within_15m": false}}, {"type": "Feature", "geometry": {"type": "LineString", "coordinates": [[15.661975, 49.496513], [15.662112, 49.496564], [15.661923, 49.496665], [15.661883, 49.496764], [15.661899, 49.496881], [15.662034, 49.496997], [15.662675, 49.497194], [15.662957, 49.497575], [15.663193, 49.497891], [15.663187, 49.497945], [15.663204, 49.498104], [15.663243, 49.498161], [15.663279, 49.498195], [15.663345, 49.498236], [15.663451, 49.498255], [15.663509, 49.498286], [15.663479, 49.498344], [15.663382, 49.498432], [15.663245, 49.498515], [15.663141, 49.498603], [15.662938, 49.498688], [15.662829, 49.498688], [15.662729, 49.498675], [15.662681, 49.498647], [15.662676, 49.498546], [15.662633, 49.498411], [15.66255, 49.498353], [15.662461, 49.498327], [15.662333, 49.498341], [15.662285, 49.498357], [15.662014, 49.498565], [15.661945, 49.498676], [15.661812, 49.498745], [15.661595, 49.498822], [15.661443, 49.498816], [15.661301, 49.498832], [15.661245, 49.498833], [15.661087, 49.49878], [15.660938, 49.498783], [15.660791, 49.498852]]}, "properties": {"dataset": "ZABAGED 6.12 Liniová vegetace", "natural": "tree_row", "ref:zabaged": "936122", "typveg_p": "stromořadí", "length_m": 536, "osm_tree_row_or_hedge_within_15m": false}}, {"type": "Feature", "geometry": {"type": "LineString", "coordinates": [[15.633903, 49.466674], [15.633841, 49.466499], [15.633509, 49.465953], [15.633133, 49.465346], [15.632897, 49.464906], [15.632612, 49.464309]]}, "properties": {"dataset": "ZABAGED 6.12 Liniová vegetace", "natural": "tree_row", "ref:zabaged": "935430", "typveg_p": "stromořadí", "length_m": 279, "osm_tree_row_or_hedge_within_15m": false}}, {"type": "Feature", "geometry": {"type": "LineString", "coordinates": [[15.621737, 49.465279], [15.621576, 49.465589], [15.62145, 49.465886], [15.621193, 49.466677]]}, "properties": {"dataset": "ZABAGED 6.12 Liniová vegetace", "natural": "tree_row", "ref:zabaged": "733686060287564", "typveg_p": "stromořadí", "length_m": 160, "osm_tree_row_or_hedge_within_15m": false}}, {"type": "Feature", "geometry": {"type": "LineString", "coordinates": [[15.629632, 49.490308], [15.629866, 49.490234], [15.630066, 49.490168], [15.630322, 49.490092], [15.630587, 49.490001], [15.630986, 49.489851], [15.631343, 49.489669], [15.632424, 49.488926], [15.633425, 49.488244], [15.633733, 49.488037], [15.634213, 49.487658], [15.634464, 49.487456]]}, "properties": {"dataset": "ZABAGED 6.12 Liniová vegetace", "natural": "tree_row", "ref:zabaged": "936000", "typveg_p": "stromořadí", "length_m": 477, "osm_tree_row_or_hedge_within_15m": false}}, {"type": "Feature", "geometry": {"type": "LineString", "coordinates": [[15.635525, 49.457197], [15.635777, 49.45719], [15.636029, 49.457168], [15.636321, 49.457126], [15.636645, 49.457069], [15.637033, 49.456992], [15.637226, 49.456979], [15.637621, 49.456954], [15.637845, 49.456929], [15.638108, 49.45689], [15.638496, 49.456827], [15.639062, 49.456744], [15.63923, 49.456721], [15.639438, 49.456701], [15.639638, 49.456683], [15.639817, 49.456671], [15.640021, 49.456661], [15.640316, 49.456655], [15.640793, 49.456657], [15.641442, 49.456661], [15.641934, 49.456667], [15.642709, 49.456666]]}, "properties": {"dataset": "ZABAGED 6.12 Liniová vegetace", "natural": "tree_row", "ref:zabaged": "935608", "typveg_p": "stromořadí", "length_m": 526, "osm_tree_row_or_hedge_within_15m": false}}, {"type": "Feature", "geometry": {"type": "LineString", "coordinates": [[15.641536, 49.466979], [15.640199, 49.466233], [15.639477, 49.465865], [15.639209, 49.465734]]}, "properties": {"dataset": "ZABAGED 6.12 Liniová vegetace", "natural": "tree_row", "ref:zabaged": "935446", "typveg_p": "stromořadí", "length_m": 218, "osm_tree_row_or_hedge_within_15m": false}}, {"type": "Feature", "geometry": {"type": "LineString", "coordinates": [[15.656982, 49.499161], [15.656193, 49.498433], [15.654673, 49.497374]]}, "properties": {"dataset": "ZABAGED 6.12 Liniová vegetace", "natural": "tree_row", "ref:zabaged": "935151", "typveg_p": "stromořadí", "length_m": 260, "osm_tree_row_or_hedge_within_15m": false}}, {"type": "Feature", "geometry": {"type": "LineString", "coordinates": [[15.651405, 49.497442], [15.651276, 49.498089], [15.651152, 49.498634], [15.65099, 49.499309], [15.650525, 49.501288]]}, "properties": {"dataset": "ZABAGED 6.12 Liniová vegetace", "natural": "tree_row", "ref:zabaged": "935154", "typveg_p": "stromořadí", "length_m": 432, "osm_tree_row_or_hedge_within_15m": false}}, {"type": "Feature", "geometry": {"type": "LineString", "coordinates": [[15.630546, 49.483538], [15.630829, 49.483309], [15.632684, 49.482511], [15.633375, 49.482256], [15.634014, 49.481924], [15.634603, 49.481509], [15.634937, 49.481165], [15.635182, 49.48065], [15.635313, 49.480224], [15.635586, 49.479916]]}, "properties": {"dataset": "ZABAGED 6.12 Liniová vegetace", "natural": "tree_row", "ref:zabaged": "935444", "typveg_p": "stromořadí", "length_m": 565, "osm_tree_row_or_hedge_within_15m": false}}, {"type": "Feature", "geometry": {"type": "LineString", "coordinates": [[15.636731, 49.471103], [15.636574, 49.47096], [15.636656, 49.470737], [15.636841, 49.470686], [15.636958, 49.47059], [15.636899, 49.470409], [15.636942, 49.470285], [15.636918, 49.469802], [15.636602, 49.469398]]}, "properties": {"dataset": "ZABAGED 6.12 Liniová vegetace", "natural": "tree_row", "ref:zabaged": "935434", "typveg_p": "stromořadí", "length_m": 212, "osm_tree_row_or_hedge_within_15m": false}}, {"type": "Feature", "geometry": {"type": "LineString", "coordinates": [[15.627732, 49.484957], [15.628018, 49.484825], [15.628524, 49.484581], [15.628777, 49.484423], [15.629091, 49.484264], [15.629353, 49.484132], [15.629624, 49.484019], [15.629927, 49.483892]]}, "properties": {"dataset": "ZABAGED 6.12 Liniová vegetace", "natural": "tree_row", "ref:zabaged": "935192", "typveg_p": "stromořadí", "length_m": 198, "osm_tree_row_or_hedge_within_15m": false}}, {"type": "Feature", "geometry": {"type": "LineString", "coordinates": [[15.670056, 49.485194], [15.670555, 49.486145]]}, "properties": {"dataset": "ZABAGED 6.12 Liniová vegetace", "natural": "tree_row", "ref:zabaged": "4689012258242560", "typveg_p": "stromořadí", "length_m": 111, "osm_tree_row_or_hedge_within_15m": false}}, {"type": "Feature", "geometry": {"type": "LineString", "coordinates": [[15.684101, 49.467384], [15.684285, 49.467462], [15.684759, 49.467667], [15.685037, 49.467786], [15.685612, 49.468049]]}, "properties": {"dataset": "ZABAGED 6.12 Liniová vegetace", "natural": "tree_row", "ref:zabaged": "5742202244300800", "typveg_p": "stromořadí", "length_m": 132, "osm_tree_row_or_hedge_within_15m": false}}, {"type": "Feature", "geometry": {"type": "LineString", "coordinates": [[15.657794, 49.472806], [15.657697, 49.472631], [15.657331, 49.472722], [15.656136, 49.473057], [15.655709, 49.47319], [15.655584, 49.473252], [15.655405, 49.473372]]}, "properties": {"dataset": "ZABAGED 6.12 Liniová vegetace", "natural": "tree_row", "ref:zabaged": "6031539561299968", "typveg_p": "stromořadí", "length_m": 207, "osm_tree_row_or_hedge_within_15m": false}}, {"type": "Feature", "geometry": {"type": "LineString", "coordinates": [[15.646208, 49.483698], [15.64612, 49.483739], [15.645301, 49.484048], [15.645259, 49.484062], [15.645206, 49.484098], [15.64516, 49.484172], [15.645089, 49.48424], [15.644985, 49.484306], [15.644748, 49.484407], [15.644525, 49.484519], [15.644371, 49.48458], [15.644155, 49.484704]]}, "properties": {"dataset": "ZABAGED 6.12 Liniová vegetace", "natural": "tree_row", "ref:zabaged": "935431", "typveg_p": "stromořadí", "length_m": 188, "osm_tree_row_or_hedge_within_15m": false}}, {"type": "Feature", "geometry": {"type": "LineString", "coordinates": [[15.645044, 49.489987], [15.645069, 49.489735], [15.645017, 49.489702], [15.644759, 49.489646], [15.644716, 49.489562], [15.644751, 49.489514], [15.644904, 49.489435], [15.644894, 49.489327], [15.644981, 49.489211], [15.644921, 49.489092], [15.644703, 49.488972], [15.644509, 49.489092], [15.64442, 49.489111], [15.644127, 49.489036], [15.644071, 49.489038], [15.644007, 49.489022], [15.643948, 49.488987], [15.643892, 49.488926], [15.643794, 49.488776], [15.643735, 49.488621], [15.643744, 49.488349], [15.643612, 49.488259], [15.64335, 49.487893], [15.643382, 49.487827], [15.643294, 49.48763], [15.64313, 49.487411], [15.643132, 49.487263], [15.643269, 49.487195], [15.643527, 49.487097], [15.643608, 49.487052], [15.643673, 49.486924], [15.643824, 49.486736], [15.643788, 49.486281], [15.643899, 49.485872], [15.643712, 49.485633]]}, "properties": {"dataset": "ZABAGED 6.12 Liniová vegetace", "natural": "tree_row", "ref:zabaged": "935445", "typveg_p": "stromořadí", "length_m": 620, "osm_tree_row_or_hedge_within_15m": false}}, {"type": "Feature", "geometry": {"type": "LineString", "coordinates": [[15.653007, 49.47513], [15.653291, 49.47491], [15.653477, 49.474701], [15.653552, 49.474636]]}, "properties": {"dataset": "ZABAGED 6.12 Liniová vegetace", "natural": "tree_row", "ref:zabaged": "935439", "typveg_p": "stromořadí", "length_m": 68, "osm_tree_row_or_hedge_within_15m": false}}, {"type": "Feature", "geometry": {"type": "LineString", "coordinates": [[15.656982, 49.499446], [15.656028, 49.498556], [15.654974, 49.497774]]}, "properties": {"dataset": "ZABAGED 6.12 Liniová vegetace", "natural": "tree_row", "ref:zabaged": "935152", "typveg_p": "stromořadí", "length_m": 236, "osm_tree_row_or_hedge_within_15m": false}}, {"type": "Feature", "geometry": {"type": "LineString", "coordinates": [[15.646636, 49.483929], [15.646834, 49.483649], [15.646794, 49.48363], [15.646734, 49.483629], [15.646697, 49.48363], [15.646635, 49.483631], [15.646596, 49.483639], [15.646542, 49.483663], [15.64631, 49.483788], [15.646222, 49.483829], [15.645403, 49.484138], [15.645361, 49.484152], [15.645308, 49.484188], [15.645261, 49.484262], [15.64519, 49.48433], [15.645087, 49.484396], [15.64485, 49.484497], [15.644627, 49.484609], [15.644473, 49.48467]]}, "properties": {"dataset": "ZABAGED 6.12 Liniová vegetace", "natural": "tree_row", "ref:zabaged": "935442", "typveg_p": "stromořadí", "length_m": 246, "osm_tree_row_or_hedge_within_15m": false}}, {"type": "Feature", "geometry": {"type": "LineString", "coordinates": [[15.663646, 49.504728], [15.664259, 49.504457], [15.664693, 49.50426], [15.664814, 49.504205], [15.664938, 49.504145], [15.665048, 49.504087], [15.665171, 49.504019], [15.665941, 49.503595], [15.666092, 49.503514], [15.666283, 49.50342], [15.666492, 49.503325], [15.667333, 49.502952], [15.667508, 49.502868], [15.667655, 49.50279], [15.667843, 49.502687], [15.669162, 49.501924], [15.670281, 49.501271], [15.670561, 49.501116], [15.670659, 49.501066], [15.670749, 49.501023], [15.670849, 49.500976], [15.670966, 49.500926], [15.672634, 49.500257]]}, "properties": {"dataset": "ZABAGED 6.12 Liniová vegetace", "natural": "tree_row", "ref:zabaged": "936121", "typveg_p": "stromořadí", "length_m": 820, "osm_tree_row_or_hedge_within_15m": false}}, {"type": "Feature", "geometry": {"type": "LineString", "coordinates": [[15.655563, 49.501962], [15.655899, 49.502103], [15.656106, 49.502215], [15.656254, 49.502315], [15.65637, 49.502422], [15.656464, 49.502529], [15.656531, 49.502652], [15.656583, 49.502741], [15.656694, 49.503049], [15.656871, 49.503382]]}, "properties": {"dataset": "ZABAGED 6.12 Liniová vegetace", "natural": "tree_row", "ref:zabaged": "935145", "typveg_p": "stromořadí", "length_m": 191, "osm_tree_row_or_hedge_within_15m": false}}, {"type": "Feature", "geometry": {"type": "LineString", "coordinates": [[15.643573, 49.48718], [15.643292, 49.487292], [15.64322, 49.48736], [15.64341, 49.487616], [15.643569, 49.487987], [15.643843, 49.488314], [15.643891, 49.488777], [15.643966, 49.488875], [15.644011, 49.48895], [15.644211, 49.488917], [15.644459, 49.489034], [15.644628, 49.48891]]}, "properties": {"dataset": "ZABAGED 6.12 Liniová vegetace", "natural": "tree_row", "ref:zabaged": "935438", "typveg_p": "stromořadí", "length_m": 277, "osm_tree_row_or_hedge_within_15m": false}}, {"type": "Feature", "geometry": {"type": "LineString", "coordinates": [[15.678806, 49.496084], [15.679648, 49.497045], [15.680007, 49.497455]]}, "properties": {"dataset": "ZABAGED 6.12 Liniová vegetace", "natural": "tree_row", "ref:zabaged": "58339019368431616", "typveg_p": "stromořadí", "length_m": 175, "osm_tree_row_or_hedge_within_15m": false}}, {"type": "Feature", "geometry": {"type": "LineString", "coordinates": [[15.690462, 49.496453], [15.69041, 49.496458], [15.690251, 49.49648], [15.688906, 49.496644], [15.687575, 49.496807], [15.68692, 49.496888], [15.686206, 49.496981], [15.685931, 49.497022], [15.684794, 49.497197], [15.683681, 49.497357], [15.683471, 49.497385], [15.683348, 49.4974], [15.683175, 49.497418], [15.681942, 49.497509], [15.680416, 49.497613], [15.680018, 49.497637], [15.679458, 49.497677], [15.679393, 49.497685], [15.679342, 49.497692], [15.679261, 49.497713], [15.679195, 49.497747], [15.679163, 49.497809], [15.679219, 49.498042]]}, "properties": {"dataset": "ZABAGED 6.12 Liniová vegetace", "natural": "tree_row", "ref:zabaged": "3775585071398912", "typveg_p": "stromořadí", "length_m": 863, "osm_tree_row_or_hedge_within_15m": false}}, {"type": "Feature", "geometry": {"type": "LineString", "coordinates": [[15.623058, 49.46857], [15.62392, 49.468507], [15.624988, 49.468414], [15.625609, 49.468366], [15.625728, 49.468351], [15.625811, 49.468333], [15.625991, 49.468276], [15.62615, 49.46823], [15.626315, 49.468199], [15.626859, 49.468098], [15.627502, 49.468008], [15.627992, 49.46794], [15.628206, 49.467902], [15.628381, 49.467866], [15.628499, 49.467829], [15.628668, 49.467763], [15.628907, 49.467651], [15.629139, 49.467572], [15.629445, 49.467466], [15.62967, 49.467405], [15.629787, 49.46738], [15.629926, 49.467367], [15.630102, 49.467359], [15.630289, 49.467367], [15.630389, 49.467385]]}, "properties": {"dataset": "ZABAGED 6.12 Liniová vegetace", "natural": "tree_row", "ref:zabaged": "60284061964304384", "typveg_p": "stromořadí", "length_m": 554, "osm_tree_row_or_hedge_within_15m": false}}, {"type": "Feature", "geometry": {"type": "LineString", "coordinates": [[15.667919, 49.48112], [15.666997, 49.479402]]}, "properties": {"dataset": "ZABAGED 6.12 Liniová vegetace", "natural": "tree_row", "ref:zabaged": "4685546991386624", "typveg_p": "stromořadí", "length_m": 202, "osm_tree_row_or_hedge_within_15m": false}}, {"type": "Feature", "geometry": {"type": "LineString", "coordinates": [[15.635519, 49.457089], [15.635738, 49.457086], [15.635912, 49.457075], [15.636263, 49.457033], [15.636762, 49.456956], [15.637135, 49.45691], [15.637551, 49.456884], [15.637793, 49.456862], [15.638573, 49.45674], [15.639414, 49.456616], [15.639693, 49.456594]]}, "properties": {"dataset": "ZABAGED 6.12 Liniová vegetace", "natural": "tree_row", "ref:zabaged": "935616", "typveg_p": "stromořadí", "length_m": 307, "osm_tree_row_or_hedge_within_15m": false}}, {"type": "Feature", "geometry": {"type": "LineString", "coordinates": [[15.666922, 49.466438], [15.666919, 49.466476], [15.666901, 49.466705], [15.666895, 49.466833], [15.666897, 49.466956], [15.666911, 49.467134], [15.666923, 49.467278], [15.666927, 49.467371], [15.666927, 49.467454], [15.666918, 49.467539], [15.666899, 49.467622], [15.666873, 49.467709], [15.666844, 49.467779], [15.666795, 49.46788], [15.66673, 49.467986], [15.666658, 49.468097]]}, "properties": {"dataset": "ZABAGED 6.12 Liniová vegetace", "natural": "tree_row", "ref:zabaged": "937426", "typveg_p": "stromořadí", "length_m": 187, "osm_tree_row_or_hedge_within_15m": false}}, {"type": "Feature", "geometry": {"type": "LineString", "coordinates": [[15.638618, 49.494316], [15.638651, 49.494487], [15.638671, 49.494581], [15.638882, 49.495569], [15.63893, 49.495789], [15.639005, 49.496173], [15.639024, 49.49639], [15.639026, 49.496637], [15.638971, 49.496988]]}, "properties": {"dataset": "ZABAGED 6.12 Liniová vegetace", "natural": "tree_row", "ref:zabaged": "935160", "typveg_p": "stromořadí", "length_m": 299, "osm_tree_row_or_hedge_within_15m": false}}, {"type": "Feature", "geometry": {"type": "LineString", "coordinates": [[15.673386, 49.480453], [15.673421, 49.480471], [15.673618, 49.480575], [15.673835, 49.480699], [15.674012, 49.480811], [15.674165, 49.480916], [15.674759, 49.48135], [15.675498, 49.481889], [15.675792, 49.482096], [15.676325, 49.482451]]}, "properties": {"dataset": "ZABAGED 6.12 Liniová vegetace", "natural": "tree_row", "ref:zabaged": "615907772597836", "typveg_p": "stromořadí", "length_m": 308, "osm_tree_row_or_hedge_within_15m": false}}, {"type": "Feature", "geometry": {"type": "LineString", "coordinates": [[15.663331, 49.504765], [15.664184, 49.504387], [15.664618, 49.50419], [15.664737, 49.504136], [15.664857, 49.504078], [15.664964, 49.504021], [15.665087, 49.503954], [15.665857, 49.503529], [15.66601, 49.503447], [15.666206, 49.50335], [15.666418, 49.503255], [15.667257, 49.502882], [15.667428, 49.5028], [15.667571, 49.502724], [15.667757, 49.502623], [15.669075, 49.501861], [15.670195, 49.501207], [15.670478, 49.50105], [15.670579, 49.500998], [15.670672, 49.500954], [15.670775, 49.500906], [15.670896, 49.500854], [15.672214, 49.500328]]}, "properties": {"dataset": "ZABAGED 6.12 Liniová vegetace", "natural": "tree_row", "ref:zabaged": "3775585021067264", "typveg_p": "stromořadí", "length_m": 811, "osm_tree_row_or_hedge_within_15m": false}}, {"type": "Feature", "geometry": {"type": "LineString", "coordinates": [[15.666858, 49.465241], [15.66686, 49.465329], [15.666858, 49.465398], [15.666852, 49.465527], [15.666812, 49.465967], [15.666768, 49.46647], [15.66675, 49.466701], [15.666744, 49.466832], [15.666746, 49.466959], [15.66676, 49.467139], [15.666772, 49.467282], [15.666776, 49.467372], [15.666776, 49.467451], [15.666768, 49.467528], [15.66675, 49.467605], [15.666726, 49.467687], [15.666699, 49.467752], [15.666653, 49.467847], [15.666591, 49.467949], [15.666354, 49.468314]]}, "properties": {"dataset": "ZABAGED 6.12 Liniová vegetace", "natural": "tree_row", "ref:zabaged": "937425", "typveg_p": "stromořadí", "length_m": 347, "osm_tree_row_or_hedge_within_15m": false}}, {"type": "Feature", "geometry": {"type": "LineString", "coordinates": [[15.649999, 49.502292], [15.649626, 49.503355], [15.649478, 49.503942], [15.64947, 49.504667], [15.649502, 49.505193]]}, "properties": {"dataset": "ZABAGED 6.12 Liniová vegetace", "natural": "tree_row", "ref:zabaged": "935131", "typveg_p": "stromořadí", "length_m": 326, "osm_tree_row_or_hedge_within_15m": false}}, {"type": "Feature", "geometry": {"type": "LineString", "coordinates": [[15.635885, 49.463071], [15.636833, 49.463517], [15.637733, 49.463921], [15.638014, 49.464072], [15.63814, 49.464156]]}, "properties": {"dataset": "ZABAGED 6.12 Liniová vegetace", "natural": "tree_row", "ref:zabaged": "935615", "typveg_p": "stromořadí", "length_m": 203, "osm_tree_row_or_hedge_within_15m": false}}, {"type": "Feature", "geometry": {"type": "LineString", "coordinates": [[15.661151, 49.475507], [15.661376, 49.475287], [15.661527, 49.47514], [15.661731, 49.474933], [15.66227, 49.474279], [15.662454, 49.473853], [15.662705, 49.473317], [15.662903, 49.472911]]}, "properties": {"dataset": "ZABAGED 6.12 Liniová vegetace", "natural": "tree_row", "ref:zabaged": "936343", "typveg_p": "stromořadí", "length_m": 317, "osm_tree_row_or_hedge_within_15m": false}}, {"type": "Feature", "geometry": {"type": "LineString", "coordinates": [[15.650177, 49.502323], [15.649831, 49.503293], [15.649701, 49.503792], [15.649693, 49.50467], [15.649691, 49.505245]]}, "properties": {"dataset": "ZABAGED 6.12 Liniová vegetace", "natural": "tree_row", "ref:zabaged": "58339017271279616", "typveg_p": "stromořadí", "length_m": 328, "osm_tree_row_or_hedge_within_15m": false}}, {"type": "Feature", "geometry": {"type": "LineString", "coordinates": [[15.6573, 49.502946], [15.657562, 49.502321], [15.65766, 49.501926], [15.657567, 49.501568], [15.657599, 49.501117]]}, "properties": {"dataset": "ZABAGED 6.12 Liniová vegetace", "natural": "tree_row", "ref:zabaged": "58339017120284672", "typveg_p": "stromořadí", "length_m": 207, "osm_tree_row_or_hedge_within_15m": false}}, {"type": "Feature", "geometry": {"type": "LineString", "coordinates": [[15.650317, 49.50134], [15.650372, 49.501106], [15.650503, 49.500604], [15.650823, 49.499289], [15.650984, 49.498614], [15.651108, 49.498071], [15.651207, 49.497579], [15.651248, 49.497396], [15.651312, 49.497094]]}, "properties": {"dataset": "ZABAGED 6.12 Liniová vegetace", "natural": "tree_row", "ref:zabaged": "935153", "typveg_p": "stromořadí", "length_m": 477, "osm_tree_row_or_hedge_within_15m": false}}, {"type": "Feature", "geometry": {"type": "LineString", "coordinates": [[15.615189, 49.491258], [15.615077, 49.491303], [15.614981, 49.491314], [15.614732, 49.491313], [15.614466, 49.491337], [15.614186, 49.491433], [15.614048, 49.491487], [15.613901, 49.491632], [15.613877, 49.491659]]}, "properties": {"dataset": "ZABAGED 6.12 Liniová vegetace", "natural": "tree_row", "ref:zabaged": "934638", "typveg_p": "stromořadí", "length_m": 111, "osm_tree_row_or_hedge_within_15m": false}}, {"type": "Feature", "geometry": {"type": "LineString", "coordinates": [[15.656107, 49.487592], [15.655949, 49.487446], [15.655536, 49.48679], [15.654674, 49.485434]]}, "properties": {"dataset": "ZABAGED 6.12 Liniová vegetace", "natural": "tree_row", "ref:zabaged": "59267937093025792", "typveg_p": "stromořadí", "length_m": 261, "osm_tree_row_or_hedge_within_15m": false}}, {"type": "Feature", "geometry": {"type": "LineString", "coordinates": [[15.639801, 49.484266], [15.640046, 49.484122], [15.640196, 49.484056], [15.640511, 49.483957], [15.64098, 49.483841], [15.641469, 49.483705]]}, "properties": {"dataset": "ZABAGED 6.12 Liniová vegetace", "natural": "tree_row", "ref:zabaged": "59059122728861696", "typveg_p": "stromořadí", "length_m": 137, "osm_tree_row_or_hedge_within_15m": false}}, {"type": "Feature", "geometry": {"type": "LineString", "coordinates": [[15.654183, 49.480451], [15.654136, 49.480502], [15.65407, 49.48059], [15.653979, 49.480722], [15.653922, 49.480812], [15.653867, 49.480908], [15.653831, 49.480978], [15.653804, 49.48107], [15.653796, 49.481145], [15.653794, 49.481265]]}, "properties": {"dataset": "ZABAGED 6.12 Liniová vegetace", "natural": "tree_row", "ref:zabaged": "59059038758895616", "typveg_p": "stromořadí", "length_m": 96, "osm_tree_row_or_hedge_within_15m": false}}, {"type": "Feature", "geometry": {"type": "LineString", "coordinates": [[15.620653, 49.456731], [15.620483, 49.456161], [15.620126, 49.456046], [15.619215, 49.455888], [15.618768, 49.455888], [15.618233, 49.455953]]}, "properties": {"dataset": "ZABAGED 6.12 Liniová vegetace", "natural": "tree_row", "ref:zabaged": "60745485433962496", "typveg_p": "stromořadí", "length_m": 233, "osm_tree_row_or_hedge_within_15m": false}}, {"type": "Feature", "geometry": {"type": "LineString", "coordinates": [[15.620208, 49.46798], [15.621162, 49.468339], [15.621315, 49.468397], [15.621489, 49.468435], [15.621749, 49.468483], [15.622027, 49.468521], [15.622791, 49.468549]]}, "properties": {"dataset": "ZABAGED 6.12 Liniová vegetace", "natural": "tree_row", "ref:zabaged": "60284060655681536", "typveg_p": "stromořadí", "length_m": 201, "osm_tree_row_or_hedge_within_15m": false}}, {"type": "Feature", "geometry": {"type": "LineString", "coordinates": [[15.662268, 49.496466], [15.66236, 49.496501], [15.662345, 49.496557], [15.662311, 49.496618], [15.662099, 49.496706], [15.662021, 49.496777], [15.662042, 49.496844], [15.662131, 49.496914], [15.662519, 49.497035], [15.662746, 49.497101], [15.662864, 49.497185], [15.663082, 49.497113], [15.663348, 49.497096], [15.663818, 49.497005], [15.664014, 49.496964], [15.664412, 49.49678]]}, "properties": {"dataset": "ZABAGED 6.12 Liniová vegetace", "natural": "tree_row", "ref:zabaged": "30856621643005952", "typveg_p": "stromořadí", "length_m": 251, "osm_tree_row_or_hedge_within_15m": false}}, {"type": "Feature", "geometry": {"type": "LineString", "coordinates": [[15.648324, 49.483388], [15.648241, 49.483485], [15.64815, 49.483544], [15.647801, 49.483665], [15.647604, 49.483751], [15.64717, 49.483868], [15.646852, 49.483961], [15.646997, 49.483826], [15.647023, 49.483741], [15.647008, 49.483629], [15.646912, 49.483541], [15.646817, 49.483489], [15.64679, 49.483397], [15.646436, 49.483532], [15.646007, 49.483675], [15.645617, 49.483791], [15.645107, 49.483923], [15.644296, 49.484156]]}, "properties": {"dataset": "ZABAGED 6.12 Liniová vegetace", "natural": "tree_row", "ref:zabaged": "6002486036922368", "typveg_p": "stromořadí", "length_m": 398, "osm_tree_row_or_hedge_within_15m": false}}, {"type": "Feature", "geometry": {"type": "LineString", "coordinates": [[15.632644, 49.465302], [15.632581, 49.465052], [15.632408, 49.464837], [15.632199, 49.464622], [15.632082, 49.464276], [15.632009, 49.464063], [15.631833, 49.463718]]}, "properties": {"dataset": "ZABAGED 6.12 Liniová vegetace", "natural": "tree_row", "ref:zabaged": "6023809928790016", "typveg_p": "stromořadí", "length_m": 187, "osm_tree_row_or_hedge_within_15m": false}}, {"type": "Feature", "geometry": {"type": "LineString", "coordinates": [[15.655308, 49.473333], [15.655473, 49.473223], [15.655628, 49.473145], [15.655788, 49.473087], [15.656675, 49.472826], [15.657654, 49.472562]]}, "properties": {"dataset": "ZABAGED 6.12 Liniová vegetace", "natural": "tree_row", "ref:zabaged": "6031539611631616", "typveg_p": "stromořadí", "length_m": 191, "osm_tree_row_or_hedge_within_15m": false}}, {"type": "Feature", "geometry": {"type": "LineString", "coordinates": [[15.653447, 49.495403], [15.653151, 49.495306], [15.653003, 49.495189], [15.652899, 49.495063], [15.652621, 49.494696]]}, "properties": {"dataset": "ZABAGED 6.12 Liniová vegetace", "natural": "tree_row", "ref:zabaged": "6031553503166464", "typveg_p": "stromořadí", "length_m": 102, "osm_tree_row_or_hedge_within_15m": false}}, {"type": "Feature", "geometry": {"type": "LineString", "coordinates": [[15.655031, 49.496438], [15.654909, 49.496416], [15.654754, 49.496377], [15.654634, 49.496319], [15.654506, 49.4962], [15.654307, 49.495961], [15.654192, 49.49588]]}, "properties": {"dataset": "ZABAGED 6.12 Liniová vegetace", "natural": "tree_row", "ref:zabaged": "6031553603829760", "typveg_p": "stromořadí", "length_m": 91, "osm_tree_row_or_hedge_within_15m": false}}, {"type": "Feature", "geometry": {"type": "LineString", "coordinates": [[15.658159, 49.499984], [15.658127, 49.499779], [15.658184, 49.499717], [15.658386, 49.499648], [15.658531, 49.499419], [15.658654, 49.499397], [15.659076, 49.499386], [15.659248, 49.499405], [15.65945, 49.499324], [15.659642, 49.499206], [15.659706, 49.499197], [15.659815, 49.49926], [15.659876, 49.499324]]}, "properties": {"dataset": "ZABAGED 6.12 Liniová vegetace", "natural": "tree_row", "ref:zabaged": "6031565532430336", "typveg_p": "stromořadí", "length_m": 187, "osm_tree_row_or_hedge_within_15m": false}}, {"type": "Feature", "geometry": {"type": "LineString", "coordinates": [[15.636774, 49.493145], [15.635999, 49.492841], [15.635876, 49.492771], [15.635793, 49.492702], [15.635754, 49.492634], [15.635742, 49.492555], [15.635711, 49.492123], [15.635665, 49.491368], [15.635635, 49.490589], [15.635638, 49.490495], [15.635642, 49.490373], [15.635661, 49.490238], [15.635712, 49.489918], [15.635809, 49.489439], [15.635828, 49.489316], [15.635825, 49.489177], [15.635807, 49.488954], [15.635743, 49.488652], [15.635615, 49.488294], [15.635327, 49.487698], [15.635096, 49.487283], [15.635026, 49.487229], [15.634962, 49.487203], [15.634881, 49.487224], [15.634682, 49.487397], [15.6343, 49.487711], [15.633921, 49.488002], [15.633536, 49.488272], [15.632527, 49.488956], [15.631497, 49.48967], [15.63133, 49.489769], [15.631106, 49.489881], [15.630908, 49.489967], [15.630573, 49.490084], [15.629974, 49.49028], [15.629462, 49.490453], [15.6292, 49.490524], [15.628943, 49.490558]]}, "properties": {"dataset": "ZABAGED 6.12 Liniová vegetace", "natural": "tree_row", "ref:zabaged": "935998", "typveg_p": "stromořadí", "length_m": 1294, "osm_tree_row_or_hedge_within_15m": false}}, {"type": "Feature", "geometry": {"type": "LineString", "coordinates": [[15.636636, 49.471158], [15.636474, 49.471009], [15.636437, 49.470949], [15.636571, 49.470678], [15.636775, 49.470631], [15.636832, 49.470543], [15.636782, 49.470362], [15.636811, 49.469911], [15.636457, 49.469428], [15.636033, 49.469091], [15.635937, 49.46892]]}, "properties": {"dataset": "ZABAGED 6.12 Liniová vegetace", "natural": "tree_row", "ref:zabaged": "935433", "typveg_p": "stromořadí", "length_m": 284, "osm_tree_row_or_hedge_within_15m": false}}, {"type": "Feature", "geometry": {"type": "LineString", "coordinates": [[15.635588, 49.486281], [15.635981, 49.485699], [15.636309, 49.485216], [15.636706, 49.484625], [15.637027, 49.484168], [15.637309, 49.483796], [15.637559, 49.483568], [15.637731, 49.483409], [15.637991, 49.483233], [15.638322, 49.483031], [15.639172, 49.482661]]}, "properties": {"dataset": "ZABAGED 6.12 Liniová vegetace", "natural": "tree_row", "ref:zabaged": "935432", "typveg_p": "stromořadí", "length_m": 489, "osm_tree_row_or_hedge_within_15m": false}}, {"type": "Feature", "geometry": {"type": "LineString", "coordinates": [[15.64959, 49.471048], [15.649657, 49.470965], [15.64971, 49.470859], [15.649752, 49.470711], [15.649775, 49.470598], [15.649768, 49.470521], [15.649759, 49.470457], [15.649727, 49.470388], [15.649623, 49.47021], [15.64959, 49.470138], [15.649587, 49.470116]]}, "properties": {"dataset": "ZABAGED 6.12 Liniová vegetace", "natural": "tree_row", "ref:zabaged": "4701780910800896", "typveg_p": "stromořadí", "length_m": 108, "osm_tree_row_or_hedge_within_15m": false}}, {"type": "Feature", "geometry": {"type": "LineString", "coordinates": [[15.633538, 49.460929], [15.634063, 49.461695], [15.634423, 49.462207], [15.63451, 49.462298], [15.634632, 49.462399], [15.635046, 49.462642]]}, "properties": {"dataset": "ZABAGED 6.12 Liniová vegetace", "natural": "tree_row", "ref:zabaged": "644653200180812", "typveg_p": "stromořadí", "length_m": 222, "osm_tree_row_or_hedge_within_15m": false}}, {"type": "Feature", "geometry": {"type": "LineString", "coordinates": [[15.67948, 49.460246], [15.679449, 49.460523], [15.679374, 49.461188], [15.679346, 49.461427], [15.679316, 49.461663], [15.679318, 49.461927]]}, "properties": {"dataset": "ZABAGED 6.12 Liniová vegetace", "natural": "tree_row", "ref:zabaged": "936363", "typveg_p": "stromořadí", "length_m": 187, "osm_tree_row_or_hedge_within_15m": false}}, {"type": "Feature", "geometry": {"type": "LineString", "coordinates": [[15.61793, 49.461503], [15.618898, 49.46091], [15.62116, 49.459558]]}, "properties": {"dataset": "ZABAGED 6.12 Liniová vegetace", "natural": "tree_row", "ref:zabaged": "935556", "typveg_p": "stromořadí", "length_m": 318, "osm_tree_row_or_hedge_within_15m": false}}, {"type": "Feature", "geometry": {"type": "LineString", "coordinates": [[15.667821, 49.479104], [15.668557, 49.479189], [15.668965, 49.479228], [15.669549, 49.479268], [15.669805, 49.479291], [15.669966, 49.479309], [15.670195, 49.47934], [15.670503, 49.479393], [15.670762, 49.479451]]}, "properties": {"dataset": "ZABAGED 6.12 Liniová vegetace", "natural": "tree_row", "ref:zabaged": "936128", "typveg_p": "stromořadí", "length_m": 217, "osm_tree_row_or_hedge_within_15m": false}}, {"type": "Feature", "geometry": {"type": "LineString", "coordinates": [[15.661312, 49.475552], [15.661722, 49.475117], [15.661885, 49.474942], [15.662222, 49.474565], [15.662423, 49.474263], [15.662688, 49.473665], [15.662864, 49.473218], [15.663153, 49.472656]]}, "properties": {"dataset": "ZABAGED 6.12 Liniová vegetace", "natural": "tree_row", "ref:zabaged": "936342", "typveg_p": "stromořadí", "length_m": 350, "osm_tree_row_or_hedge_within_15m": false}}, {"type": "Feature", "geometry": {"type": "LineString", "coordinates": [[15.658123, 49.501748], [15.658115, 49.501661], [15.658127, 49.501112], [15.658092, 49.500756], [15.658355, 49.500438], [15.658525, 49.500156], [15.658317, 49.499983], [15.658289, 49.499847], [15.658644, 49.499608], [15.658699, 49.499535], [15.659359, 49.499512], [15.659673, 49.499346], [15.659832, 49.499389]]}, "properties": {"dataset": "ZABAGED 6.12 Liniová vegetace", "natural": "tree_row", "ref:zabaged": "58337806862254080", "typveg_p": "stromořadí", "length_m": 359, "osm_tree_row_or_hedge_within_15m": false}}, {"type": "Feature", "geometry": {"type": "LineString", "coordinates": [[15.660668, 49.478492], [15.660768, 49.478679], [15.660805, 49.4788], [15.660865, 49.478971], [15.66091, 49.479136], [15.660941, 49.479237], [15.661079, 49.479519], [15.661176, 49.479769], [15.661223, 49.479955], [15.661311, 49.480238], [15.661351, 49.48031]]}, "properties": {"dataset": "ZABAGED 6.12 Liniová vegetace", "natural": "tree_row", "ref:zabaged": "59059036326199296", "typveg_p": "stromořadí", "length_m": 208, "osm_tree_row_or_hedge_within_15m": false}}, {"type": "Feature", "geometry": {"type": "LineString", "coordinates": [[15.630598, 49.483718], [15.632524, 49.485173], [15.633694, 49.486056], [15.634826, 49.486922]]}, "properties": {"dataset": "ZABAGED 6.12 Liniová vegetace", "natural": "tree_row", "ref:zabaged": "59267933720805376", "typveg_p": "stromořadí", "length_m": 469, "osm_tree_row_or_hedge_within_15m": false}}, {"type": "Feature", "geometry": {"type": "LineString", "coordinates": [[15.669426, 49.484304], [15.670534, 49.486345], [15.670611, 49.486517]]}, "properties": {"dataset": "ZABAGED 6.12 Liniová vegetace", "natural": "tree_row", "ref:zabaged": "59267989874147328", "typveg_p": "stromořadí", "length_m": 260, "osm_tree_row_or_hedge_within_15m": false}}, {"type": "Feature", "geometry": {"type": "LineString", "coordinates": [[15.653247, 49.482958], [15.653653, 49.483621], [15.654072, 49.484272], [15.654359, 49.484704], [15.654827, 49.485454], [15.655714, 49.486842], [15.656103, 49.487417], [15.65628, 49.487569]]}, "properties": {"dataset": "ZABAGED 6.12 Liniová vegetace", "natural": "tree_row", "ref:zabaged": "59267937042694144", "typveg_p": "stromořadí", "length_m": 557, "osm_tree_row_or_hedge_within_15m": false}}, {"type": "Feature", "geometry": {"type": "LineString", "coordinates": [[15.631132, 49.460916], [15.631115, 49.460885], [15.630948, 49.460594], [15.630833, 49.46039], [15.630731, 49.460204], [15.630607, 49.459946], [15.630516, 49.459753], [15.630413, 49.45958], [15.630415, 49.459451], [15.630475, 49.459345], [15.630513, 49.459157], [15.630406, 49.45896], [15.63029, 49.458782], [15.630183, 49.458724], [15.629985, 49.458642], [15.629879, 49.458613], [15.629721, 49.458624], [15.629334, 49.458657], [15.629118, 49.458641], [15.628769, 49.458638], [15.628503, 49.458584], [15.628197, 49.458569], [15.627991, 49.458576], [15.627826, 49.458612], [15.627694, 49.458695]]}, "properties": {"dataset": "ZABAGED 6.12 Liniová vegetace", "natural": "tree_row", "ref:zabaged": "935574", "typveg_p": "stromořadí", "length_m": 449, "osm_tree_row_or_hedge_within_15m": false}}, {"type": "Feature", "geometry": {"type": "LineString", "coordinates": [[15.677685, 49.498666], [15.677384, 49.498694], [15.677187, 49.498834], [15.676977, 49.498949], [15.676441, 49.498807], [15.676266, 49.498943], [15.676164, 49.499119], [15.675987, 49.499313], [15.675742, 49.499383], [15.675515, 49.499483], [15.675371, 49.499664], [15.675229, 49.499816], [15.674888, 49.499832], [15.674644, 49.499912], [15.674555, 49.5001], [15.67445, 49.500248]]}, "properties": {"dataset": "Copernicus HRL Small Woody Features 2021 (vectorised here)", "length_m": 308, "mean_width_m": 71.5, "in_zabaged_6_12": false, "osm_tree_row_or_hedge_within_15m": false}}, {"type": "Feature", "geometry": {"type": "LineString", "coordinates": [[15.680763, 49.499042], [15.680944, 49.499168], [15.681092, 49.499251]]}, "properties": {"dataset": "Copernicus HRL Small Woody Features 2021 (vectorised here)", "length_m": 46, "mean_width_m": 14.1, "in_zabaged_6_12": false, "osm_tree_row_or_hedge_within_15m": false}}, {"type": "Feature", "geometry": {"type": "LineString", "coordinates": [[15.632282, 49.501645], [15.631972, 49.501582], [15.63179, 49.501554]]}, "properties": {"dataset": "Copernicus HRL Small Woody Features 2021 (vectorised here)", "length_m": 52, "mean_width_m": 10.6, "in_zabaged_6_12": false, "osm_tree_row_or_hedge_within_15m": false}}, {"type": "Feature", "geometry": {"type": "LineString", "coordinates": [[15.675604, 49.491106], [15.675398, 49.491209], [15.675183, 49.491324], [15.675162, 49.491563], [15.675056, 49.491755], [15.67496, 49.491951], [15.674726, 49.492048], [15.674293, 49.492004], [15.67405, 49.492111], [15.673824, 49.492211], [15.673701, 49.492299]]}, "properties": {"dataset": "Copernicus HRL Small Woody Features 2021 (vectorised here)", "length_m": 206, "mean_width_m": 44.1, "in_zabaged_6_12": false, "osm_tree_row_or_hedge_within_15m": false}}, {"type": "Feature", "geometry": {"type": "LineString", "coordinates": [[15.644051, 49.492907], [15.643757, 49.492875], [15.64351, 49.492954], [15.643264, 49.49303], [15.642969, 49.493105], [15.642712, 49.493122], [15.642505, 49.493157]]}, "properties": {"dataset": "Copernicus HRL Small Woody Features 2021 (vectorised here)", "length_m": 131, "mean_width_m": 25.3, "in_zabaged_6_12": false, "osm_tree_row_or_hedge_within_15m": false}}, {"type": "Feature", "geometry": {"type": "LineString", "coordinates": [[15.683128, 49.486976], [15.683048, 49.487198], [15.682831, 49.487308], [15.682557, 49.487354], [15.68234, 49.48746], [15.682098, 49.487547], [15.681849, 49.487626], [15.681631, 49.487758], [15.681467, 49.487919], [15.681237, 49.488007], [15.681067, 49.48815], [15.680831, 49.488255], [15.680618, 49.488372], [15.680458, 49.488537], [15.68014, 49.488582], [15.679833, 49.488588], [15.679675, 49.488755], [15.679205, 49.488633], [15.678895, 49.488634], [15.679137, 49.489171], [15.679044, 49.489438], [15.679006, 49.489647]]}, "properties": {"dataset": "Copernicus HRL Small Woody Features 2021 (vectorised here)", "length_m": 433, "mean_width_m": 65.2, "in_zabaged_6_12": false, "osm_tree_row_or_hedge_within_15m": false}}, {"type": "Feature", "geometry": {"type": "LineString", "coordinates": [[15.645558, 49.490832], [15.645745, 49.490954], [15.645952, 49.491079], [15.646049, 49.491187]]}, "properties": {"dataset": "Copernicus HRL Small Woody Features 2021 (vectorised here)", "length_m": 67, "mean_width_m": 14.5, "in_zabaged_6_12": false, "osm_tree_row_or_hedge_within_15m": false}}, {"type": "Feature", "geometry": {"type": "LineString", "coordinates": [[15.65478, 49.488115], [15.654549, 49.488211], [15.654294, 49.488259], [15.654102, 49.488335]]}, "properties": {"dataset": "Copernicus HRL Small Woody Features 2021 (vectorised here)", "length_m": 70, "mean_width_m": 16.9, "in_zabaged_6_12": false, "osm_tree_row_or_hedge_within_15m": false}}, {"type": "Feature", "geometry": {"type": "LineString", "coordinates": [[15.656245, 49.487559], [15.656058, 49.487659], [15.655792, 49.487745], [15.655533, 49.487839], [15.655361, 49.487914]]}, "properties": {"dataset": "Copernicus HRL Small Woody Features 2021 (vectorised here)", "length_m": 94, "mean_width_m": 13.6, "in_zabaged_6_12": false, "osm_tree_row_or_hedge_within_15m": false}}, {"type": "Feature", "geometry": {"type": "LineString", "coordinates": [[15.640992, 49.484996], [15.641178, 49.485137], [15.641309, 49.485249]]}, "properties": {"dataset": "Copernicus HRL Small Woody Features 2021 (vectorised here)", "length_m": 50, "mean_width_m": 13.0, "in_zabaged_6_12": false, "osm_tree_row_or_hedge_within_15m": false}}, {"type": "Feature", "geometry": {"type": "LineString", "coordinates": [[15.640391, 49.484561], [15.640327, 49.484699], [15.640222, 49.484872], [15.640115, 49.48498]]}, "properties": {"dataset": "Copernicus HRL Small Woody Features 2021 (vectorised here)", "length_m": 67, "mean_width_m": 16.0, "in_zabaged_6_12": false, "osm_tree_row_or_hedge_within_15m": false}}, {"type": "Feature", "geometry": {"type": "LineString", "coordinates": [[15.645389, 49.482373], [15.645452, 49.482642], [15.645253, 49.482748], [15.645309, 49.483019], [15.645205, 49.483199], [15.645159, 49.483422], [15.644704, 49.483389], [15.644175, 49.483318], [15.643901, 49.4834], [15.644392, 49.483919], [15.644114, 49.484035], [15.644049, 49.484206], [15.643872, 49.484351], [15.643589, 49.484415], [15.643189, 49.484406], [15.642773, 49.484443], [15.642538, 49.484561], [15.642396, 49.484702], [15.642255, 49.484751]]}, "properties": {"dataset": "Copernicus HRL Small Woody Features 2021 (vectorised here)", "length_m": 361, "mean_width_m": 63.7, "in_zabaged_6_12": false, "osm_tree_row_or_hedge_within_15m": false}}, {"type": "Feature", "geometry": {"type": "LineString", "coordinates": [[15.643769, 49.483706], [15.64351, 49.483656], [15.643248, 49.483674], [15.643041, 49.483706]]}, "properties": {"dataset": "Copernicus HRL Small Woody Features 2021 (vectorised here)", "length_m": 66, "mean_width_m": 19.4, "in_zabaged_6_12": false, "osm_tree_row_or_hedge_within_15m": false}}, {"type": "Feature", "geometry": {"type": "LineString", "coordinates": [[15.650499, 49.48187], [15.650509, 49.482052], [15.650233, 49.482196], [15.650031, 49.48238], [15.649994, 49.482566], [15.64998, 49.48274], [15.650395, 49.482964], [15.65038, 49.483122], [15.649997, 49.483259], [15.649711, 49.483411]]}, "properties": {"dataset": "Copernicus HRL Small Woody Features 2021 (vectorised here)", "length_m": 198, "mean_width_m": 48.5, "in_zabaged_6_12": false, "osm_tree_row_or_hedge_within_15m": false}}, {"type": "Feature", "geometry": {"type": "LineString", "coordinates": [[15.653317, 49.482252], [15.65319, 49.482427], [15.652977, 49.482542], [15.652857, 49.482708], [15.652654, 49.482822]]}, "properties": {"dataset": "Copernicus HRL Small Woody Features 2021 (vectorised here)", "length_m": 99, "mean_width_m": 23.9, "in_zabaged_6_12": false, "osm_tree_row_or_hedge_within_15m": false}}, {"type": "Feature", "geometry": {"type": "LineString", "coordinates": [[15.679537, 49.480151], [15.679459, 49.480315], [15.679335, 49.480504], [15.679544, 49.48069], [15.679547, 49.480867], [15.679463, 49.481046], [15.679541, 49.481221], [15.67935, 49.481399]]}, "properties": {"dataset": "Copernicus HRL Small Woody Features 2021 (vectorised here)", "length_m": 157, "mean_width_m": 38.6, "in_zabaged_6_12": false, "osm_tree_row_or_hedge_within_15m": false}}, {"type": "Feature", "geometry": {"type": "LineString", "coordinates": [[15.651017, 49.482541], [15.650772, 49.48261], [15.650563, 49.482678]]}, "properties": {"dataset": "Copernicus HRL Small Woody Features 2021 (vectorised here)", "length_m": 54, "mean_width_m": 17.2, "in_zabaged_6_12": false, "osm_tree_row_or_hedge_within_15m": false}}, {"type": "Feature", "geometry": {"type": "LineString", "coordinates": [[15.645705, 49.480183], [15.645696, 49.480374], [15.645797, 49.480542], [15.645968, 49.480694], [15.646142, 49.480824], [15.646197, 49.481039], [15.646263, 49.481209], [15.646283, 49.481404], [15.646459, 49.481545], [15.646537, 49.481723], [15.646824, 49.481831], [15.647074, 49.481927], [15.647286, 49.482054], [15.647471, 49.48219], [15.647727, 49.482287], [15.647918, 49.482429], [15.648131, 49.482478]]}, "properties": {"dataset": "Copernicus HRL Small Woody Features 2021 (vectorised here)", "length_m": 327, "mean_width_m": 34.0, "in_zabaged_6_12": false, "osm_tree_row_or_hedge_within_15m": false}}, {"type": "Feature", "geometry": {"type": "LineString", "coordinates": [[15.640793, 49.482548], [15.640532, 49.482584], [15.640295, 49.482639]]}, "properties": {"dataset": "Copernicus HRL Small Woody Features 2021 (vectorised here)", "length_m": 58, "mean_width_m": 19.0, "in_zabaged_6_12": false, "osm_tree_row_or_hedge_within_15m": false}}, {"type": "Feature", "geometry": {"type": "LineString", "coordinates": [[15.65853, 49.481154], [15.658273, 49.481175], [15.658011, 49.481201], [15.65773, 49.481207], [15.657495, 49.481271], [15.657226, 49.481341], [15.65702, 49.481351]]}, "properties": {"dataset": "Copernicus HRL Small Woody Features 2021 (vectorised here)", "length_m": 126, "mean_width_m": 15.5, "in_zabaged_6_12": false, "osm_tree_row_or_hedge_within_15m": false}}, {"type": "Feature", "geometry": {"type": "LineString", "coordinates": [[15.646579, 49.47888], [15.646578, 49.479045], [15.646605, 49.479251], [15.646483, 49.479438], [15.64622, 49.479714], [15.646148, 49.479936], [15.646313, 49.480078], [15.646425, 49.480212], [15.646581, 49.480387], [15.646762, 49.480544], [15.646863, 49.480716], [15.647016, 49.480851], [15.647147, 49.481022], [15.647394, 49.481141], [15.647606, 49.481293], [15.64782, 49.481445], [15.648244, 49.481486]]}, "properties": {"dataset": "Copernicus HRL Small Woody Features 2021 (vectorised here)", "length_m": 337, "mean_width_m": 29.1, "in_zabaged_6_12": false, "osm_tree_row_or_hedge_within_15m": false}}, {"type": "Feature", "geometry": {"type": "LineString", "coordinates": [[15.65477, 49.479522], [15.654545, 49.47964], [15.654292, 49.479729], [15.654133, 49.479942], [15.653944, 49.480024], [15.65354, 49.479972], [15.653362, 49.480085], [15.653153, 49.480246], [15.652788, 49.480152], [15.65254, 49.480233], [15.652352, 49.480403], [15.652056, 49.480367]]}, "properties": {"dataset": "Copernicus HRL Small Woody Features 2021 (vectorised here)", "length_m": 238, "mean_width_m": 35.5, "in_zabaged_6_12": false, "osm_tree_row_or_hedge_within_15m": false}}, {"type": "Feature", "geometry": {"type": "LineString", "coordinates": [[15.649462, 49.480548], [15.649158, 49.48059], [15.648855, 49.480526], [15.648641, 49.480434], [15.648459, 49.480298]]}, "properties": {"dataset": "Copernicus HRL Small Woody Features 2021 (vectorised here)", "length_m": 98, "mean_width_m": 21.3, "in_zabaged_6_12": false, "osm_tree_row_or_hedge_within_15m": false}}, {"type": "Feature", "geometry": {"type": "LineString", "coordinates": [[15.659181, 49.479786], [15.658949, 49.479899], [15.658683, 49.48001], [15.658365, 49.479945], [15.658093, 49.479867], [15.657848, 49.47979]]}, "properties": {"dataset": "Copernicus HRL Small Woody Features 2021 (vectorised here)", "length_m": 111, "mean_width_m": 35.1, "in_zabaged_6_12": false, "osm_tree_row_or_hedge_within_15m": false}}, {"type": "Feature", "geometry": {"type": "LineString", "coordinates": [[15.6604, 49.47895], [15.660564, 49.479099], [15.660652, 49.47926], [15.660721, 49.479384]]}, "properties": {"dataset": "Copernicus HRL Small Woody Features 2021 (vectorised here)", "length_m": 68, "mean_width_m": 20.3, "in_zabaged_6_12": false, "osm_tree_row_or_hedge_within_15m": false}}, {"type": "Feature", "geometry": {"type": "LineString", "coordinates": [[15.656732, 49.479269], [15.656526, 49.479358], [15.656338, 49.479515], [15.656223, 49.479565]]}, "properties": {"dataset": "Copernicus HRL Small Woody Features 2021 (vectorised here)", "length_m": 61, "mean_width_m": 13.5, "in_zabaged_6_12": false, "osm_tree_row_or_hedge_within_15m": false}}, {"type": "Feature", "geometry": {"type": "LineString", "coordinates": [[15.64551, 49.479851], [15.645344, 49.47971], [15.645072, 49.479615], [15.644847, 49.479545], [15.644778, 49.479361]]}, "properties": {"dataset": "Copernicus HRL Small Woody Features 2021 (vectorised here)", "length_m": 92, "mean_width_m": 29.4, "in_zabaged_6_12": false, "osm_tree_row_or_hedge_within_15m": false}}, {"type": "Feature", "geometry": {"type": "LineString", "coordinates": [[15.642596, 49.479228], [15.642459, 49.479394], [15.642434, 49.479544], [15.642174, 49.47968], [15.642209, 49.479885], [15.642224, 49.480012]]}, "properties": {"dataset": "Copernicus HRL Small Woody Features 2021 (vectorised here)", "length_m": 105, "mean_width_m": 29.5, "in_zabaged_6_12": false, "osm_tree_row_or_hedge_within_15m": false}}, {"type": "Feature", "geometry": {"type": "LineString", "coordinates": [[15.644284, 49.479578], [15.644013, 49.479504], [15.643738, 49.479476], [15.643471, 49.479424], [15.643182, 49.479476], [15.643054, 49.479415]]}, "properties": {"dataset": "Copernicus HRL Small Woody Features 2021 (vectorised here)", "length_m": 101, "mean_width_m": 20.4, "in_zabaged_6_12": false, "osm_tree_row_or_hedge_within_15m": false}}, {"type": "Feature", "geometry": {"type": "LineString", "coordinates": [[15.664786, 49.478566], [15.664477, 49.478523], [15.664317, 49.478482]]}, "properties": {"dataset": "Copernicus HRL Small Woody Features 2021 (vectorised here)", "length_m": 47, "mean_width_m": 15.3, "in_zabaged_6_12": false, "osm_tree_row_or_hedge_within_15m": false}}, {"type": "Feature", "geometry": {"type": "LineString", "coordinates": [[15.658608, 49.477938], [15.658337, 49.477994], [15.658089, 49.478115], [15.657876, 49.478202], [15.657513, 49.478075], [15.657261, 49.478154], [15.657024, 49.478226], [15.656778, 49.47839], [15.65655, 49.478449], [15.656314, 49.478485]]}, "properties": {"dataset": "Copernicus HRL Small Woody Features 2021 (vectorised here)", "length_m": 193, "mean_width_m": 24.1, "in_zabaged_6_12": false, "osm_tree_row_or_hedge_within_15m": false}}, {"type": "Feature", "geometry": {"type": "LineString", "coordinates": [[15.643136, 49.478677], [15.642868, 49.478785], [15.642748, 49.478867]]}, "properties": {"dataset": "Copernicus HRL Small Woody Features 2021 (vectorised here)", "length_m": 47, "mean_width_m": 11.7, "in_zabaged_6_12": false, "osm_tree_row_or_hedge_within_15m": false}}, {"type": "Feature", "geometry": {"type": "LineString", "coordinates": [[15.657607, 49.476999], [15.657398, 49.477105], [15.657153, 49.477187], [15.6569, 49.477264], [15.656634, 49.477336], [15.656231, 49.477252], [15.656168, 49.477487], [15.655936, 49.477585], [15.655617, 49.477638], [15.655405, 49.477746], [15.655263, 49.477913], [15.65518, 49.47804]]}, "properties": {"dataset": "Copernicus HRL Small Woody Features 2021 (vectorised here)", "length_m": 221, "mean_width_m": 40.9, "in_zabaged_6_12": false, "osm_tree_row_or_hedge_within_15m": false}}, {"type": "Feature", "geometry": {"type": "LineString", "coordinates": [[15.648012, 49.477761], [15.647504, 49.477858], [15.647171, 49.477862], [15.647246, 49.477511], [15.647255, 49.477227], [15.64701, 49.477152], [15.646664, 49.477166], [15.646072, 49.477325], [15.645905, 49.477143], [15.64574, 49.477011], [15.645441, 49.476939], [15.644878, 49.477093], [15.644609, 49.477044], [15.644186, 49.477053], [15.643863, 49.477047], [15.643605, 49.476972], [15.643252, 49.476951], [15.643053, 49.476852], [15.643237, 49.476411], [15.642886, 49.476428], [15.64295, 49.476094], [15.64297, 49.475795], [15.643018, 49.47547], [15.642824, 49.475353], [15.642702, 49.475173], [15.642672, 49.474909], [15.642433, 49.474823], [15.642388, 49.47458], [15.642244, 49.474406], [15.641978, 49.474339], [15.641845, 49.474169], [15.641495, 49.474184], [15.641238, 49.47421]]}, "properties": {"dataset": "Copernicus HRL Small Woody Features 2021 (vectorised here)", "length_m": 640, "mean_width_m": 96.2, "in_zabaged_6_12": false, "osm_tree_row_or_hedge_within_15m": false}}, {"type": "Feature", "geometry": {"type": "LineString", "coordinates": [[15.639909, 49.474606], [15.640074, 49.474764], [15.64018, 49.474928], [15.64034, 49.475083], [15.640559, 49.475244], [15.640659, 49.475404], [15.640747, 49.475568], [15.640996, 49.475734], [15.640971, 49.475896], [15.64118, 49.476051], [15.641221, 49.47627], [15.641068, 49.476461], [15.641238, 49.476599], [15.641256, 49.4768], [15.641361, 49.476966], [15.641355, 49.477138], [15.641323, 49.477334], [15.641336, 49.477508], [15.641452, 49.477661], [15.641395, 49.477901], [15.641396, 49.478078], [15.64145, 49.478242], [15.641467, 49.478418]]}, "properties": {"dataset": "Copernicus HRL Small Woody Features 2021 (vectorised here)", "length_m": 459, "mean_width_m": 23.4, "in_zabaged_6_12": false, "osm_tree_row_or_hedge_within_15m": false}}, {"type": "Feature", "geometry": {"type": "LineString", "coordinates": [[15.649771, 49.477652], [15.649532, 49.47773], [15.649285, 49.47784], [15.64903, 49.477876], [15.648826, 49.477863]]}, "properties": {"dataset": "Copernicus HRL Small Woody Features 2021 (vectorised here)", "length_m": 84, "mean_width_m": 23.6, "in_zabaged_6_12": false, "osm_tree_row_or_hedge_within_15m": false}}, {"type": "Feature", "geometry": {"type": "LineString", "coordinates": [[15.660493, 49.47636], [15.660307, 49.47649], [15.660096, 49.476605], [15.659816, 49.476599], [15.659533, 49.476711], [15.659329, 49.476788]]}, "properties": {"dataset": "Copernicus HRL Small Woody Features 2021 (vectorised here)", "length_m": 118, "mean_width_m": 37.3, "in_zabaged_6_12": false, "osm_tree_row_or_hedge_within_15m": false}}, {"type": "Feature", "geometry": {"type": "LineString", "coordinates": [[15.654285, 49.474009], [15.654188, 49.474176], [15.654005, 49.474312], [15.653888, 49.474526], [15.653782, 49.474692], [15.653542, 49.474775], [15.653341, 49.474969], [15.653178, 49.475086], [15.653016, 49.475232], [15.652835, 49.475378], [15.652639, 49.475514], [15.652412, 49.475615], [15.652133, 49.475666], [15.651941, 49.475807], [15.651766, 49.475944], [15.651511, 49.476053], [15.651298, 49.47615], [15.65107, 49.476242], [15.650781, 49.476319], [15.65049, 49.476362], [15.650252, 49.476458], [15.650032, 49.476561], [15.649722, 49.476602], [15.649489, 49.47669], [15.649315, 49.476828], [15.64927, 49.477072], [15.649134, 49.477201]]}, "properties": {"dataset": "Copernicus HRL Small Woody Features 2021 (vectorised here)", "length_m": 532, "mean_width_m": 36.9, "in_zabaged_6_12": false, "osm_tree_row_or_hedge_within_15m": false}}, {"type": "Feature", "geometry": {"type": "LineString", "coordinates": [[15.653161, 49.476053], [15.653236, 49.476248], [15.653318, 49.476411], [15.653381, 49.476587], [15.653524, 49.476746], [15.653623, 49.476911], [15.653684, 49.477034]]}, "properties": {"dataset": "Copernicus HRL Small Woody Features 2021 (vectorised here)", "length_m": 130, "mean_width_m": 16.6, "in_zabaged_6_12": false, "osm_tree_row_or_hedge_within_15m": false}}, {"type": "Feature", "geometry": {"type": "LineString", "coordinates": [[15.656061, 49.475494], [15.656157, 49.475705], [15.656253, 49.475868], [15.656379, 49.476014], [15.656536, 49.476166], [15.656661, 49.476335], [15.656877, 49.476448], [15.657128, 49.476489]]}, "properties": {"dataset": "Copernicus HRL Small Woody Features 2021 (vectorised here)", "length_m": 146, "mean_width_m": 21.5, "in_zabaged_6_12": false, "osm_tree_row_or_hedge_within_15m": false}}, {"type": "Feature", "geometry": {"type": "LineString", "coordinates": [[15.665749, 49.475059], [15.665542, 49.475194], [15.665308, 49.475275], [15.665115, 49.475385], [15.664874, 49.475516], [15.664756, 49.475576]]}, "properties": {"dataset": "Copernicus HRL Small Woody Features 2021 (vectorised here)", "length_m": 101, "mean_width_m": 13.6, "in_zabaged_6_12": false, "osm_tree_row_or_hedge_within_15m": false}}, {"type": "Feature", "geometry": {"type": "LineString", "coordinates": [[15.681552, 49.474134], [15.681354, 49.474272], [15.681186, 49.474355]]}, "properties": {"dataset": "Copernicus HRL Small Woody Features 2021 (vectorised here)", "length_m": 50, "mean_width_m": 14.0, "in_zabaged_6_12": false, "osm_tree_row_or_hedge_within_15m": false}}, {"type": "Feature", "geometry": {"type": "LineString", "coordinates": [[15.681353, 49.47337], [15.681281, 49.473568], [15.681174, 49.473726], [15.680883, 49.473799], [15.680644, 49.473922], [15.680442, 49.474045], [15.680273, 49.474103]]}, "properties": {"dataset": "Copernicus HRL Small Woody Features 2021 (vectorised here)", "length_m": 127, "mean_width_m": 32.9, "in_zabaged_6_12": false, "osm_tree_row_or_hedge_within_15m": false}}, {"type": "Feature", "geometry": {"type": "LineString", "coordinates": [[15.652313, 49.473623], [15.652411, 49.473787], [15.652574, 49.47393], [15.652674, 49.474095], [15.652702, 49.474288]]}, "properties": {"dataset": "Copernicus HRL Small Woody Features 2021 (vectorised here)", "length_m": 100, "mean_width_m": 14.8, "in_zabaged_6_12": false, "osm_tree_row_or_hedge_within_15m": false}}, {"type": "Feature", "geometry": {"type": "LineString", "coordinates": [[15.649559, 49.46958], [15.649641, 49.469755], [15.649807, 49.469898], [15.650153, 49.469911], [15.650876, 49.469654], [15.65125, 49.469647], [15.651307, 49.469883], [15.651254, 49.470192], [15.651396, 49.470361], [15.651493, 49.470542], [15.651831, 49.470579], [15.652069, 49.470667], [15.652217, 49.470837], [15.652363, 49.470998], [15.652557, 49.471125], [15.652775, 49.471247], [15.652953, 49.471372], [15.653081, 49.471558], [15.653251, 49.471695], [15.653518, 49.471804], [15.653911, 49.471765], [15.654068, 49.471907], [15.654233, 49.472067], [15.654447, 49.472173], [15.654646, 49.472301], [15.654763, 49.472493], [15.654725, 49.472787], [15.654839, 49.472984], [15.655079, 49.473081], [15.655492, 49.47303], [15.655702, 49.47313], [15.656261, 49.473021], [15.656845, 49.472839], [15.657289, 49.472788], [15.65759, 49.472842], [15.658018, 49.472791], [15.658161, 49.472827]]}, "properties": {"dataset": "Copernicus HRL Small Woody Features 2021 (vectorised here)", "length_m": 720, "mean_width_m": 80.9, "in_zabaged_6_12": false, "osm_tree_row_or_hedge_within_15m": false}}, {"type": "Feature", "geometry": {"type": "LineString", "coordinates": [[15.641083, 49.473969], [15.640818, 49.473873], [15.64062, 49.47383]]}, "properties": {"dataset": "Copernicus HRL Small Woody Features 2021 (vectorised here)", "length_m": 51, "mean_width_m": 13.6, "in_zabaged_6_12": false, "osm_tree_row_or_hedge_within_15m": false}}, {"type": "Feature", "geometry": {"type": "LineString", "coordinates": [[15.659749, 49.472398], [15.659473, 49.472375], [15.659207, 49.472344], [15.658935, 49.472314], [15.658704, 49.472278], [15.658406, 49.472199], [15.658139, 49.472217], [15.657917, 49.472223]]}, "properties": {"dataset": "Copernicus HRL Small Woody Features 2021 (vectorised here)", "length_m": 149, "mean_width_m": 27.2, "in_zabaged_6_12": false, "osm_tree_row_or_hedge_within_15m": false}}, {"type": "Feature", "geometry": {"type": "LineString", "coordinates": [[15.658754, 49.470791], [15.658786, 49.470963], [15.658735, 49.471123], [15.658748, 49.471235]]}, "properties": {"dataset": "Copernicus HRL Small Woody Features 2021 (vectorised here)", "length_m": 61, "mean_width_m": 15.7, "in_zabaged_6_12": false, "osm_tree_row_or_hedge_within_15m": false}}, {"type": "Feature", "geometry": {"type": "LineString", "coordinates": [[15.630471, 49.46151], [15.630566, 49.46168], [15.630626, 49.461859], [15.630672, 49.462037], [15.630762, 49.462215], [15.630779, 49.462397], [15.630729, 49.462601], [15.630796, 49.462776], [15.631298, 49.462848], [15.631589, 49.462955], [15.631657, 49.463129], [15.63168, 49.46332], [15.631443, 49.463577], [15.631398, 49.463781], [15.631544, 49.463938], [15.631599, 49.464116], [15.631722, 49.464288], [15.632204, 49.464339], [15.632545, 49.464449], [15.632599, 49.464627], [15.632643, 49.464806], [15.63274, 49.464977], [15.632849, 49.465145], [15.632909, 49.465322], [15.63294, 49.465509], [15.633025, 49.465678], [15.633113, 49.46585], [15.633159, 49.466029], [15.633169, 49.466224], [15.633196, 49.4664], [15.633046, 49.466629], [15.633043, 49.4668]]}, "properties": {"dataset": "Copernicus HRL Small Woody Features 2021 (vectorised here)", "length_m": 631, "mean_width_m": 72.4, "in_zabaged_6_12": false, "osm_tree_row_or_hedge_within_15m": false}}, {"type": "Feature", "geometry": {"type": "LineString", "coordinates": [[15.657529, 49.465028], [15.657301, 49.465119], [15.657131, 49.465255], [15.656908, 49.46541], [15.656592, 49.465418], [15.656346, 49.465413], [15.655974, 49.46544], [15.655828, 49.465477]]}, "properties": {"dataset": "Copernicus HRL Small Woody Features 2021 (vectorised here)", "length_m": 145, "mean_width_m": 35.4, "in_zabaged_6_12": false, "osm_tree_row_or_hedge_within_15m": false}}, {"type": "Feature", "geometry": {"type": "LineString", "coordinates": [[15.650842, 49.45946], [15.650843, 49.459652], [15.650854, 49.459832], [15.650912, 49.460004], [15.650964, 49.460183], [15.65096, 49.460413], [15.651048, 49.460563], [15.651203, 49.460713], [15.65123, 49.460896], [15.651359, 49.461065], [15.65156, 49.461206], [15.651696, 49.461355], [15.651849, 49.461514], [15.651956, 49.461677], [15.65208, 49.461834], [15.652299, 49.461967], [15.652442, 49.462124], [15.652508, 49.462218]]}, "properties": {"dataset": "Copernicus HRL Small Woody Features 2021 (vectorised here)", "length_m": 342, "mean_width_m": 26.1, "in_zabaged_6_12": false, "osm_tree_row_or_hedge_within_15m": false}}, {"type": "Feature", "geometry": {"type": "LineString", "coordinates": [[15.635834, 49.460609], [15.635641, 49.460511], [15.635394, 49.460395], [15.635131, 49.460329], [15.634919, 49.460209], [15.634738, 49.460082], [15.634531, 49.459969], [15.634327, 49.45986], [15.634115, 49.459712], [15.633905, 49.45962], [15.633711, 49.459461], [15.633453, 49.459402], [15.633232, 49.459383]]}, "properties": {"dataset": "Copernicus HRL Small Woody Features 2021 (vectorised here)", "length_m": 248, "mean_width_m": 31.8, "in_zabaged_6_12": false, "osm_tree_row_or_hedge_within_15m": false}}, {"type": "Feature", "geometry": {"type": "LineString", "coordinates": [[15.627342, 49.459705], [15.627487, 49.459855], [15.627539, 49.460046], [15.62757, 49.460177]]}, "properties": {"dataset": "Copernicus HRL Small Woody Features 2021 (vectorised here)", "length_m": 69, "mean_width_m": 21.0, "in_zabaged_6_12": false, "osm_tree_row_or_hedge_within_15m": false}}]}