{"type": "FeatureCollection", "features": [{"type": "Feature", "geometry": {"type": "LineString", "coordinates": [[15.2802832, 49.9486791], [15.280489, 49.9486985], [15.2807171, 49.9487437]]}, "properties": {"barrier": "wall", "ref:zabaged": "5877270124167168", "zabaged_typ": null, "length_m": 32.0, "in_osm_8m": false}}, {"type": "Feature", "geometry": {"type": "LineString", "coordinates": [[15.287949, 49.9619729], [15.2885388, 49.9620513], [15.2887626, 49.9618225], [15.2888524, 49.9617203], [15.2887778, 49.9616225]]}, "properties": {"barrier": "wall", "ref:zabaged": "5832242056134656", "zabaged_typ": null, "length_m": 98.5, "in_osm_8m": true}}, {"type": "Feature", "geometry": {"type": "LineString", "coordinates": [[15.2553857, 49.9349599], [15.256251, 49.9350199], [15.2560651, 49.9344956], [15.2553277, 49.9345076], [15.2553857, 49.9349599]]}, "properties": {"barrier": "wall", "ref:zabaged": "7366650", "zabaged_typ": null, "length_m": 225.7, "in_osm_8m": false}}, {"type": "Feature", "geometry": {"type": "LineString", "coordinates": [[15.2652802, 49.9469698], [15.2653249, 49.9470269], [15.265451, 49.9469801]]}, "properties": {"barrier": "wall", "ref:zabaged": "5879192021368832", "zabaged_typ": null, "length_m": 17.6, "in_osm_8m": true}}, {"type": "Feature", "geometry": {"type": "LineString", "coordinates": [[15.2667159, 49.9527143], [15.2670056, 49.9527217], [15.2671969, 49.9527252]]}, "properties": {"barrier": "wall", "ref:zabaged": "5886661674139648", "zabaged_typ": null, "length_m": 34.5, "in_osm_8m": false}}, {"type": "Feature", "geometry": {"type": "LineString", "coordinates": [[15.2942212, 49.9598712], [15.2942387, 49.9595491]]}, "properties": {"barrier": "wall", "ref:zabaged": "29209476284284928", "zabaged_typ": null, "length_m": 35.8, "in_osm_8m": true}}, {"type": "Feature", "geometry": {"type": "LineString", "coordinates": [[15.2942451, 49.9594299], [15.2942419, 49.9594134]]}, "properties": {"barrier": "wall", "ref:zabaged": "29209475428646912", "zabaged_typ": null, "length_m": 1.8, "in_osm_8m": true}}, {"type": "Feature", "geometry": {"type": "LineString", "coordinates": [[15.2942401, 49.959523], [15.2942427, 49.9594744]]}, "properties": {"barrier": "wall", "ref:zabaged": "29209475881631744", "zabaged_typ": null, "length_m": 5.4, "in_osm_8m": true}}, {"type": "Feature", "geometry": {"type": "LineString", "coordinates": [[15.2648141, 49.951391], [15.2650226, 49.9512353]]}, "properties": {"barrier": "wall", "ref:zabaged": "5878938064650240", "zabaged_typ": null, "length_m": 22.9, "in_osm_8m": true}}, {"type": "Feature", "geometry": {"type": "LineString", "coordinates": [[15.2714037, 49.9481477], [15.2710276, 49.9482369], [15.2709917, 49.9482309], [15.2709452, 49.9481929]]}, "properties": {"barrier": "wall", "ref:zabaged": "5878730379493376", "zabaged_typ": null, "length_m": 36.8, "in_osm_8m": true}}, {"type": "Feature", "geometry": {"type": "LineString", "coordinates": [[15.2632524, 49.9452589], [15.2633276, 49.9452688]]}, "properties": {"barrier": "wall", "ref:zabaged": "29673623702732800", "zabaged_typ": null, "length_m": 5.5, "in_osm_8m": true}}, {"type": "Feature", "geometry": {"type": "LineString", "coordinates": [[15.2650212, 49.9512969], [15.2648804, 49.9514049], [15.2647545, 49.9515626], [15.2646494, 49.9516549], [15.2645105, 49.9517337], [15.2643688, 49.9518039], [15.2643267, 49.9518212]]}, "properties": {"barrier": "wall", "ref:zabaged": "5886959922708480", "zabaged_typ": null, "length_m": 77.8, "in_osm_8m": true}}, {"type": "Feature", "geometry": {"type": "LineString", "coordinates": [[15.2654418, 49.95177], [15.2655089, 49.9516996], [15.2655715, 49.9516238], [15.2656882, 49.9514939]]}, "properties": {"barrier": "wall", "ref:zabaged": "5894943109283840", "zabaged_typ": null, "length_m": 35.4, "in_osm_8m": true}}, {"type": "Feature", "geometry": {"type": "LineString", "coordinates": [[15.2736641, 49.9498558], [15.2736069, 49.9498019], [15.2736144, 49.9497489], [15.2737651, 49.9496785]]}, "properties": {"barrier": "wall", "ref:zabaged": "993622262547560", "zabaged_typ": null, "length_m": 26.5, "in_osm_8m": false}}, {"type": "Feature", "geometry": {"type": "LineString", "coordinates": [[15.2616181, 49.9527821], [15.2616561, 49.9528068], [15.2616514, 49.9528221], [15.2614947, 49.953123]]}, "properties": {"barrier": "wall", "ref:zabaged": "4061247691554816", "zabaged_typ": null, "length_m": 40.9, "in_osm_8m": false}}, {"type": "Feature", "geometry": {"type": "LineString", "coordinates": [[15.2639449, 49.951891], [15.2640641, 49.9520742], [15.2639933, 49.9521789], [15.263993, 49.9522001], [15.263997, 49.9523283], [15.2636949, 49.952284], [15.2633933, 49.9520966]]}, "properties": {"barrier": "wall", "ref:zabaged": "7366632", "zabaged_typ": null, "length_m": 103.7, "in_osm_8m": true}}, {"type": "Feature", "geometry": {"type": "LineString", "coordinates": [[15.2618932, 49.9521044], [15.2618808, 49.9520593], [15.2617492, 49.9514342], [15.2616922, 49.9512101], [15.2616088, 49.9505928]]}, "properties": {"barrier": "wall", "ref:zabaged": "7366409", "zabaged_typ": null, "length_m": 169.4, "in_osm_8m": true}}, {"type": "Feature", "geometry": {"type": "LineString", "coordinates": [[15.2942448, 49.9593552], [15.2942571, 49.9590304], [15.2921381, 49.9584081], [15.2915727, 49.9582078], [15.290854, 49.9579169], [15.2908381, 49.9579664]]}, "properties": {"barrier": "wall", "ref:zabaged": "7366639", "zabaged_typ": null, "length_m": 316.0, "in_osm_8m": true}}, {"type": "Feature", "geometry": {"type": "LineString", "coordinates": [[15.2725769, 49.9496195], [15.2724596, 49.9494026], [15.2721471, 49.9490324], [15.2721177, 49.9490284]]}, "properties": {"barrier": "wall", "ref:zabaged": "7366415", "zabaged_typ": null, "length_m": 74.6, "in_osm_8m": false}}, {"type": "Feature", "geometry": {"type": "LineString", "coordinates": [[15.2749749, 49.9475029], [15.2749713, 49.9475198], [15.2752027, 49.9477622], [15.2752954, 49.9478605], [15.275509, 49.9480936], [15.2756766, 49.9482545]]}, "properties": {"barrier": "wall", "ref:zabaged": "7366413", "zabaged_typ": null, "length_m": 98.0, "in_osm_8m": false}}, {"type": "Feature", "geometry": {"type": "LineString", "coordinates": [[15.263964, 49.945421], [15.2639905, 49.9454817], [15.2640492, 49.945609], [15.2641059, 49.9457354], [15.2641658, 49.945868], [15.2642182, 49.9459979], [15.2642505, 49.9460779], [15.264329, 49.9462577], [15.2643865, 49.9463895], [15.2644529, 49.9465172], [15.264516, 49.9466387], [15.2645633, 49.9467653], [15.264602, 49.9468691], [15.2646143, 49.9468995], [15.2646251, 49.9469256], [15.2646776, 49.9470281]]}, "properties": {"barrier": "wall", "ref:zabaged": "4162933005221888", "zabaged_typ": null, "length_m": 186.0, "in_osm_8m": true}}, {"type": "Feature", "geometry": {"type": "LineString", "coordinates": [[15.2605915, 49.9549969], [15.2605764, 49.9547922], [15.2606155, 49.9545871], [15.2607685, 49.9543604], [15.2608439, 49.9542628], [15.2610381, 49.9540793]]}, "properties": {"barrier": "wall", "ref:zabaged": "7366407", "zabaged_typ": null, "length_m": 110.1, "in_osm_8m": true}}, {"type": "Feature", "geometry": {"type": "LineString", "coordinates": [[15.2612177, 49.9556476], [15.2622321, 49.9564136]]}, "properties": {"barrier": "wall", "ref:zabaged": "7366406", "zabaged_typ": null, "length_m": 112.1, "in_osm_8m": true}}, {"type": "Feature", "geometry": {"type": "LineString", "coordinates": [[15.264112, 49.9519013], [15.2640497, 49.951924], [15.2641261, 49.9520325], [15.2642274, 49.9521347], [15.264281, 49.9521626], [15.2643796, 49.952184], [15.2646504, 49.9522122], [15.2648323, 49.9522142], [15.2648692, 49.9522079], [15.2648992, 49.9521988], [15.2650344, 49.9521258], [15.2651652, 49.9520365], [15.2652478, 49.9519734], [15.2653712, 49.9518409]]}, "properties": {"barrier": "wall", "ref:zabaged": "2289947562213376", "zabaged_typ": null, "length_m": 134.8, "in_osm_8m": true}}, {"type": "Feature", "geometry": {"type": "LineString", "coordinates": [[15.2639953, 49.951852], [15.264062, 49.9518456], [15.2641273, 49.9518356], [15.2642106, 49.9518093], [15.2644064, 49.9517266]]}, "properties": {"barrier": "wall", "ref:zabaged": "7366323", "zabaged_typ": null, "length_m": 33.1, "in_osm_8m": true}}, {"type": "Feature", "geometry": {"type": "LineString", "coordinates": [[15.2618299, 49.9480858], [15.2619816, 49.9481299], [15.2620339, 49.948146], [15.2620478, 49.9481187], [15.2623454, 49.9482077], [15.2624317, 49.9482359], [15.2626451, 49.9481524]]}, "properties": {"barrier": "wall", "ref:zabaged": "7366438", "zabaged_typ": null, "length_m": 67.7, "in_osm_8m": false}}, {"type": "Feature", "geometry": {"type": "LineString", "coordinates": [[15.2781564, 49.9489433], [15.2774699, 49.9487983]]}, "properties": {"barrier": "wall", "ref:zabaged": "7366383", "zabaged_typ": null, "length_m": 51.8, "in_osm_8m": false}}, {"type": "Feature", "geometry": {"type": "LineString", "coordinates": [[15.2708542, 49.9509674], [15.270862, 49.9509181], [15.2713088, 49.9507346], [15.2719468, 49.9504459]]}, "properties": {"barrier": "wall", "ref:zabaged": "7366334", "zabaged_typ": null, "length_m": 99.4, "in_osm_8m": false}}, {"type": "Feature", "geometry": {"type": "LineString", "coordinates": [[15.2629162, 49.9535558], [15.2622247, 49.953513], [15.2615858, 49.9535243], [15.2614584, 49.9535421], [15.2613563, 49.953696]]}, "properties": {"barrier": "wall", "ref:zabaged": "7366403", "zabaged_typ": null, "length_m": 123.7, "in_osm_8m": true}}, {"type": "Feature", "geometry": {"type": "LineString", "coordinates": [[15.2736865, 49.9503981], [15.2737689, 49.9502874], [15.2738796, 49.9502111]]}, "properties": {"barrier": "wall", "ref:zabaged": "7366382", "zabaged_typ": null, "length_m": 25.3, "in_osm_8m": false}}, {"type": "Feature", "geometry": {"type": "LineString", "coordinates": [[15.2737899, 49.9467316], [15.273985, 49.9468192], [15.2741061, 49.946886], [15.2744066, 49.9470616]]}, "properties": {"barrier": "wall", "ref:zabaged": "7366341", "zabaged_typ": null, "length_m": 57.6, "in_osm_8m": false}}, {"type": "Feature", "geometry": {"type": "LineString", "coordinates": [[15.263255, 49.9583613], [15.2633644, 49.9581964], [15.2634259, 49.9581247], [15.2635221, 49.9580435], [15.2638822, 49.9581408], [15.2641746, 49.958209], [15.2639748, 49.9585823], [15.263255, 49.9583613]]}, "properties": {"barrier": "wall", "ref:zabaged": "7366330", "zabaged_typ": null, "length_m": 191.9, "in_osm_8m": true}}, {"type": "Feature", "geometry": {"type": "LineString", "coordinates": [[15.2647333, 49.9471133], [15.2648237, 49.9472413], [15.2648761, 49.9473085], [15.2650577, 49.9475475]]}, "properties": {"barrier": "wall", "ref:zabaged": "7366340", "zabaged_typ": null, "length_m": 53.6, "in_osm_8m": true}}, {"type": "Feature", "geometry": {"type": "LineString", "coordinates": [[15.2652952, 49.951302], [15.2651848, 49.951364], [15.2651273, 49.9513271]]}, "properties": {"barrier": "wall", "ref:zabaged": "7366333", "zabaged_typ": null, "length_m": 16.3, "in_osm_8m": false}}, {"type": "Feature", "geometry": {"type": "LineString", "coordinates": [[15.2653328, 49.9462502], [15.2653316, 49.9461029], [15.2653631, 49.9460578], [15.2653717, 49.9459982], [15.2653158, 49.9459145]]}, "properties": {"barrier": "wall", "ref:zabaged": "7379532", "zabaged_typ": null, "length_m": 38.7, "in_osm_8m": false}}, {"type": "Feature", "geometry": {"type": "LineString", "coordinates": [[15.287497, 49.9608943], [15.2874876, 49.9610967], [15.2876714, 49.9612685], [15.2878093, 49.9613262], [15.2880549, 49.9613446], [15.2882583, 49.9612695], [15.2885713, 49.9609455]]}, "properties": {"barrier": "wall", "ref:zabaged": "7366643", "zabaged_typ": null, "length_m": 134.5, "in_osm_8m": false}}, {"type": "Feature", "geometry": {"type": "LineString", "coordinates": [[15.2698204, 49.9501341], [15.2697117, 49.9500173], [15.26972, 49.9500043], [15.2696124, 49.9498355], [15.2696058, 49.9498253], [15.2694825, 49.9496192], [15.2693957, 49.9495652], [15.2692468, 49.9495743], [15.2692154, 49.9495997], [15.2691287, 49.9496698]]}, "properties": {"barrier": "wall", "ref:zabaged": "7366335", "zabaged_typ": null, "length_m": 95.8, "in_osm_8m": true}}, {"type": "Feature", "geometry": {"type": "LineString", "coordinates": [[15.2744755, 49.9508153], [15.2745492, 49.9508364], [15.2746097, 49.9509799], [15.2747278, 49.9510914], [15.2747958, 49.9511569], [15.2748106, 49.9511853], [15.2748165, 49.9512004], [15.2748093, 49.9512152], [15.2747963, 49.9512337], [15.2747817, 49.9512456], [15.2746878, 49.951288], [15.2746463, 49.9513041]]}, "properties": {"barrier": "wall", "ref:zabaged": "7366426", "zabaged_typ": null, "length_m": 68.6, "in_osm_8m": false}}, {"type": "Feature", "geometry": {"type": "LineString", "coordinates": [[15.2883815, 49.9614694], [15.2878359, 49.9614915], [15.2877903, 49.961954]]}, "properties": {"barrier": "wall", "ref:zabaged": "7366642", "zabaged_typ": null, "length_m": 90.8, "in_osm_8m": true}}, {"type": "Feature", "geometry": {"type": "LineString", "coordinates": [[15.2687112, 49.9511466], [15.2687395, 49.9510867], [15.2688333, 49.9508509], [15.2688312, 49.9508417]]}, "properties": {"barrier": "wall", "ref:zabaged": "7366414", "zabaged_typ": null, "length_m": 35.1, "in_osm_8m": false}}, {"type": "Feature", "geometry": {"type": "LineString", "coordinates": [[15.2828006, 49.9492822], [15.2827462, 49.9495435], [15.2825259, 49.94954], [15.2824504, 49.9498621], [15.2824397, 49.9498995], [15.282206, 49.9498621], [15.2816823, 49.9497414], [15.2805688, 49.9494679], [15.2804537, 49.9494513], [15.2803741, 49.9493502], [15.2801629, 49.9492199], [15.2796921, 49.949011], [15.2794915, 49.9488593], [15.2794528, 49.9487942], [15.2798396, 49.9486833], [15.2799793, 49.9486816]]}, "properties": {"barrier": "wall", "ref:zabaged": "7366329", "zabaged_typ": null, "length_m": 381.7, "in_osm_8m": false}}, {"type": "Feature", "geometry": {"type": "LineString", "coordinates": [[15.2663491, 49.9519297], [15.2663609, 49.9519201], [15.2663887, 49.9519011], [15.2667082, 49.951657]]}, "properties": {"barrier": "wall", "ref:zabaged": "7366443", "zabaged_typ": null, "length_m": 39.8, "in_osm_8m": true}}, {"type": "Feature", "geometry": {"type": "LineString", "coordinates": [[15.2629038, 49.9444193], [15.2630631, 49.9444377], [15.2631667, 49.9444388], [15.2634098, 49.9444068], [15.2634934, 49.9443952], [15.2637971, 49.9444339]]}, "properties": {"barrier": "wall", "ref:zabaged": "30419043345235968", "zabaged_typ": null, "length_m": 65.2, "in_osm_8m": false}}, {"type": "Feature", "geometry": {"type": "LineString", "coordinates": [[15.2659018, 49.9542941], [15.265749, 49.9545541], [15.2656965, 49.9546467]]}, "properties": {"barrier": "wall", "ref:zabaged": "7366408", "zabaged_typ": null, "length_m": 41.9, "in_osm_8m": false}}, {"type": "Feature", "geometry": {"type": "LineString", "coordinates": [[15.2668466, 49.9480407], [15.2667503, 49.9480662]]}, "properties": {"barrier": "wall", "ref:zabaged": "30375849379233792", "zabaged_typ": null, "length_m": 7.5, "in_osm_8m": true}}, {"type": "Feature", "geometry": {"type": "LineString", "coordinates": [[15.2734865, 49.9508416], [15.2734563, 49.9508253], [15.2724181, 49.9502623], [15.2723041, 49.9501864]]}, "properties": {"barrier": "wall", "ref:zabaged": "7366326", "zabaged_typ": null, "length_m": 111.9, "in_osm_8m": false}}, {"type": "Feature", "geometry": {"type": "LineString", "coordinates": [[15.2738217, 49.9460544], [15.2738908, 49.9460794], [15.2740771, 49.9461468], [15.2745345, 49.9463617], [15.274389, 49.9464338], [15.2743634, 49.9464501]]}, "properties": {"barrier": "wall", "ref:zabaged": "30375853590315008", "zabaged_typ": null, "length_m": 77.4, "in_osm_8m": false}}, {"type": "Feature", "geometry": {"type": "LineString", "coordinates": [[15.2622469, 49.9449365], [15.2622531, 49.9448749]]}, "properties": {"barrier": "wall", "ref:zabaged": "30419028212187136", "zabaged_typ": null, "length_m": 6.9, "in_osm_8m": true}}, {"type": "Feature", "geometry": {"type": "LineString", "coordinates": [[15.2661978, 49.952124], [15.2664612, 49.9519137], [15.2667086, 49.9517529], [15.2669558, 49.9516443], [15.2675273, 49.9516711], [15.2679318, 49.9513454], [15.2680832, 49.9512727]]}, "properties": {"barrier": "wall", "ref:zabaged": "7366444", "zabaged_typ": null, "length_m": 177.8, "in_osm_8m": true}}, {"type": "Feature", "geometry": {"type": "LineString", "coordinates": [[15.2651772, 49.9466974], [15.2651389, 49.9467045], [15.2652037, 49.9468467]]}, "properties": {"barrier": "wall", "ref:zabaged": "30375842081144832", "zabaged_typ": null, "length_m": 19.3, "in_osm_8m": false}}, {"type": "Feature", "geometry": {"type": "LineString", "coordinates": [[15.2629151, 49.9563612], [15.2626979, 49.9563488], [15.262326, 49.9563175], [15.2622321, 49.9564136]]}, "properties": {"barrier": "wall", "ref:zabaged": "30352996831330304", "zabaged_typ": null, "length_m": 55.2, "in_osm_8m": true}}, {"type": "Feature", "geometry": {"type": "LineString", "coordinates": [[15.2622849, 49.9445613], [15.2623895, 49.944527], [15.2624879, 49.9444981]]}, "properties": {"barrier": "wall", "ref:zabaged": "30763786495328256", "zabaged_typ": null, "length_m": 16.2, "in_osm_8m": true}}, {"type": "Feature", "geometry": {"type": "LineString", "coordinates": [[15.2625422, 49.9444799], [15.2625866, 49.9444688], [15.2628904, 49.9444656]]}, "properties": {"barrier": "wall", "ref:zabaged": "7320683591761920", "zabaged_typ": null, "length_m": 25.2, "in_osm_8m": true}}, {"type": "Feature", "geometry": {"type": "LineString", "coordinates": [[15.2590736, 49.9570758], [15.2591657, 49.9569796], [15.2594374, 49.9567744], [15.2596422, 49.9566254], [15.25985, 49.9563882]]}, "properties": {"barrier": "wall", "ref:zabaged": "2261452350029824", "zabaged_typ": null, "length_m": 95.0, "in_osm_8m": false}}, {"type": "Feature", "geometry": {"type": "LineString", "coordinates": [[15.2625929, 49.9475512], [15.2622869, 49.9474175]]}, "properties": {"barrier": "wall", "ref:zabaged": "7366437", "zabaged_typ": null, "length_m": 26.5, "in_osm_8m": false}}, {"type": "Feature", "geometry": {"type": "LineString", "coordinates": [[15.2835145, 49.9496882], [15.2835592, 49.9493267], [15.2835838, 49.9491134], [15.2840472, 49.9491628]]}, "properties": {"barrier": "wall", "ref:zabaged": "7366641", "zabaged_typ": null, "length_m": 97.8, "in_osm_8m": false}}, {"type": "Feature", "geometry": {"type": "LineString", "coordinates": [[15.2635664, 49.9509034], [15.2639598, 49.9507712], [15.2640238, 49.9507448], [15.2642183, 49.9506227]]}, "properties": {"barrier": "wall", "ref:zabaged": "7366410", "zabaged_typ": null, "length_m": 56.8, "in_osm_8m": true}}, {"type": "Feature", "geometry": {"type": "LineString", "coordinates": [[15.2626074, 49.9500182], [15.2628288, 49.9503175], [15.262981, 49.9505881]]}, "properties": {"barrier": "wall", "ref:zabaged": "7366332", "zabaged_typ": null, "length_m": 68.9, "in_osm_8m": false}}, {"type": "Feature", "geometry": {"type": "LineString", "coordinates": [[15.2724641, 49.9462476], [15.2726093, 49.9462497], [15.2726048, 49.9462937], [15.2726894, 49.946296], [15.2730688, 49.9463988], [15.2732113, 49.9464562]]}, "properties": {"barrier": "wall", "ref:zabaged": "7366338", "zabaged_typ": null, "length_m": 63.0, "in_osm_8m": false}}, {"type": "Feature", "geometry": {"type": "LineString", "coordinates": [[15.2755855, 49.9471888], [15.2759208, 49.9476721], [15.2761057, 49.9479889]]}, "properties": {"barrier": "wall", "ref:zabaged": "7366390", "zabaged_typ": null, "length_m": 96.5, "in_osm_8m": false}}, {"type": "Feature", "geometry": {"type": "LineString", "coordinates": [[15.2661419, 49.9470041], [15.265851, 49.947221], [15.2658829, 49.9473273]]}, "properties": {"barrier": "wall", "ref:zabaged": "7366395", "zabaged_typ": null, "length_m": 43.9, "in_osm_8m": false}}, {"type": "Feature", "geometry": {"type": "LineString", "coordinates": [[15.2740694, 49.9505782], [15.2742302, 49.9503405], [15.2739667, 49.9502629], [15.2738796, 49.9502111]]}, "properties": {"barrier": "wall", "ref:zabaged": "7366416", "zabaged_typ": null, "length_m": 58.1, "in_osm_8m": false}}, {"type": "Feature", "geometry": {"type": "LineString", "coordinates": [[15.2658414, 49.9475958], [15.2658163, 49.9476749], [15.2657976, 49.9477338]]}, "properties": {"barrier": "wall", "ref:zabaged": "2829909575598080", "zabaged_typ": null, "length_m": 15.7, "in_osm_8m": true}}, {"type": "Feature", "geometry": {"type": "LineString", "coordinates": [[15.266106, 49.9525412], [15.2661519, 49.952483], [15.2663095, 49.9524645], [15.2664802, 49.9525668], [15.2665197, 49.9525867], [15.266556, 49.9525918], [15.266601, 49.9525938], [15.2666303, 49.9525917], [15.2666626, 49.9525869], [15.2666919, 49.9525783], [15.2667036, 49.9525623], [15.2667167, 49.9525034], [15.266795, 49.9524629], [15.2670493, 49.9524632], [15.2675388, 49.9524713], [15.2683236, 49.9525079], [15.2683742, 49.9525421], [15.2683705, 49.9526288], [15.2683914, 49.9526488], [15.268408, 49.952663], [15.2684327, 49.9526726], [15.2684602, 49.9526778], [15.2684898, 49.9526782], [15.2685188, 49.952673], [15.2685444, 49.9526626], [15.2685597, 49.9526453], [15.2685826, 49.9525701], [15.2688832, 49.9525998]]}, "properties": {"barrier": "wall", "ref:zabaged": "7366419", "zabaged_typ": null, "length_m": 240.1, "in_osm_8m": true}}, {"type": "Feature", "geometry": {"type": "LineString", "coordinates": [[15.2832543, 49.9498598], [15.2833099, 49.9494738], [15.283361, 49.9490296], [15.2825256, 49.9489827]]}, "properties": {"barrier": "wall", "ref:zabaged": "7366636", "zabaged_typ": null, "length_m": 152.8, "in_osm_8m": false}}, {"type": "Feature", "geometry": {"type": "LineString", "coordinates": [[15.2787392, 49.9489824], [15.278973, 49.9492482], [15.2793038, 49.9496432], [15.2794058, 49.9497222]]}, "properties": {"barrier": "wall", "ref:zabaged": "7366424", "zabaged_typ": null, "length_m": 95.4, "in_osm_8m": false}}, {"type": "Feature", "geometry": {"type": "LineString", "coordinates": [[15.2661572, 49.9533623], [15.2663853, 49.953385]]}, "properties": {"barrier": "wall", "ref:zabaged": "7366420", "zabaged_typ": null, "length_m": 16.6, "in_osm_8m": false}}, {"type": "Feature", "geometry": {"type": "LineString", "coordinates": [[15.2718598, 49.9473459], [15.2719277, 49.9471909], [15.2713866, 49.9471308], [15.2711248, 49.9475473], [15.2713533, 49.947617]]}, "properties": {"barrier": "wall", "ref:zabaged": "7366411", "zabaged_typ": null, "length_m": 125.4, "in_osm_8m": true}}, {"type": "Feature", "geometry": {"type": "LineString", "coordinates": [[15.2696164, 49.9487751], [15.2696848, 49.9487624], [15.269667, 49.9487298], [15.2697047, 49.9487116], [15.2697267, 49.9486868], [15.2697322, 49.9486678], [15.2697288, 49.9486429], [15.2696793, 49.9486085], [15.2696481, 49.9486039], [15.2696015, 49.9486043], [15.2695813, 49.9485711], [15.2695296, 49.9485806]]}, "properties": {"barrier": "wall", "ref:zabaged": "7366325", "zabaged_typ": null, "length_m": 39.1, "in_osm_8m": true}}, {"type": "Feature", "geometry": {"type": "LineString", "coordinates": [[15.261175, 49.9539562], [15.261194, 49.9539441], [15.2612851, 49.953951]]}, "properties": {"barrier": "wall", "ref:zabaged": "7366404", "zabaged_typ": null, "length_m": 8.5, "in_osm_8m": true}}, {"type": "Feature", "geometry": {"type": "LineString", "coordinates": [[15.2622321, 49.9564136], [15.2612787, 49.9574168], [15.2611149, 49.9574657], [15.26096, 49.9574455], [15.2597708, 49.9566711], [15.2599592, 49.956447], [15.260577, 49.955687], [15.2606148, 49.9556413], [15.2606475, 49.9552987]]}, "properties": {"barrier": "wall", "ref:zabaged": "2529068222251008", "zabaged_typ": null, "length_m": 444.1, "in_osm_8m": true}}, {"type": "Feature", "geometry": {"type": "LineString", "coordinates": [[15.2884518, 49.961468], [15.2886684, 49.9614664], [15.2887345, 49.9615649]]}, "properties": {"barrier": "wall", "ref:zabaged": "2321543203913728", "zabaged_typ": null, "length_m": 27.5, "in_osm_8m": true}}, {"type": "Feature", "geometry": {"type": "LineString", "coordinates": [[15.2940981, 49.9620418], [15.2941791, 49.9605791], [15.2942182, 49.9599259]]}, "properties": {"barrier": "wall", "ref:zabaged": "3194704015392768", "zabaged_typ": null, "length_m": 235.5, "in_osm_8m": true}}, {"type": "Feature", "geometry": {"type": "LineString", "coordinates": [[15.2632892, 49.9512594], [15.2631402, 49.9514126], [15.2630123, 49.9515552], [15.2630748, 49.9517362]]}, "properties": {"barrier": "wall", "ref:zabaged": "7366322", "zabaged_typ": null, "length_m": 59.1, "in_osm_8m": true}}, {"type": "Feature", "geometry": {"type": "LineString", "coordinates": [[15.2899029, 49.9590132], [15.2898166, 49.9590832], [15.2896788, 49.9592599], [15.2896274, 49.9594667], [15.2895998, 49.9596175]]}, "properties": {"barrier": "wall", "ref:zabaged": "7366637", "zabaged_typ": null, "length_m": 72.1, "in_osm_8m": true}}, {"type": "Feature", "geometry": {"type": "LineString", "coordinates": [[15.2662732, 49.952702], [15.2666033, 49.9527112]]}, "properties": {"barrier": "wall", "ref:zabaged": "7366418", "zabaged_typ": null, "length_m": 23.7, "in_osm_8m": false}}, {"type": "Feature", "geometry": {"type": "LineString", "coordinates": [[15.2641124, 49.9442803], [15.2640581, 49.9442023], [15.2640199, 49.9441626]]}, "properties": {"barrier": "wall", "ref:zabaged": "4158676810072064", "zabaged_typ": null, "length_m": 14.7, "in_osm_8m": false}}, {"type": "Feature", "geometry": {"type": "LineString", "coordinates": [[15.264668, 49.9515589], [15.2647127, 49.9515293], [15.2647402, 49.9514857]]}, "properties": {"barrier": "wall", "ref:zabaged": "2289947864203264", "zabaged_typ": null, "length_m": 9.8, "in_osm_8m": true}}, {"type": "Feature", "geometry": {"type": "LineString", "coordinates": [[15.2653734, 49.9473383], [15.2651817, 49.9472052], [15.2651742, 49.9471966], [15.2651067, 49.9471387], [15.2650028, 49.9470311], [15.2648415, 49.9468926], [15.2647924, 49.9468311], [15.2647485, 49.9467407], [15.2646317, 49.9465502], [15.2645784, 49.9464374]]}, "properties": {"barrier": "wall", "ref:zabaged": "7366393", "zabaged_typ": null, "length_m": 116.9, "in_osm_8m": false}}, {"type": "Feature", "geometry": {"type": "LineString", "coordinates": [[15.2794973, 49.948684], [15.2797861, 49.9486065], [15.27991, 49.948583], [15.2799323, 49.9485323]]}, "properties": {"barrier": "wall", "ref:zabaged": "993628453340264", "zabaged_typ": null, "length_m": 37.6, "in_osm_8m": false}}, {"type": "Feature", "geometry": {"type": "LineString", "coordinates": [[15.2660197, 49.9479735], [15.2660747, 49.9479672], [15.2661129, 49.947944], [15.2661674, 49.9479049]]}, "properties": {"barrier": "wall", "ref:zabaged": "7366343", "zabaged_typ": null, "length_m": 13.6, "in_osm_8m": true}}, {"type": "Feature", "geometry": {"type": "LineString", "coordinates": [[15.2748508, 49.9454904], [15.2749497, 49.9457139], [15.2750129, 49.9458564]]}, "properties": {"barrier": "wall", "ref:zabaged": "4063259816624128", "zabaged_typ": null, "length_m": 42.3, "in_osm_8m": false}}, {"type": "Feature", "geometry": {"type": "LineString", "coordinates": [[15.2709715, 49.948015], [15.2710852, 49.9479505], [15.2713783, 49.9480332], [15.2714296, 49.9481044]]}, "properties": {"barrier": "wall", "ref:zabaged": "7366412", "zabaged_typ": null, "length_m": 42.6, "in_osm_8m": true}}, {"type": "Feature", "geometry": {"type": "LineString", "coordinates": [[15.2738796, 49.9502111], [15.2734388, 49.9498088], [15.2733787, 49.9498211], [15.2730002, 49.9499027]]}, "properties": {"barrier": "wall", "ref:zabaged": "2529064246050816", "zabaged_typ": null, "length_m": 88.0, "in_osm_8m": false}}, {"type": "Feature", "geometry": {"type": "LineString", "coordinates": [[15.2612792, 49.9539093], [15.2613929, 49.9539275], [15.2617065, 49.9539542], [15.2619034, 49.9539788]]}, "properties": {"barrier": "wall", "ref:zabaged": "4061243363033088", "zabaged_typ": null, "length_m": 45.5, "in_osm_8m": true}}, {"type": "Feature", "geometry": {"type": "LineString", "coordinates": [[15.2770115, 49.9490388], [15.2770664, 49.9490706], [15.2771259, 49.9491022], [15.2771723, 49.949061], [15.2772253, 49.9490586], [15.2776496, 49.9492277], [15.278256, 49.9496012], [15.2783622, 49.9498275]]}, "properties": {"barrier": "wall", "ref:zabaged": "7366427", "zabaged_typ": null, "length_m": 142.5, "in_osm_8m": false}}, {"type": "Feature", "geometry": {"type": "LineString", "coordinates": [[15.2740687, 49.9501933], [15.2740374, 49.9501842], [15.2737905, 49.9499667]]}, "properties": {"barrier": "wall", "ref:zabaged": "7366327", "zabaged_typ": null, "length_m": 32.5, "in_osm_8m": false}}, {"type": "Feature", "geometry": {"type": "LineString", "coordinates": [[15.2380696, 49.9525658], [15.2381549, 49.9524587], [15.2382236, 49.9522926], [15.2382582, 49.9522088], [15.2382472, 49.9521329], [15.2379501, 49.951937], [15.237513, 49.9517189]]}, "properties": {"barrier": "wall", "ref:zabaged": "2312635609513984", "zabaged_typ": null, "length_m": 120.8, "in_osm_8m": false}}, {"type": "Feature", "geometry": {"type": "LineString", "coordinates": [[15.2823641, 49.9403454], [15.2857702, 49.9400398], [15.2851678, 49.9373223], [15.285939, 49.9372663]]}, "properties": {"barrier": "wall", "ref:zabaged": "7366475", "zabaged_typ": null, "length_m": 607.8, "in_osm_8m": false}}, {"type": "Feature", "geometry": {"type": "LineString", "coordinates": [[15.2900487, 49.9603031], [15.2900443, 49.960328], [15.2905113, 49.9606335], [15.2912485, 49.9611214], [15.2914805, 49.9612462], [15.2917257, 49.9613561], [15.2928752, 49.9618052], [15.293603, 49.9620827], [15.2936427, 49.9620423], [15.2937985, 49.9620259]]}, "properties": {"barrier": "wall", "ref:zabaged": "7366640", "zabaged_typ": null, "length_m": 343.1, "in_osm_8m": true}}, {"type": "Feature", "geometry": {"type": "LineString", "coordinates": [[15.2629134, 49.9534896], [15.2624988, 49.95348], [15.2622898, 49.953458], [15.2617108, 49.9534466], [15.2616691, 49.9534954], [15.2616297, 49.953496], [15.2614891, 49.9534791], [15.2616941, 49.9530741]]}, "properties": {"barrier": "wall", "ref:zabaged": "7366402", "zabaged_typ": null, "length_m": 153.2, "in_osm_8m": true}}, {"type": "Feature", "geometry": {"type": "LineString", "coordinates": [[15.2663196, 49.9482054], [15.2664733, 49.9481015]]}, "properties": {"barrier": "wall", "ref:zabaged": "7366394", "zabaged_typ": null, "length_m": 16.0, "in_osm_8m": true}}, {"type": "Feature", "geometry": {"type": "LineString", "coordinates": [[15.2733396, 49.9465027], [15.2735597, 49.9466133]]}, "properties": {"barrier": "wall", "ref:zabaged": "66244138101637120", "zabaged_typ": null, "length_m": 20.0, "in_osm_8m": false}}, {"type": "Feature", "geometry": {"type": "LineString", "coordinates": [[15.2652711, 49.9458456], [15.2652304, 49.9457992], [15.2652253, 49.9457951], [15.265192, 49.9457558], [15.2651536, 49.9457061], [15.2651044, 49.9456438]]}, "properties": {"barrier": "wall", "ref:zabaged": "66244136088371200", "zabaged_typ": null, "length_m": 25.4, "in_osm_8m": false}}, {"type": "Feature", "geometry": {"type": "LineString", "coordinates": [[15.2664604, 49.9533927], [15.2667921, 49.9534231], [15.2669324, 49.9528263], [15.2662809, 49.9528099]]}, "properties": {"barrier": "wall", "ref:zabaged": "64998346799972352", "zabaged_typ": null, "length_m": 138.0, "in_osm_8m": false}}, {"type": "Feature", "geometry": {"type": "LineString", "coordinates": [[15.3048955, 49.9333942], [15.3046494, 49.9333619]]}, "properties": {"barrier": "retaining_wall", "ref:zabaged": "29882396107079680", "zabaged_typ": "zeď opěrná", "length_m": 18.0, "in_osm_8m": false}}, {"type": "Feature", "geometry": {"type": "LineString", "coordinates": [[15.2730404, 49.9585942], [15.2732117, 49.9586302], [15.2737734, 49.9587846], [15.2743848, 49.9590068]]}, "properties": {"barrier": "retaining_wall", "ref:zabaged": "29882318076248064", "zabaged_typ": "zeď opěrná", "length_m": 107.1, "in_osm_8m": false}}, {"type": "Feature", "geometry": {"type": "LineString", "coordinates": [[15.2699514, 49.9470549], [15.269711, 49.9470379], [15.2697054, 49.9470602], [15.2694191, 49.9470124], [15.2692954, 49.946857]]}, "properties": {"barrier": "retaining_wall", "ref:zabaged": "29882273180418048", "zabaged_typ": "zeď opěrná", "length_m": 60.5, "in_osm_8m": false}}, {"type": "Feature", "geometry": {"type": "LineString", "coordinates": [[15.2712457, 49.9556204], [15.2713079, 49.9558155], [15.2713363, 49.9558361], [15.2715374, 49.9559647], [15.2715698, 49.9559799]]}, "properties": {"barrier": "retaining_wall", "ref:zabaged": "29882317187055616", "zabaged_typ": "zeď opěrná", "length_m": 48.4, "in_osm_8m": false}}, {"type": "Feature", "geometry": {"type": "LineString", "coordinates": [[15.2753297, 49.9472359], [15.2754541, 49.9474703], [15.275604, 49.9477711], [15.2757455, 49.9479987], [15.2759228, 49.9482688]]}, "properties": {"barrier": "retaining_wall", "ref:zabaged": "29882307758260224", "zabaged_typ": "zeď opěrná", "length_m": 122.6, "in_osm_8m": false}}, {"type": "Feature", "geometry": {"type": "LineString", "coordinates": [[15.275693, 49.9582495], [15.2760342, 49.9583333], [15.2761752, 49.9583397]]}, "properties": {"barrier": "retaining_wall", "ref:zabaged": "29882319787524096", "zabaged_typ": "zeď opěrná", "length_m": 36.3, "in_osm_8m": false}}, {"type": "Feature", "geometry": {"type": "LineString", "coordinates": [[15.2871778, 49.9608506], [15.2873836, 49.9603912], [15.2873779, 49.9603044], [15.2873192, 49.9602531], [15.2872714, 49.9602562], [15.287237, 49.9602786], [15.287186, 49.9602745], [15.2868204, 49.9604287], [15.2869513, 49.9608346]]}, "properties": {"barrier": "retaining_wall", "ref:zabaged": "29882334249484288", "zabaged_typ": "zeď opěrná", "length_m": 158.0, "in_osm_8m": false}}, {"type": "Feature", "geometry": {"type": "LineString", "coordinates": [[15.2689904, 49.947698], [15.269375, 49.9477013]]}, "properties": {"barrier": "retaining_wall", "ref:zabaged": "29882280780496896", "zabaged_typ": "zeď opěrná", "length_m": 27.6, "in_osm_8m": true}}, {"type": "Feature", "geometry": {"type": "LineString", "coordinates": [[15.2715513, 49.9506659], [15.2716244, 49.9506336], [15.2717461, 49.9507951]]}, "properties": {"barrier": "retaining_wall", "ref:zabaged": "29882316364972032", "zabaged_typ": "zeď opěrná", "length_m": 26.3, "in_osm_8m": false}}, {"type": "Feature", "geometry": {"type": "LineString", "coordinates": [[15.2746791, 49.9606411], [15.274559, 49.9606455], [15.2745769, 49.9607924], [15.2746199, 49.9607917]]}, "properties": {"barrier": "retaining_wall", "ref:zabaged": "29882321498800128", "zabaged_typ": "zeď opěrná", "length_m": 28.1, "in_osm_8m": false}}, {"type": "Feature", "geometry": {"type": "LineString", "coordinates": [[15.2647518, 49.9447593], [15.2647928, 49.9447789], [15.2648099, 49.9447866], [15.2648411, 49.944794], [15.264877, 49.9448006], [15.2649054, 49.9448077], [15.2649264, 49.9448174], [15.2649472, 49.9448335], [15.2651269, 49.9450171], [15.2653273, 49.9452327], [15.2654069, 49.9452695], [15.2655667, 49.945668]]}, "properties": {"barrier": "retaining_wall", "ref:zabaged": "29882346027089920", "zabaged_typ": "zeď opěrná", "length_m": 121.5, "in_osm_8m": false}}, {"type": "Feature", "geometry": {"type": "LineString", "coordinates": [[15.3046285, 49.9334117], [15.3047722, 49.9334264], [15.3049179, 49.9334523]]}, "properties": {"barrier": "retaining_wall", "ref:zabaged": "29882399831621632", "zabaged_typ": "zeď opěrná", "length_m": 21.3, "in_osm_8m": false}}, {"type": "Feature", "geometry": {"type": "LineString", "coordinates": [[15.2761082, 49.9481831], [15.2761314, 49.9481629], [15.2760088, 49.9479531], [15.2759189, 49.9478065], [15.2756952, 49.9474311], [15.275554, 49.9471893]]}, "properties": {"barrier": "retaining_wall", "ref:zabaged": "29882308613898240", "zabaged_typ": "zeď opěrná", "length_m": 118.7, "in_osm_8m": false}}, {"type": "Feature", "geometry": {"type": "LineString", "coordinates": [[15.301596, 49.9377768], [15.3016116, 49.9377744], [15.3016519, 49.937771], [15.3016959, 49.9377749]]}, "properties": {"barrier": "retaining_wall", "ref:zabaged": "29882342201884672", "zabaged_typ": "zeď opěrná", "length_m": 7.3, "in_osm_8m": false}}, {"type": "Feature", "geometry": {"type": "LineString", "coordinates": [[15.2522697, 49.9472579], [15.2522771, 49.947235], [15.2528358, 49.9472977], [15.2528334, 49.9473145]]}, "properties": {"barrier": "retaining_wall", "ref:zabaged": "29882232797659136", "zabaged_typ": "zeď opěrná", "length_m": 45.2, "in_osm_8m": false}}, {"type": "Feature", "geometry": {"type": "LineString", "coordinates": [[15.2541187, 49.9266243], [15.254152, 49.9266112], [15.2541973, 49.9265939], [15.2542447, 49.9265739], [15.2542779, 49.9265641], [15.2543159, 49.926557], [15.2545467, 49.926525]]}, "properties": {"barrier": "retaining_wall", "ref:zabaged": "29882365404774400", "zabaged_typ": "zeď opěrná", "length_m": 33.1, "in_osm_8m": false}}, {"type": "Feature", "geometry": {"type": "LineString", "coordinates": [[15.2488304, 49.9469118], [15.2491264, 49.9469218], [15.2493407, 49.9469451], [15.2499464, 49.947015], [15.2499322, 49.9470725]]}, "properties": {"barrier": "retaining_wall", "ref:zabaged": "29882234508935168", "zabaged_typ": "zeď opěrná", "length_m": 87.5, "in_osm_8m": false}}, {"type": "Feature", "geometry": {"type": "LineString", "coordinates": [[15.2690504, 49.9477422], [15.2691888, 49.9477459]]}, "properties": {"barrier": "retaining_wall", "ref:zabaged": "29882284152717312", "zabaged_typ": "zeď opěrná", "length_m": 9.9, "in_osm_8m": true}}, {"type": "Feature", "geometry": {"type": "LineString", "coordinates": [[15.2733388, 49.9585655], [15.2731397, 49.9585167], [15.2730832, 49.9585009], [15.2730318, 49.9584829], [15.272988, 49.9584595], [15.2729634, 49.9584449], [15.2729402, 49.9584244], [15.2729269, 49.9584103], [15.2729176, 49.9583935], [15.272916, 49.9583776], [15.2729194, 49.9583568], [15.2729441, 49.9582578]]}, "properties": {"barrier": "retaining_wall", "ref:zabaged": "29882318931886080", "zabaged_typ": "zeď opěrná", "length_m": 52.3, "in_osm_8m": false}}, {"type": "Feature", "geometry": {"type": "LineString", "coordinates": [[15.3017629, 49.9377607], [15.3018054, 49.9377525], [15.301893, 49.9377591]]}, "properties": {"barrier": "retaining_wall", "ref:zabaged": "29882341245583360", "zabaged_typ": "zeď opěrná", "length_m": 9.5, "in_osm_8m": false}}, {"type": "Feature", "geometry": {"type": "LineString", "coordinates": [[15.2574969, 49.9387063], [15.2577311, 49.9388803], [15.2576732, 49.9389146]]}, "properties": {"barrier": "retaining_wall", "ref:zabaged": "29882250883497984", "zabaged_typ": "zeď opěrná", "length_m": 31.3, "in_osm_8m": false}}, {"type": "Feature", "geometry": {"type": "LineString", "coordinates": [[15.2653339, 49.9470699], [15.2653848, 49.9471102], [15.2655352, 49.9472399], [15.2657049, 49.9473863], [15.2657494, 49.9474472], [15.2657574, 49.9474723]]}, "properties": {"barrier": "retaining_wall", "ref:zabaged": "29882293665398784", "zabaged_typ": "zeď opěrná", "length_m": 54.5, "in_osm_8m": true}}, {"type": "Feature", "geometry": {"type": "LineString", "coordinates": [[15.2750236, 49.9468761], [15.2752571, 49.947142], [15.2752797, 49.9471468]]}, "properties": {"barrier": "retaining_wall", "ref:zabaged": "29882306046984192", "zabaged_typ": "zeď opěrná", "length_m": 35.7, "in_osm_8m": false}}, {"type": "Feature", "geometry": {"type": "LineString", "coordinates": [[15.2618447, 49.9547172], [15.2620293, 49.9547156], [15.2620669, 49.9547327], [15.2620823, 49.9547518], [15.2620872, 49.9547738], [15.2620947, 49.9548365]]}, "properties": {"barrier": "retaining_wall", "ref:zabaged": "29882243132424192", "zabaged_typ": "zeď opěrná", "length_m": 28.4, "in_osm_8m": false}}, {"type": "Feature", "geometry": {"type": "LineString", "coordinates": [[15.269044, 49.947791], [15.269371, 49.9478037]]}, "properties": {"barrier": "retaining_wall", "ref:zabaged": "29882285109018624", "zabaged_typ": "zeď opěrná", "length_m": 23.5, "in_osm_8m": true}}, {"type": "Feature", "geometry": {"type": "LineString", "coordinates": [[15.2623102, 49.9425625], [15.262456, 49.9425351], [15.2625328, 49.9426624], [15.2626635, 49.9428665], [15.2626858, 49.9429069], [15.2626859, 49.9429287], [15.2626844, 49.9429585], [15.2626832, 49.9429768], [15.2626548, 49.9430231]]}, "properties": {"barrier": "retaining_wall", "ref:zabaged": "29882263516741632", "zabaged_typ": "zeď opěrná", "length_m": 68.7, "in_osm_8m": false}}, {"type": "Feature", "geometry": {"type": "LineString", "coordinates": [[15.2631594, 49.946186], [15.2632919, 49.9464918], [15.263248, 49.9464981]]}, "properties": {"barrier": "retaining_wall", "ref:zabaged": "29882242293563392", "zabaged_typ": "zeď opěrná", "length_m": 38.5, "in_osm_8m": false}}, {"type": "Feature", "geometry": {"type": "LineString", "coordinates": [[15.2630281, 49.9457535], [15.2630459, 49.9457898], [15.2632161, 49.9461372]]}, "properties": {"barrier": "retaining_wall", "ref:zabaged": "29882267794931712", "zabaged_typ": "zeď opěrná", "length_m": 44.8, "in_osm_8m": true}}, {"type": "Feature", "geometry": {"type": "LineString", "coordinates": [[15.2996679, 49.9492516], [15.2991266, 49.9493344], [15.2990341, 49.9493412], [15.2989747, 49.9493413], [15.2989096, 49.9493378], [15.2988512, 49.9493297], [15.2987554, 49.9493147]]}, "properties": {"barrier": "retaining_wall", "ref:zabaged": "29882335021236224", "zabaged_typ": "zeď opěrná", "length_m": 66.9, "in_osm_8m": false}}, {"type": "Feature", "geometry": {"type": "LineString", "coordinates": [[15.2686523, 49.9476481], [15.2690383, 49.947651]]}, "properties": {"barrier": "retaining_wall", "ref:zabaged": "29882278213582848", "zabaged_typ": "zeď opěrná", "length_m": 27.7, "in_osm_8m": true}}, {"type": "Feature", "geometry": {"type": "LineString", "coordinates": [[15.268077, 49.9476789], [15.2685904, 49.9476885]]}, "properties": {"barrier": "retaining_wall", "ref:zabaged": "29882279119552512", "zabaged_typ": "zeď opěrná", "length_m": 36.9, "in_osm_8m": true}}, {"type": "Feature", "geometry": {"type": "LineString", "coordinates": [[15.2600167, 49.9303731], [15.2601969, 49.9307612], [15.2592908, 49.9309009], [15.2592047, 49.9308445], [15.2590478, 49.9305116]]}, "properties": {"barrier": "retaining_wall", "ref:zabaged": "29882371092250624", "zabaged_typ": "zeď opěrná", "length_m": 159.4, "in_osm_8m": false}}, {"type": "Feature", "geometry": {"type": "LineString", "coordinates": [[15.254184, 49.9268497], [15.2543116, 49.9267578], [15.2543363, 49.9267425], [15.2543653, 49.9267267], [15.2543908, 49.9267193], [15.2544325, 49.9267071], [15.2545171, 49.9266859], [15.2546857, 49.9266327], [15.2547839, 49.9265942]]}, "properties": {"barrier": "retaining_wall", "ref:zabaged": "29882364297478144", "zabaged_typ": "zeď opěrná", "length_m": 52.4, "in_osm_8m": false}}, {"type": "Feature", "geometry": {"type": "LineString", "coordinates": [[15.2718956, 49.9511872], [15.2719645, 49.9513074], [15.2719988, 49.9513239], [15.2720755, 49.9513525], [15.2721082, 49.9513715], [15.2720351, 49.9514076]]}, "properties": {"barrier": "retaining_wall", "ref:zabaged": "29882331682570240", "zabaged_typ": "zeď opěrná", "length_m": 33.4, "in_osm_8m": false}}, {"type": "Feature", "geometry": {"type": "LineString", "coordinates": [[15.2529459, 49.9447627], [15.2530233, 49.9447747], [15.253053, 49.9447776], [15.2530776, 49.9447763], [15.2531002, 49.94477], [15.2531129, 49.944763], [15.2531267, 49.9447521], [15.2531414, 49.9447385], [15.2531515, 49.9447202], [15.2531581, 49.944705], [15.2531649, 49.9446848]]}, "properties": {"barrier": "retaining_wall", "ref:zabaged": "29882248366915584", "zabaged_typ": "zeď opěrná", "length_m": 22.2, "in_osm_8m": false}}, {"type": "Feature", "geometry": {"type": "LineString", "coordinates": [[15.2505125, 49.9470712], [15.2505348, 49.9470522], [15.2509544, 49.9470974], [15.251273, 49.9471322], [15.2512622, 49.9471525]]}, "properties": {"barrier": "retaining_wall", "ref:zabaged": "29882229425438720", "zabaged_typ": "zeď opěrná", "length_m": 58.8, "in_osm_8m": false}}, {"type": "Feature", "geometry": {"type": "LineString", "coordinates": [[15.2528511, 49.9473173], [15.2528559, 49.947297], [15.2530996, 49.9473236]]}, "properties": {"barrier": "retaining_wall", "ref:zabaged": "29882236387983360", "zabaged_typ": "zeď opěrná", "length_m": 20.0, "in_osm_8m": false}}, {"type": "Feature", "geometry": {"type": "LineString", "coordinates": [[15.2623042, 49.9452423], [15.2625462, 49.9453281], [15.2626172, 49.9453377], [15.2630337, 49.9453274], [15.2630595, 49.9452636]]}, "properties": {"barrier": "retaining_wall", "ref:zabaged": "29882266133987328", "zabaged_typ": "zeď opěrná", "length_m": 62.3, "in_osm_8m": false}}, {"type": "Feature", "geometry": {"type": "LineString", "coordinates": [[15.2680968, 49.9477203], [15.2684416, 49.947729]]}, "properties": {"barrier": "retaining_wall", "ref:zabaged": "29882282491772928", "zabaged_typ": "zeď opěrná", "length_m": 24.8, "in_osm_8m": true}}, {"type": "Feature", "geometry": {"type": "LineString", "coordinates": [[15.2502235, 49.9279102], [15.2503111, 49.9279422], [15.2503177, 49.9279355], [15.2503448, 49.9279488], [15.2504397, 49.9280095], [15.2505979, 49.9281413], [15.2506263, 49.9281538], [15.2506748, 49.9281673], [15.2506956, 49.9281682]]}, "properties": {"barrier": "retaining_wall", "ref:zabaged": "29936246826467328", "zabaged_typ": "zeď opěrná", "length_m": 46.4, "in_osm_8m": false}}, {"type": "Feature", "geometry": {"type": "LineString", "coordinates": [[15.2486562, 49.9276461], [15.2487623, 49.927565], [15.2487875, 49.9275535], [15.2488219, 49.9275508], [15.2488711, 49.9275587], [15.2490494, 49.9275847], [15.2492597, 49.9276085], [15.2493458, 49.9276197], [15.249515, 49.927663], [15.2497108, 49.9277217], [15.2496968, 49.9277425]]}, "properties": {"barrier": "retaining_wall", "ref:zabaged": "29936246725804032", "zabaged_typ": "zeď opěrná", "length_m": 86.0, "in_osm_8m": false}}, {"type": "Feature", "geometry": {"type": "LineString", "coordinates": [[15.2746275, 49.9608445], [15.2745721, 49.9608448], [15.2745839, 49.960923], [15.2747155, 49.9609247]]}, "properties": {"barrier": "retaining_wall", "ref:zabaged": "29882322354438144", "zabaged_typ": "zeď opěrná", "length_m": 22.2, "in_osm_8m": false}}, {"type": "Feature", "geometry": {"type": "LineString", "coordinates": [[15.2770056, 49.9487269], [15.2767268, 49.9485985], [15.2765592, 49.9485295], [15.2764174, 49.9484426], [15.2761768, 49.9482411], [15.2761477, 49.9482271]]}, "properties": {"barrier": "retaining_wall", "ref:zabaged": "29882309469536256", "zabaged_typ": "zeď opěrná", "length_m": 83.8, "in_osm_8m": false}}, {"type": "Feature", "geometry": {"type": "LineString", "coordinates": [[15.2510749, 49.9444747], [15.2510996, 49.9443066], [15.2511052, 49.9442953], [15.2511179, 49.9442874], [15.2511426, 49.9442795], [15.2511544, 49.9442789], [15.2511837, 49.944281], [15.2518887, 49.9443254], [15.2521787, 49.9443488], [15.2521812, 49.9443508], [15.2521848, 49.9443605], [15.2521888, 49.9443729], [15.2521933, 49.944416], [15.2521782, 49.944562]]}, "properties": {"barrier": "retaining_wall", "ref:zabaged": "29882246454312960", "zabaged_typ": "zeď opěrná", "length_m": 122.0, "in_osm_8m": false}}, {"type": "Feature", "geometry": {"type": "LineString", "coordinates": [[15.2691258, 49.947651], [15.2693705, 49.9476582]]}, "properties": {"barrier": "retaining_wall", "ref:zabaged": "29882281636134912", "zabaged_typ": "zeď opěrná", "length_m": 17.6, "in_osm_8m": true}}, {"type": "Feature", "geometry": {"type": "LineString", "coordinates": [[15.2512847, 49.9471591], [15.2512947, 49.9471329], [15.2516303, 49.9471684], [15.251626, 49.9471857]]}, "properties": {"barrier": "retaining_wall", "ref:zabaged": "29882230281076736", "zabaged_typ": "zeď opěrná", "length_m": 29.4, "in_osm_8m": false}}, {"type": "Feature", "geometry": {"type": "LineString", "coordinates": [[15.2656444, 49.9453472], [15.2657296, 49.9456369], [15.2657603, 49.9457964], [15.2657935, 49.9459692], [15.2658221, 49.9460746], [15.2659067, 49.9463462]]}, "properties": {"barrier": "retaining_wall", "ref:zabaged": "29882352318545920", "zabaged_typ": "zeď opěrná", "length_m": 112.7, "in_osm_8m": false}}, {"type": "Feature", "geometry": {"type": "LineString", "coordinates": [[15.3015425, 49.9376604], [15.3014784, 49.9376697], [15.3014544, 49.9376777]]}, "properties": {"barrier": "retaining_wall", "ref:zabaged": "29882343258849280", "zabaged_typ": "zeď opěrná", "length_m": 6.7, "in_osm_8m": false}}, {"type": "Feature", "geometry": {"type": "LineString", "coordinates": [[15.2684769, 49.9477313], [15.2690106, 49.9477409]]}, "properties": {"barrier": "retaining_wall", "ref:zabaged": "29882283347410944", "zabaged_typ": "zeď opěrná", "length_m": 38.3, "in_osm_8m": true}}, {"type": "Feature", "geometry": {"type": "LineString", "coordinates": [[15.2680619, 49.9476424], [15.2685992, 49.947648]]}, "properties": {"barrier": "retaining_wall", "ref:zabaged": "29882277408276480", "zabaged_typ": "zeď opěrná", "length_m": 38.6, "in_osm_8m": true}}, {"type": "Feature", "geometry": {"type": "LineString", "coordinates": [[15.2630372, 49.9519647], [15.2629106, 49.9520373], [15.2627923, 49.9519676], [15.26271, 49.9519644]]}, "properties": {"barrier": "retaining_wall", "ref:zabaged": "29882291148816384", "zabaged_typ": "zeď opěrná", "length_m": 29.6, "in_osm_8m": true}}, {"type": "Feature", "geometry": {"type": "LineString", "coordinates": [[15.2676172, 49.9478926], [15.2677419, 49.9478492], [15.2679164, 49.947822], [15.2680653, 49.9478115], [15.2680582, 49.9477957], [15.2681548, 49.9477809], [15.2681626, 49.9478039], [15.2685996, 49.9478216]]}, "properties": {"barrier": "retaining_wall", "ref:zabaged": "29882287524937728", "zabaged_typ": "zeď opěrná", "length_m": 76.8, "in_osm_8m": true}}, {"type": "Feature", "geometry": {"type": "LineString", "coordinates": [[15.2660251, 49.9474534], [15.2663513, 49.9475403], [15.2664602, 49.9474665], [15.2667494, 49.9475705], [15.2667013, 49.9476337]]}, "properties": {"barrier": "retaining_wall", "ref:zabaged": "29882298950221824", "zabaged_typ": "zeď opěrná", "length_m": 68.3, "in_osm_8m": false}}, {"type": "Feature", "geometry": {"type": "LineString", "coordinates": [[15.2871043, 49.9518886], [15.2867566, 49.951646], [15.2863015, 49.9513288]]}, "properties": {"barrier": "retaining_wall", "ref:zabaged": "29882312892088320", "zabaged_typ": "zeď opěrná", "length_m": 84.8, "in_osm_8m": false}}, {"type": "Feature", "geometry": {"type": "LineString", "coordinates": [[15.2600273, 49.9404735], [15.2602562, 49.9402693], [15.2602777, 49.9402695], [15.2603438, 49.9402802], [15.260423, 49.9403086], [15.2604966, 49.9403554], [15.2605164, 49.9403745], [15.2605591, 49.940444], [15.2605644, 49.9404772]]}, "properties": {"barrier": "retaining_wall", "ref:zabaged": "29882259288883200", "zabaged_typ": "zeď opěrná", "length_m": 63.0, "in_osm_8m": false}}, {"type": "Feature", "geometry": {"type": "LineString", "coordinates": [[15.2687197, 49.9475491], [15.2688055, 49.9475502], [15.2692459, 49.9475548]]}, "properties": {"barrier": "retaining_wall", "ref:zabaged": "29882338678669312", "zabaged_typ": "zeď opěrná", "length_m": 37.8, "in_osm_8m": true}}, {"type": "Feature", "geometry": {"type": "LineString", "coordinates": [[15.26159, 49.9395194], [15.2620312, 49.9395184], [15.2620618, 49.9396032], [15.2621279, 49.939659]]}, "properties": {"barrier": "retaining_wall", "ref:zabaged": "29882260094189568", "zabaged_typ": "zeď opěrná", "length_m": 49.2, "in_osm_8m": false}}, {"type": "Feature", "geometry": {"type": "LineString", "coordinates": [[15.2723746, 49.94593], [15.2726768, 49.9459311], [15.2730653, 49.9459553], [15.2735682, 49.9460111], [15.2737854, 49.9460453], [15.2738217, 49.9460544]]}, "properties": {"barrier": "retaining_wall", "ref:zabaged": "29882314603364352", "zabaged_typ": "zeď opěrná", "length_m": 105.2, "in_osm_8m": false}}, {"type": "Feature", "geometry": {"type": "LineString", "coordinates": [[15.2589311, 49.9416155], [15.2589806, 49.9416123], [15.2591237, 49.941603], [15.2591757, 49.9415964], [15.2593285, 49.9415951]]}, "properties": {"barrier": "retaining_wall", "ref:zabaged": "29882268851896320", "zabaged_typ": "zeď opěrná", "length_m": 28.7, "in_osm_8m": false}}, {"type": "Feature", "geometry": {"type": "LineString", "coordinates": [[15.251647, 49.9471901], [15.2516538, 49.9471692], [15.2519325, 49.9471997], [15.2519296, 49.9472205]]}, "properties": {"barrier": "retaining_wall", "ref:zabaged": "29882231187046400", "zabaged_typ": "zeď opěrná", "length_m": 25.0, "in_osm_8m": false}}, {"type": "Feature", "geometry": {"type": "LineString", "coordinates": [[15.2621196, 49.942943], [15.2622053, 49.9429549], [15.2621355, 49.9431521], [15.2620918, 49.9432827], [15.2619898, 49.9434222]]}, "properties": {"barrier": "retaining_wall", "ref:zabaged": "29882266989625344", "zabaged_typ": "zeď opěrná", "length_m": 60.8, "in_osm_8m": false}}, {"type": "Feature", "geometry": {"type": "LineString", "coordinates": [[15.2663705, 49.9474163], [15.2663828, 49.9474004], [15.2663982, 49.9474009], [15.2664174, 49.9474032], [15.2665345, 49.9474255], [15.2667181, 49.9474793]]}, "properties": {"barrier": "retaining_wall", "ref:zabaged": "29882295427006464", "zabaged_typ": "zeď opěrná", "length_m": 27.7, "in_osm_8m": false}}, {"type": "Feature", "geometry": {"type": "LineString", "coordinates": [[15.2619922, 49.9493139], [15.2620363, 49.9495116]]}, "properties": {"barrier": "retaining_wall", "ref:zabaged": "29882241471479808", "zabaged_typ": "zeď opěrná", "length_m": 22.2, "in_osm_8m": false}}, {"type": "Feature", "geometry": {"type": "LineString", "coordinates": [[15.2703439, 49.9461734], [15.2707192, 49.9461109], [15.2712468, 49.9460169], [15.2715503, 49.9459652], [15.271837, 49.9459197], [15.2719704, 49.9459261], [15.2721621, 49.9459365]]}, "properties": {"barrier": "retaining_wall", "ref:zabaged": "29882327052058624", "zabaged_typ": "zeď opěrná", "length_m": 134.2, "in_osm_8m": true}}, {"type": "Feature", "geometry": {"type": "LineString", "coordinates": [[15.2542927, 49.9501956], [15.2543188, 49.9501809], [15.2548297, 49.9503955], [15.2548002, 49.9504307]]}, "properties": {"barrier": "retaining_wall", "ref:zabaged": "29882233703628800", "zabaged_typ": "zeď opěrná", "length_m": 50.7, "in_osm_8m": false}}, {"type": "Feature", "geometry": {"type": "LineString", "coordinates": [[15.2893691, 49.9597644], [15.2893542, 49.9598022], [15.2895392, 49.959956], [15.2898621, 49.9599848]]}, "properties": {"barrier": "retaining_wall", "ref:zabaged": "29882302523768832", "zabaged_typ": "zeď opěrná", "length_m": 49.4, "in_osm_8m": false}}, {"type": "Feature", "geometry": {"type": "LineString", "coordinates": [[15.2875778, 49.9461503], [15.2875189, 49.946196], [15.2875031, 49.9462156], [15.2874861, 49.9462346], [15.2874639, 49.946569]]}, "properties": {"barrier": "retaining_wall", "ref:zabaged": "29882313747726336", "zabaged_typ": "zeď opěrná", "length_m": 48.7, "in_osm_8m": false}}, {"type": "Feature", "geometry": {"type": "LineString", "coordinates": [[15.2684749, 49.947772], [15.2690121, 49.9477883]]}, "properties": {"barrier": "retaining_wall", "ref:zabaged": "29882285914324992", "zabaged_typ": "zeď opěrná", "length_m": 38.6, "in_osm_8m": true}}, {"type": "Feature", "geometry": {"type": "LineString", "coordinates": [[15.2681617, 49.9475697], [15.2681617, 49.947542], [15.2685185, 49.9475465]]}, "properties": {"barrier": "retaining_wall", "ref:zabaged": "29882339534307328", "zabaged_typ": "zeď opěrná", "length_m": 28.7, "in_osm_8m": true}}, {"type": "Feature", "geometry": {"type": "LineString", "coordinates": [[15.2630227, 49.9455179], [15.2630965, 49.945334], [15.2631932, 49.9453469], [15.2634037, 49.9454615], [15.2634836, 49.9456549], [15.2629594, 49.9457491]]}, "properties": {"barrier": "retaining_wall", "ref:zabaged": "29882252645105664", "zabaged_typ": "zeď opěrná", "length_m": 109.3, "in_osm_8m": true}}, {"type": "Feature", "geometry": {"type": "LineString", "coordinates": [[15.2562976, 49.9280847], [15.2560851, 49.9282073], [15.2555349, 49.9278039], [15.2558181, 49.9276427]]}, "properties": {"barrier": "retaining_wall", "ref:zabaged": "29882369984954368", "zabaged_typ": "zeď opěrná", "length_m": 107.3, "in_osm_8m": false}}, {"type": "Feature", "geometry": {"type": "LineString", "coordinates": [[15.3016975, 49.9376435], [15.3016458, 49.9376491], [15.3016126, 49.9376504]]}, "properties": {"barrier": "retaining_wall", "ref:zabaged": "29882344366145536", "zabaged_typ": "zeď opěrná", "length_m": 6.2, "in_osm_8m": false}}, {"type": "Feature", "geometry": {"type": "LineString", "coordinates": [[15.268645, 49.9476875], [15.268889, 49.947694]]}, "properties": {"barrier": "retaining_wall", "ref:zabaged": "29882279924858880", "zabaged_typ": "zeď opěrná", "length_m": 17.5, "in_osm_8m": true}}, {"type": "Feature", "geometry": {"type": "LineString", "coordinates": [[15.2717654, 49.9508131], [15.2717936, 49.9509208], [15.2718538, 49.9511476], [15.2718242, 49.9511542]]}, "properties": {"barrier": "retaining_wall", "ref:zabaged": "29882315459002368", "zabaged_typ": "zeď opěrná", "length_m": 40.0, "in_osm_8m": false}}, {"type": "Feature", "geometry": {"type": "LineString", "coordinates": [[15.2622469, 49.9449365], [15.2622319, 49.945182], [15.2621995, 49.9454463]]}, "properties": {"barrier": "retaining_wall", "ref:zabaged": "29882253500743680", "zabaged_typ": "zeď opěrná", "length_m": 56.8, "in_osm_8m": true}}, {"type": "Feature", "geometry": {"type": "LineString", "coordinates": [[15.2748267, 49.945442], [15.2749959, 49.9458185], [15.2750129, 49.9458564]]}, "properties": {"barrier": "retaining_wall", "ref:zabaged": "29882347990024192", "zabaged_typ": "zeď opěrná", "length_m": 48.0, "in_osm_8m": false}}, {"type": "Feature", "geometry": {"type": "LineString", "coordinates": [[15.251954, 49.9472244], [15.2519611, 49.9472029], [15.2521818, 49.9472286], [15.2521865, 49.9472453]]}, "properties": {"barrier": "retaining_wall", "ref:zabaged": "29882232042684416", "zabaged_typ": "zeď opěrná", "length_m": 20.4, "in_osm_8m": false}}, {"type": "Feature", "geometry": {"type": "LineString", "coordinates": [[15.2510266, 49.9445948], [15.2513022, 49.9446109], [15.2519386, 49.9446494], [15.2521378, 49.9446684], [15.252146, 49.9446695], [15.2521597, 49.9446741], [15.2521575, 49.9447598]]}, "properties": {"barrier": "retaining_wall", "ref:zabaged": "29882249222553600", "zabaged_typ": "zeď opěrná", "length_m": 91.4, "in_osm_8m": false}}, {"type": "Feature", "geometry": {"type": "LineString", "coordinates": [[15.246958, 49.9492051], [15.2469283, 49.9492397], [15.2468554, 49.9492138], [15.2467014, 49.9493748]]}, "properties": {"barrier": "retaining_wall", "ref:zabaged": "29882235414904832", "zabaged_typ": "zeď opěrná", "length_m": 31.4, "in_osm_8m": false}}, {"type": "Feature", "geometry": {"type": "LineString", "coordinates": [[15.265922, 49.9464325], [15.2659505, 49.9465861]]}, "properties": {"barrier": "retaining_wall", "ref:zabaged": "29882271469142016", "zabaged_typ": "zeď opěrná", "length_m": 17.2, "in_osm_8m": false}}, {"type": "Feature", "geometry": {"type": "LineString", "coordinates": [[15.2615129, 49.9525817], [15.2616839, 49.9527879], [15.2616863, 49.9527996], [15.2616815, 49.9528133], [15.2616452, 49.9528898]]}, "properties": {"barrier": "retaining_wall", "ref:zabaged": "29882244038393856", "zabaged_typ": "zeď opěrná", "length_m": 37.8, "in_osm_8m": false}}, {"type": "Feature", "geometry": {"type": "LineString", "coordinates": [[15.2580419, 49.9390383], [15.2581516, 49.9391472], [15.2582221, 49.9392987], [15.2583092, 49.9395084]]}, "properties": {"barrier": "retaining_wall", "ref:zabaged": "29882251789467648", "zabaged_typ": "zeď opěrná", "length_m": 56.2, "in_osm_8m": false}}, {"type": "Feature", "geometry": {"type": "LineString", "coordinates": [[15.2497373, 49.9276918], [15.2497829, 49.9277085], [15.249815, 49.9277209], [15.2498196, 49.9277227], [15.2499246, 49.9277574], [15.2500357, 49.9278038], [15.2502123, 49.92787], [15.2503098, 49.9278892], [15.2503546, 49.9279031]]}, "properties": {"barrier": "retaining_wall", "ref:zabaged": "29936274273992704", "zabaged_typ": "zeď opěrná", "length_m": 50.4, "in_osm_8m": false}}, {"type": "Feature", "geometry": {"type": "LineString", "coordinates": [[15.2626876, 49.9430452], [15.2627104, 49.9430596], [15.2627234, 49.9430718], [15.2627421, 49.9430931], [15.2627485, 49.9431116], [15.2627476, 49.9431275], [15.2627429, 49.9431416], [15.2627302, 49.943157], [15.2627053, 49.9431809], [15.2625781, 49.9432787], [15.262559, 49.9433037], [15.262553, 49.9433304], [15.2625518, 49.943364], [15.2625724, 49.9434289], [15.2626103, 49.9435053]]}, "properties": {"barrier": "retaining_wall", "ref:zabaged": "29882256822632448", "zabaged_typ": "zeď opěrná", "length_m": 57.6, "in_osm_8m": false}}, {"type": "Feature", "geometry": {"type": "LineString", "coordinates": [[15.2492421, 49.9278824], [15.2493319, 49.9278173], [15.2493989, 49.9278513]]}, "properties": {"barrier": "retaining_wall", "ref:zabaged": "29936246776135680", "zabaged_typ": "zeď opěrná", "length_m": 15.8, "in_osm_8m": true}}, {"type": "Feature", "geometry": {"type": "LineString", "coordinates": [[15.2661008, 49.9585388], [15.2661219, 49.9585091], [15.2664044, 49.9583727], [15.2665248, 49.9582598], [15.2665721, 49.9582137], [15.2666229, 49.9581724]]}, "properties": {"barrier": "retaining_wall", "ref:zabaged": "29882289336877056", "zabaged_typ": "zeď opěrná", "length_m": 56.2, "in_osm_8m": false}}, {"type": "Feature", "geometry": {"type": "LineString", "coordinates": [[15.2735234, 49.9598117], [15.2735342, 49.9598384], [15.2735113, 49.9599718], [15.273525, 49.9600924], [15.2735341, 49.9601336]]}, "properties": {"barrier": "retaining_wall", "ref:zabaged": "29882320643162112", "zabaged_typ": "zeď opěrná", "length_m": 36.1, "in_osm_8m": false}}, {"type": "Feature", "geometry": {"type": "LineString", "coordinates": [[15.2502815, 49.9281369], [15.2504225, 49.9281991], [15.2504974, 49.9282405], [15.2505672, 49.9282926], [15.250613, 49.9283342], [15.2506886, 49.9284185], [15.2506523, 49.9284306], [15.2506202, 49.9284408], [15.2506068, 49.9285105], [15.250597, 49.928531], [15.2505743, 49.9285579], [15.2505241, 49.928614], [15.2505123, 49.9286349], [15.2505115, 49.928659], [15.2505132, 49.9287034], [15.2505141, 49.9289069], [15.2505235, 49.9289991], [15.2505403, 49.9290525], [15.2506045, 49.9291809], [15.2506746, 49.9292701], [15.2508099, 49.9294151], [15.2508681, 49.9294662], [15.250921, 49.929506], [15.2510025, 49.9295601], [15.2511123, 49.9296296], [15.2511971, 49.9296781], [15.2512717, 49.929704], [15.2513347, 49.9297144], [15.2515007, 49.929728]]}, "properties": {"barrier": "retaining_wall", "ref:zabaged": "29882368877658112", "zabaged_typ": "zeď opěrná", "length_m": 227.1, "in_osm_8m": true}}, {"type": "Feature", "geometry": {"type": "LineString", "coordinates": [[15.2654279, 49.9470986], [15.265624, 49.9472547], [15.2657748, 49.9473837], [15.2657894, 49.9474071], [15.265788, 49.9474307], [15.2657941, 49.9474421], [15.265825, 49.9474378], [15.2658414, 49.9475958], [15.2661185, 49.9476734], [15.2661309, 49.9476672]]}, "properties": {"barrier": "retaining_wall", "ref:zabaged": "29882298094583808", "zabaged_typ": "zeď opěrná", "length_m": 89.8, "in_osm_8m": true}}, {"type": "Feature", "geometry": {"type": "LineString", "coordinates": [[15.2672944, 49.9480955], [15.2673073, 49.948095], [15.2674196, 49.9480165], [15.2674274, 49.9480227], [15.2675718, 49.9479438]]}, "properties": {"barrier": "retaining_wall", "ref:zabaged": "30669665306935296", "zabaged_typ": "zeď opěrná", "length_m": 27.3, "in_osm_8m": true}}, {"type": "Feature", "geometry": {"type": "LineString", "coordinates": [[15.2677501, 49.9475501], [15.2678395, 49.947522], [15.2679311, 49.9474809], [15.2686075, 49.9474876], [15.2686073, 49.9474994]]}, "properties": {"barrier": "retaining_wall", "ref:zabaged": "30669644234752000", "zabaged_typ": "zeď opěrná", "length_m": 65.0, "in_osm_8m": true}}, {"type": "Feature", "geometry": {"type": "LineString", "coordinates": [[15.2674617, 49.9477001], [15.2674694, 49.9476799], [15.2675182, 49.9476357], [15.2677246, 49.9475613]]}, "properties": {"barrier": "retaining_wall", "ref:zabaged": "30669644184420352", "zabaged_typ": "zeď opěrná", "length_m": 25.3, "in_osm_8m": true}}, {"type": "Feature", "geometry": {"type": "LineString", "coordinates": [[15.2621669, 49.9434321], [15.2621378, 49.9434172], [15.261929, 49.9436977], [15.2619052, 49.9437408]]}, "properties": {"barrier": "retaining_wall", "ref:zabaged": "30419035124400128", "zabaged_typ": "zeď opěrná", "length_m": 42.4, "in_osm_8m": false}}, {"type": "Feature", "geometry": {"type": "LineString", "coordinates": [[15.267309, 49.9478036], [15.2673663, 49.9477832], [15.2674312, 49.9477735], [15.2675145, 49.9477288], [15.2676346, 49.9476469], [15.2678048, 49.9475638], [15.2679876, 49.9475169], [15.2680075, 49.9475665]]}, "properties": {"barrier": "retaining_wall", "ref:zabaged": "30669665491484672", "zabaged_typ": "zeď opěrná", "length_m": 64.9, "in_osm_8m": true}}, {"type": "Feature", "geometry": {"type": "LineString", "coordinates": [[15.2671076, 49.9478629], [15.2671447, 49.9478258], [15.2672028, 49.9477991], [15.2673233, 49.9479176], [15.2675188, 49.9478903], [15.2675129, 49.9479121]]}, "properties": {"barrier": "retaining_wall", "ref:zabaged": "30669644134088704", "zabaged_typ": "zeď opěrná", "length_m": 42.6, "in_osm_8m": true}}, {"type": "Feature", "geometry": {"type": "LineString", "coordinates": [[15.2684155, 49.9469707], [15.2688708, 49.9468409], [15.2689212, 49.946814], [15.2689866, 49.946798]]}, "properties": {"barrier": "retaining_wall", "ref:zabaged": "30375850503307264", "zabaged_typ": "zeď opěrná", "length_m": 45.4, "in_osm_8m": false}}, {"type": "Feature", "geometry": {"type": "LineString", "coordinates": [[15.2676226, 49.9471584], [15.2677406, 49.9471474]]}, "properties": {"barrier": "retaining_wall", "ref:zabaged": "30669659971780608", "zabaged_typ": "zeď opěrná", "length_m": 8.6, "in_osm_8m": false}}, {"type": "Feature", "geometry": {"type": "LineString", "coordinates": [[15.2686741, 49.9466579], [15.2686594, 49.9467075]]}, "properties": {"barrier": "retaining_wall", "ref:zabaged": "30669644385746944", "zabaged_typ": "zeď opěrná", "length_m": 5.6, "in_osm_8m": false}}, {"type": "Feature", "geometry": {"type": "LineString", "coordinates": [[15.2686197, 49.9467507], [15.2685852, 49.9467618], [15.2685204, 49.9467821], [15.2684964, 49.9467953]]}, "properties": {"barrier": "retaining_wall", "ref:zabaged": "30669644335415296", "zabaged_typ": "zeď opěrná", "length_m": 10.2, "in_osm_8m": false}}, {"type": "Feature", "geometry": {"type": "LineString", "coordinates": [[15.2632407, 49.9452904], [15.2634982, 49.9454328], [15.2635495, 49.9455758], [15.2635931, 49.9456874], [15.2631492, 49.9457689]]}, "properties": {"barrier": "retaining_wall", "ref:zabaged": "30419018330406912", "zabaged_typ": "zeď opěrná", "length_m": 86.6, "in_osm_8m": true}}, {"type": "Feature", "geometry": {"type": "LineString", "coordinates": [[15.2694642, 49.9481944], [15.2694659, 49.9479792], [15.2695181, 49.9473338], [15.2695401, 49.9473239], [15.2697328, 49.9473353]]}, "properties": {"barrier": "retaining_wall", "ref:zabaged": "30375852063588352", "zabaged_typ": "zeď opěrná", "length_m": 111.6, "in_osm_8m": true}}, {"type": "Feature", "geometry": {"type": "LineString", "coordinates": [[15.2686584, 49.9475025], [15.2686603, 49.9474873], [15.2692434, 49.9474989]]}, "properties": {"barrier": "retaining_wall", "ref:zabaged": "30669644285083648", "zabaged_typ": "zeď opěrná", "length_m": 43.6, "in_osm_8m": true}}, {"type": "Feature", "geometry": {"type": "LineString", "coordinates": [[15.2612851, 49.953951], [15.2615607, 49.9539701], [15.2619035, 49.9540062], [15.261904, 49.954365]]}, "properties": {"barrier": "retaining_wall", "ref:zabaged": "29882237193289728", "zabaged_typ": "zeď opěrná", "length_m": 84.7, "in_osm_8m": true}}, {"type": "Feature", "geometry": {"type": "LineString", "coordinates": [[15.2632569, 49.9465311], [15.2633048, 49.9465236], [15.2633181, 49.9465434], [15.2633306, 49.9465495], [15.2633488, 49.9465549], [15.2633708, 49.9465557], [15.2633992, 49.9465494], [15.2634241, 49.9465455], [15.2635249, 49.9467648], [15.2634624, 49.9467788]]}, "properties": {"barrier": "retaining_wall", "ref:zabaged": "29882238048927744", "zabaged_typ": "zeď opěrná", "length_m": 44.3, "in_osm_8m": false}}, {"type": "Feature", "geometry": {"type": "LineString", "coordinates": [[15.2622869, 49.9474175], [15.2622253, 49.9475055], [15.2622259, 49.9475398], [15.2621491, 49.9476274], [15.2621268, 49.9476445], [15.2621003, 49.9476398], [15.2618807, 49.9478937]]}, "properties": {"barrier": "retaining_wall", "ref:zabaged": "29882238854234112", "zabaged_typ": "zeď opěrná", "length_m": 62.5, "in_osm_8m": false}}, {"type": "Feature", "geometry": {"type": "LineString", "coordinates": [[15.2523165, 49.9446292], [15.2522884, 49.9446024], [15.2523164, 49.9443882], [15.252323, 49.9443684], [15.2523347, 49.9443615], [15.2523547, 49.9443595], [15.2523986, 49.9443658], [15.2530925, 49.9444705], [15.2531012, 49.9444752], [15.2531056, 49.9444824], [15.2531072, 49.9444927], [15.2530916, 49.9446481]]}, "properties": {"barrier": "retaining_wall", "ref:zabaged": "29882247410614272", "zabaged_typ": "zeď opěrná", "length_m": 106.9, "in_osm_8m": false}}, {"type": "Feature", "geometry": {"type": "LineString", "coordinates": [[15.2578675, 49.9389371], [15.2579174, 49.9389616], [15.2579578, 49.9389817], [15.2579753, 49.9390348], [15.2579619, 49.9390392], [15.257973, 49.9391195]]}, "properties": {"barrier": "retaining_wall", "ref:zabaged": "29882250078191616", "zabaged_typ": "zeď opěrná", "length_m": 24.3, "in_osm_8m": false}}, {"type": "Feature", "geometry": {"type": "LineString", "coordinates": [[15.2636669, 49.9432561], [15.2637613, 49.9434191], [15.2637343, 49.9434267], [15.2637899, 49.9435945], [15.2638451, 49.9438173], [15.2638966, 49.9438921], [15.2639538, 49.9440097], [15.2639451, 49.9440549], [15.2639511, 49.9440984], [15.263991, 49.9441325], [15.2640199, 49.9441626]]}, "properties": {"barrier": "retaining_wall", "ref:zabaged": "29882255212019712", "zabaged_typ": "zeď opěrná", "length_m": 107.1, "in_osm_8m": false}}, {"type": "Feature", "geometry": {"type": "LineString", "coordinates": [[15.2616672, 49.9420783], [15.2619533, 49.9422897], [15.2621318, 49.9424242], [15.2622673, 49.9425485], [15.2623103, 49.9426035], [15.2623401, 49.9426509], [15.262356, 49.9426784], [15.2623775, 49.94275], [15.2623757, 49.9428214]]}, "properties": {"barrier": "retaining_wall", "ref:zabaged": "29882256017326080", "zabaged_typ": "zeď opěrná", "length_m": 99.7, "in_osm_8m": false}}, {"type": "Feature", "geometry": {"type": "LineString", "coordinates": [[15.261456, 49.9440913], [15.2614507, 49.9440677], [15.2616992, 49.9440503], [15.2618125, 49.9443411], [15.2619025, 49.9445516], [15.2619658, 49.9447922], [15.2619194, 49.9447942]]}, "properties": {"barrier": "retaining_wall", "ref:zabaged": "29882261000159232", "zabaged_typ": "zeď opěrná", "length_m": 108.7, "in_osm_8m": false}}, {"type": "Feature", "geometry": {"type": "LineString", "coordinates": [[15.2618755, 49.9438899], [15.261927, 49.944186]]}, "properties": {"barrier": "retaining_wall", "ref:zabaged": "29882261855797248", "zabaged_typ": "zeď opěrná", "length_m": 33.1, "in_osm_8m": false}}, {"type": "Feature", "geometry": {"type": "LineString", "coordinates": [[15.2619299, 49.9448694], [15.2619811, 49.944869], [15.2620312, 49.9451277]]}, "properties": {"barrier": "retaining_wall", "ref:zabaged": "29882264473042944", "zabaged_typ": "zeď opěrná", "length_m": 32.7, "in_osm_8m": false}}, {"type": "Feature", "geometry": {"type": "LineString", "coordinates": [[15.2655559, 49.9548347], [15.2655426, 49.9549187], [15.2654777, 49.9550675], [15.2653892, 49.9553276], [15.2652857, 49.9555874], [15.2650685, 49.9559996]]}, "properties": {"barrier": "retaining_wall", "ref:zabaged": "29882269858529280", "zabaged_typ": "zeď opěrná", "length_m": 134.5, "in_osm_8m": false}}, {"type": "Feature", "geometry": {"type": "LineString", "coordinates": [[15.2661419, 49.9470041], [15.2662485, 49.9470622], [15.2665324, 49.9471586], [15.2668577, 49.9472082], [15.2668946, 49.9472058], [15.2672944, 49.9471982], [15.2674716, 49.9471756]]}, "properties": {"barrier": "retaining_wall", "ref:zabaged": "29882272324780032", "zabaged_typ": "zeď opěrná", "length_m": 101.4, "in_osm_8m": false}}, {"type": "Feature", "geometry": {"type": "LineString", "coordinates": [[15.269229, 49.946819], [15.2692116, 49.9468578], [15.2691689, 49.9468685], [15.2692016, 49.9469408], [15.269205, 49.9469482], [15.2692598, 49.9469255]]}, "properties": {"barrier": "retaining_wall", "ref:zabaged": "29882274036056064", "zabaged_typ": "zeď opěrná", "length_m": 21.7, "in_osm_8m": false}}, {"type": "Feature", "geometry": {"type": "LineString", "coordinates": [[15.2692417, 49.9467816], [15.2694133, 49.9466608], [15.2696947, 49.9465063], [15.2699233, 49.9465981], [15.2700614, 49.9466125]]}, "properties": {"barrier": "retaining_wall", "ref:zabaged": "29882274891694080", "zabaged_typ": "zeď opěrná", "length_m": 74.1, "in_osm_8m": false}}, {"type": "Feature", "geometry": {"type": "LineString", "coordinates": [[15.2699486, 49.946179], [15.2697053, 49.9462989], [15.2692453, 49.9465384], [15.2689741, 49.9466686]]}, "properties": {"barrier": "retaining_wall", "ref:zabaged": "29882275797663744", "zabaged_typ": "zeď opěrná", "length_m": 88.6, "in_osm_8m": false}}, {"type": "Feature", "geometry": {"type": "LineString", "coordinates": [[15.2694687, 49.9483316], [15.2694636, 49.9482271]]}, "properties": {"barrier": "retaining_wall", "ref:zabaged": "29882276653301760", "zabaged_typ": "zeď opěrná", "length_m": 11.6, "in_osm_8m": true}}, {"type": "Feature", "geometry": {"type": "LineString", "coordinates": [[15.2686426, 49.9478231], [15.2693029, 49.9478443], [15.2693042, 49.9478358], [15.2693832, 49.9478399], [15.2693731, 49.9482573]]}, "properties": {"barrier": "retaining_wall", "ref:zabaged": "29882288430907392", "zabaged_typ": "zeď opěrná", "length_m": 100.5, "in_osm_8m": true}}, {"type": "Feature", "geometry": {"type": "LineString", "coordinates": [[15.2653333, 49.9464243], [15.2653144, 49.9464861], [15.2653122, 49.9465398], [15.265327, 49.9466156], [15.2654208, 49.9469084], [15.265451, 49.9469801]]}, "properties": {"barrier": "retaining_wall", "ref:zabaged": "29882292004454400", "zabaged_typ": "zeď opěrná", "length_m": 63.0, "in_osm_8m": false}}, {"type": "Feature", "geometry": {"type": "LineString", "coordinates": [[15.2661674, 49.9479049], [15.266299, 49.9478218], [15.2663922, 49.9478209], [15.2664591, 49.9478425], [15.2668088, 49.9479915], [15.2668337, 49.9480012], [15.2668577, 49.9480387], [15.2668466, 49.9480407]]}, "properties": {"barrier": "retaining_wall", "ref:zabaged": "29882296282644480", "zabaged_typ": "zeď opěrná", "length_m": 62.8, "in_osm_8m": true}}, {"type": "Feature", "geometry": {"type": "LineString", "coordinates": [[15.2667634, 49.9479022], [15.2665904, 49.9478047]]}, "properties": {"barrier": "retaining_wall", "ref:zabaged": "29882297188614144", "zabaged_typ": "zeď opěrná", "length_m": 16.5, "in_osm_8m": true}}, {"type": "Feature", "geometry": {"type": "LineString", "coordinates": [[15.2894748, 49.9596011], [15.2893772, 49.959738]]}, "properties": {"barrier": "retaining_wall", "ref:zabaged": "29882303379406848", "zabaged_typ": "zeď opěrná", "length_m": 16.8, "in_osm_8m": false}}, {"type": "Feature", "geometry": {"type": "LineString", "coordinates": [[15.2755027, 49.9470954], [15.2754459, 49.9469953], [15.2753329, 49.9467694], [15.2752453, 49.9466075], [15.2752152, 49.9465512], [15.2751338, 49.9464707], [15.2749698, 49.9463743]]}, "properties": {"barrier": "retaining_wall", "ref:zabaged": "29882306902622208", "zabaged_typ": "zeď opěrná", "length_m": 90.6, "in_osm_8m": false}}, {"type": "Feature", "geometry": {"type": "LineString", "coordinates": [[15.2781708, 49.9487089], [15.2778323, 49.9485391], [15.2777461, 49.9484443], [15.2777993, 49.9483343], [15.2776071, 49.9482621], [15.2777556, 49.9479454]]}, "properties": {"barrier": "retaining_wall", "ref:zabaged": "29882310274842624", "zabaged_typ": "zeď opěrná", "length_m": 108.6, "in_osm_8m": false}}, {"type": "Feature", "geometry": {"type": "LineString", "coordinates": [[15.2792597, 49.9487439], [15.27918, 49.9487618], [15.2788683, 49.9488767], [15.2789232, 49.9486686], [15.2789459, 49.9486259], [15.2789618, 49.9486078], [15.2789882, 49.9485895], [15.279098, 49.9485657]]}, "properties": {"barrier": "retaining_wall", "ref:zabaged": "29882311130480640", "zabaged_typ": "zeď opěrná", "length_m": 73.7, "in_osm_8m": false}}, {"type": "Feature", "geometry": {"type": "LineString", "coordinates": [[15.2767542, 49.9505086], [15.2763651, 49.9506028], [15.2761173, 49.9506677], [15.2763803, 49.9510801]]}, "properties": {"barrier": "retaining_wall", "ref:zabaged": "29882312036450304", "zabaged_typ": "zeď opěrná", "length_m": 98.6, "in_osm_8m": false}}, {"type": "Feature", "geometry": {"type": "LineString", "coordinates": [[15.2667755, 49.9475753], [15.2670401, 49.9476236], [15.2670943, 49.9477177], [15.267288, 49.9477173], [15.2674686, 49.9477086], [15.2674778, 49.9477044], [15.2674913, 49.9477238]]}, "properties": {"barrier": "retaining_wall", "ref:zabaged": "29882328008359936", "zabaged_typ": "zeď opěrná", "length_m": 61.0, "in_osm_8m": false}}, {"type": "Feature", "geometry": {"type": "LineString", "coordinates": [[15.2651221, 49.9468468], [15.2652061, 49.9469698], [15.265242, 49.9470121], [15.2653425, 49.947102], [15.2652825, 49.9471316]]}, "properties": {"barrier": "retaining_wall", "ref:zabaged": "29882328914329600", "zabaged_typ": "zeď opěrná", "length_m": 38.1, "in_osm_8m": false}}, {"type": "Feature", "geometry": {"type": "LineString", "coordinates": [[15.2759514, 49.9483215], [15.2759987, 49.9483763], [15.2762475, 49.9485781], [15.276486, 49.9486989], [15.2767596, 49.9488312], [15.276963, 49.9489236], [15.2770175, 49.9489341], [15.2772525, 49.9490324], [15.2776819, 49.9492116], [15.2779315, 49.9493371]]}, "properties": {"barrier": "retaining_wall", "ref:zabaged": "29882330726268928", "zabaged_typ": "zeď opěrná", "length_m": 183.4, "in_osm_8m": false}}, {"type": "Feature", "geometry": {"type": "LineString", "coordinates": [[15.2629943, 49.9547197], [15.2630128, 49.9556351], [15.2630146, 49.9558835], [15.2629151, 49.9563612]]}, "properties": {"barrier": "retaining_wall", "ref:zabaged": "29882335927205888", "zabaged_typ": "zeď opěrná", "length_m": 183.1, "in_osm_8m": true}}, {"type": "Feature", "geometry": {"type": "LineString", "coordinates": [[15.2721873, 49.9457453], [15.2718986, 49.9457803], [15.2716964, 49.9458107], [15.271605, 49.9458245], [15.2713523, 49.9458679], [15.2710481, 49.9459231], [15.2707462, 49.9459787], [15.270466, 49.9460309], [15.2703963, 49.946044], [15.2702208, 49.9460789]]}, "properties": {"barrier": "retaining_wall", "ref:zabaged": "29882348979879936", "zabaged_typ": "zeď opěrná", "length_m": 146.0, "in_osm_8m": false}}, {"type": "Feature", "geometry": {"type": "LineString", "coordinates": [[15.2648931, 49.9457189], [15.2649001, 49.9457643], [15.2649103, 49.9457943], [15.2649308, 49.9458547], [15.2649396, 49.9459047], [15.2649332, 49.9459389], [15.264922, 49.9459815], [15.2648908, 49.9460525], [15.2648616, 49.9461537], [15.2648355, 49.9462913], [15.2648547, 49.9463324], [15.2648584, 49.9463506], [15.2648726, 49.9463629], [15.2649056, 49.946381], [15.26493, 49.9463966], [15.2651216, 49.9466413], [15.2651454, 49.9466718], [15.2651772, 49.9466974]]}, "properties": {"barrier": "retaining_wall", "ref:zabaged": "29882353610391552", "zabaged_typ": "zeď opěrná", "length_m": 116.7, "in_osm_8m": true}}, {"type": "Feature", "geometry": {"type": "LineString", "coordinates": [[15.241464, 49.9276422], [15.2414312, 49.9276492], [15.2412761, 49.9276955], [15.2408243, 49.9277086], [15.2407512, 49.9276894], [15.2406444, 49.9276314]]}, "properties": {"barrier": "retaining_wall", "ref:zabaged": "29882366562402304", "zabaged_typ": "zeď opěrná", "length_m": 62.9, "in_osm_8m": false}}, {"type": "Feature", "geometry": {"type": "LineString", "coordinates": [[15.2414638, 49.9272383], [15.2414886, 49.9272818], [15.2415602, 49.9274082], [15.2416198, 49.9275187], [15.2416653, 49.9276667], [15.2416811, 49.9277348]]}, "properties": {"barrier": "retaining_wall", "ref:zabaged": "29882367770361856", "zabaged_typ": "zeď opěrná", "length_m": 57.6, "in_osm_8m": true}}, {"type": "Feature", "geometry": {"type": "LineString", "coordinates": [[15.2406596, 49.9276171], [15.2406624, 49.9275808], [15.2406113, 49.9275827], [15.2404859, 49.9275762], [15.2404472, 49.9275597], [15.2404131, 49.9275385], [15.240404, 49.9275296], [15.2403704, 49.9275471], [15.2403154, 49.9275058], [15.240349, 49.9274871], [15.2403557, 49.9274192]]}, "properties": {"barrier": "retaining_wall", "ref:zabaged": "29882391979884544", "zabaged_typ": "zeď opěrná", "length_m": 44.6, "in_osm_8m": false}}, {"type": "Feature", "geometry": {"type": "LineString", "coordinates": [[15.2656991, 49.9476149], [15.2657336, 49.9476428], [15.2657524, 49.9476339], [15.2657447, 49.9476892], [15.2657403, 49.947721], [15.2656974, 49.9478295], [15.2656395, 49.9478729], [15.265598, 49.9478655]]}, "properties": {"barrier": "retaining_wall", "ref:zabaged": "29882294571368448", "zabaged_typ": "zeď opěrná", "length_m": 37.3, "in_osm_8m": true}}, {"type": "Feature", "geometry": {"type": "LineString", "coordinates": [[15.2692841, 49.9463338], [15.2690505, 49.9462958], [15.2689688, 49.946293], [15.2687559, 49.9463026]]}, "properties": {"barrier": "retaining_wall", "ref:zabaged": "41828639653756928", "zabaged_typ": "zeď opěrná", "length_m": 38.5, "in_osm_8m": false}}, {"type": "Feature", "geometry": {"type": "LineString", "coordinates": [[15.269264, 49.9463537], [15.2690996, 49.9463383]]}, "properties": {"barrier": "retaining_wall", "ref:zabaged": "41828715587436544", "zabaged_typ": "zeď opěrná", "length_m": 11.9, "in_osm_8m": true}}, {"type": "Feature", "geometry": {"type": "LineString", "coordinates": [[15.269054, 49.9463336], [15.2689552, 49.94632], [15.2686934, 49.9463546]]}, "properties": {"barrier": "retaining_wall", "ref:zabaged": "41828639704088576", "zabaged_typ": "zeď opěrná", "length_m": 26.4, "in_osm_8m": false}}, {"type": "Feature", "geometry": {"type": "LineString", "coordinates": [[15.2619382, 49.9527377], [15.2620367, 49.9527714], [15.2621431, 49.9528799], [15.2619206, 49.9531916], [15.2617108, 49.9534466]]}, "properties": {"barrier": "retaining_wall", "ref:zabaged": "29882244894031872", "zabaged_typ": "zeď opěrná", "length_m": 92.6, "in_osm_8m": true}}, {"type": "Feature", "geometry": {"type": "LineString", "coordinates": [[15.2894469, 49.9472102], [15.2894596, 49.947258], [15.2889714, 49.9473084]]}, "properties": {"barrier": "retaining_wall", "ref:zabaged": "53971504739647488", "zabaged_typ": "zeď opěrná", "length_m": 40.9, "in_osm_8m": false}}, {"type": "Feature", "geometry": {"type": "LineString", "coordinates": [[15.2610431, 49.9405501], [15.2610594, 49.9406386], [15.2611319, 49.9408556], [15.2612995, 49.9413118], [15.2614928, 49.9418046]]}, "properties": {"barrier": "retaining_wall", "ref:zabaged": "49261064419803136", "zabaged_typ": "zeď opěrná", "length_m": 143.3, "in_osm_8m": false}}, {"type": "Feature", "geometry": {"type": "LineString", "coordinates": [[15.2609396, 49.9413785], [15.2608037, 49.9411838]]}, "properties": {"barrier": "retaining_wall", "ref:zabaged": "29882257577607168", "zabaged_typ": "zeď opěrná", "length_m": 23.7, "in_osm_8m": false}}, {"type": "Feature", "geometry": {"type": "LineString", "coordinates": [[15.2618281, 49.9488237], [15.2619335, 49.9488272], [15.2619475, 49.9488848]]}, "properties": {"barrier": "retaining_wall", "ref:zabaged": "29882239760203776", "zabaged_typ": "zeď opěrná", "length_m": 14.0, "in_osm_8m": false}}, {"type": "Feature", "geometry": {"type": "LineString", "coordinates": [[15.2720553, 49.9514204], [15.27213, 49.9513902], [15.2721646, 49.9514344]]}, "properties": {"barrier": "retaining_wall", "ref:zabaged": "29882332588539904", "zabaged_typ": "zeď opěrná", "length_m": 11.8, "in_osm_8m": false}}, {"type": "Feature", "geometry": {"type": "LineString", "coordinates": [[15.2681153, 49.9477551], [15.2684362, 49.9477681]]}, "properties": {"barrier": "retaining_wall", "ref:zabaged": "29882286719631360", "zabaged_typ": "zeď opěrná", "length_m": 23.1, "in_osm_8m": true}}, {"type": "Feature", "geometry": {"type": "LineString", "coordinates": [[15.2619799, 49.9490336], [15.2619919, 49.9491832], [15.2619678, 49.9491819]]}, "properties": {"barrier": "retaining_wall", "ref:zabaged": "29882240515178496", "zabaged_typ": "zeď opěrná", "length_m": 18.4, "in_osm_8m": false}}, {"type": "Feature", "geometry": {"type": "LineString", "coordinates": [[15.2689007, 49.9466923], [15.2688144, 49.9467276], [15.2687741, 49.946744], [15.2687283, 49.946763], [15.2686547, 49.9467939], [15.2685963, 49.9468114], [15.2685366, 49.9468277], [15.2683459, 49.9468798], [15.2679021, 49.9469964], [15.2678465, 49.947011], [15.2674354, 49.9470726]]}, "properties": {"barrier": "retaining_wall", "ref:zabaged": "29882270613504000", "zabaged_typ": "zeď opěrná", "length_m": 114.1, "in_osm_8m": false}}, {"type": "Feature", "geometry": {"type": "LineString", "coordinates": [[15.2646162, 49.9454315], [15.264691, 49.945429], [15.2647295, 49.9455302], [15.264803, 49.9457171], [15.2648286, 49.9457941], [15.2648289, 49.9457952], [15.2648521, 49.9459177], [15.2648151, 49.946065], [15.2647658, 49.9462153], [15.2647558, 49.9463235], [15.2647602, 49.9463548], [15.2648513, 49.9464621], [15.2649502, 49.9465749], [15.2649776, 49.946607], [15.2650217, 49.9466585]]}, "properties": {"barrier": "retaining_wall", "ref:zabaged": "29882351110586368", "zabaged_typ": "zeď opěrná", "length_m": 148.9, "in_osm_8m": false}}, {"type": "Feature", "geometry": {"type": "LineString", "coordinates": [[15.259372, 49.9403446], [15.2595181, 49.9403042], [15.2596478, 49.9402786], [15.2597157, 49.9402503], [15.2599028, 49.9401734], [15.2599793, 49.940128], [15.2599986, 49.9401235], [15.260012, 49.9401249], [15.2600744, 49.9401364], [15.2602009, 49.9401812]]}, "properties": {"barrier": "retaining_wall", "ref:zabaged": "30419003985887232", "zabaged_typ": "zeď opěrná", "length_m": 67.8, "in_osm_8m": false}}, {"type": "Feature", "geometry": {"type": "LineString", "coordinates": [[15.2622849, 49.9445613], [15.2622774, 49.9446353], [15.2622593, 49.9448146]]}, "properties": {"barrier": "retaining_wall", "ref:zabaged": "49261064470134784", "zabaged_typ": "zeď opěrná", "length_m": 28.2, "in_osm_8m": true}}]}