{"type":"FeatureCollection","features":[{"type":"Feature","geometry":{"type":"Point","coordinates":[18.231912,49.840342]},"properties":{"fid_zbg":"3733939961200640","vyska_obj":55,"zdrojvys_p":"VGHMÚř","osm_dist_m":168,"in_osm":false,"proposed:man_made":"chimney","proposed:height":"55"}},{"type":"Feature","geometry":{"type":"Point","coordinates":[18.274565,49.820689]},"properties":{"fid_zbg":"9263860","osm_dist_m":211,"in_osm":false,"proposed:man_made":"chimney"}},{"type":"Feature","geometry":{"type":"Point","coordinates":[18.164428,49.819493]},"properties":{"fid_zbg":"7446132523270144","zdrojvys_p":"Neuvedeno","in_osm":false,"proposed:man_made":"chimney"}},{"type":"Feature","geometry":{"type":"Point","coordinates":[18.365855,49.715931]},"properties":{"fid_zbg":"9263692","in_osm":false,"proposed:man_made":"chimney"}},{"type":"Feature","geometry":{"type":"Point","coordinates":[18.320287,49.791118]},"properties":{"fid_zbg":"7385274715734016","zdrojvys_p":"Neuvedeno","osm_dist_m":214,"in_osm":false,"proposed:man_made":"chimney"}},{"type":"Feature","geometry":{"type":"Point","coordinates":[18.274108,49.820577]},"properties":{"fid_zbg":"9263858","osm_dist_m":223,"in_osm":false,"proposed:man_made":"chimney"}},{"type":"Feature","geometry":{"type":"Point","coordinates":[18.545774,49.758172]},"properties":{"fid_zbg":"9263691","in_osm":false,"proposed:man_made":"chimney"}},{"type":"Feature","geometry":{"type":"Point","coordinates":[18.353417,49.892311]},"properties":{"fid_zbg":"3888942076133376","osm_dist_m":52,"in_osm":false,"proposed:man_made":"chimney"}},{"type":"Feature","geometry":{"type":"Point","coordinates":[18.276373,49.835789]},"properties":{"fid_zbg":"3749753980452864","osm_dist_m":1594,"in_osm":false,"proposed:man_made":"chimney"}},{"type":"Feature","geometry":{"type":"Point","coordinates":[18.401488,49.795242]},"properties":{"fid_zbg":"9263897","in_osm":false,"proposed:man_made":"chimney"}},{"type":"Feature","geometry":{"type":"Point","coordinates":[18.230339,49.841961]},"properties":{"fid_zbg":"3733940011532288","osm_dist_m":322,"in_osm":false,"proposed:man_made":"chimney"}},{"type":"Feature","geometry":{"type":"Point","coordinates":[18.275027,49.860324]},"properties":{"fid_zbg":"7681311477071872","zdrojvys_p":"Neuvedeno","osm_dist_m":27,"in_osm":true,"proposed:man_made":"chimney"}},{"type":"Feature","geometry":{"type":"Point","coordinates":[18.453497,49.898698]},"properties":{"fid_zbg":"9263597","osm_dist_m":1300,"in_osm":false,"proposed:man_made":"chimney"}},{"type":"Feature","geometry":{"type":"Point","coordinates":[18.201009,49.898497]},"properties":{"fid_zbg":"5927096173985792","vyska_obj":50,"zdrojvys_p":"VGHMÚř","osm_dist_m":1339,"in_osm":false,"proposed:man_made":"chimney","proposed:height":"50"}},{"type":"Feature","geometry":{"type":"Point","coordinates":[18.366412,49.905838]},"properties":{"fid_zbg":"9263589","osm_dist_m":674,"in_osm":false,"proposed:man_made":"chimney"}},{"type":"Feature","geometry":{"type":"Point","coordinates":[18.296883,49.792771]},"properties":{"fid_zbg":"9263479","osm_dist_m":858,"in_osm":false,"proposed:man_made":"chimney"}},{"type":"Feature","geometry":{"type":"Point","coordinates":[18.32368,49.797054]},"properties":{"fid_zbg":"7505829783666688","zdrojvys_p":"Neuvedeno","osm_dist_m":97,"in_osm":false,"proposed:man_made":"chimney"}},{"type":"Feature","geometry":{"type":"Point","coordinates":[18.467219,49.906178]},"properties":{"fid_zbg":"7378911335809024","vyska_obj":63,"zdrojvys_p":"VGHMÚř","osm_dist_m":66,"in_osm":false,"proposed:man_made":"chimney","proposed:height":"63"}},{"type":"Feature","geometry":{"type":"Point","coordinates":[18.269374,49.819672]},"properties":{"fid_zbg":"3754113170931712","osm_dist_m":486,"in_osm":false,"proposed:man_made":"chimney"}},{"type":"Feature","geometry":{"type":"Point","coordinates":[18.535826,49.813574]},"properties":{"fid_zbg":"3973472753549312","osm_dist_m":1048,"in_osm":false,"proposed:man_made":"chimney"}},{"type":"Feature","geometry":{"type":"Point","coordinates":[18.294508,49.876555]},"properties":{"fid_zbg":"7000575434555392","zdrojvys_p":"Neuvedeno","in_osm":false,"proposed:man_made":"chimney"}},{"type":"Feature","geometry":{"type":"Point","coordinates":[18.274343,49.820631]},"properties":{"fid_zbg":"9263859","osm_dist_m":216,"in_osm":false,"proposed:man_made":"chimney"}},{"type":"Feature","geometry":{"type":"Point","coordinates":[18.228689,49.837489]},"properties":{"fid_zbg":"9263521","osm_dist_m":439,"in_osm":false,"proposed:man_made":"chimney"}},{"type":"Feature","geometry":{"type":"Point","coordinates":[18.402634,49.840147]},"properties":{"fid_zbg":"3968258948464640","in_osm":false,"proposed:man_made":"chimney"}},{"type":"Feature","geometry":{"type":"Point","coordinates":[18.149727,49.747226]},"properties":{"fid_zbg":"9263883","in_osm":false,"proposed:man_made":"chimney"}},{"type":"Feature","geometry":{"type":"Point","coordinates":[18.247214,49.818704]},"properties":{"fid_zbg":"9263848","vyska_obj":40,"zdrojvys_p":"VGHMÚř","osm_dist_m":289,"in_osm":false,"proposed:man_made":"chimney","proposed:height":"40"}},{"type":"Feature","geometry":{"type":"Point","coordinates":[18.229326,49.837754]},"properties":{"fid_zbg":"3733941924134912","osm_dist_m":409,"in_osm":false,"proposed:man_made":"chimney"}},{"type":"Feature","geometry":{"type":"Point","coordinates":[18.261881,49.809983]},"properties":{"fid_zbg":"9263874","osm_dist_m":1049,"in_osm":false,"proposed:man_made":"chimney"}},{"type":"Feature","geometry":{"type":"Point","coordinates":[18.277342,49.819844]},"properties":{"fid_zbg":"9263866","osm_dist_m":1,"in_osm":true,"proposed:man_made":"chimney"}},{"type":"Feature","geometry":{"type":"Point","coordinates":[18.185358,49.849476]},"properties":{"fid_zbg":"7405880559534080","zdrojvys_p":"Neuvedeno","in_osm":false,"proposed:man_made":"chimney"}},{"type":"Feature","geometry":{"type":"Point","coordinates":[18.36579,49.824354]},"properties":{"fid_zbg":"7496574900895744","zdrojvys_p":"Neuvedeno","in_osm":false,"proposed:man_made":"chimney"}},{"type":"Feature","geometry":{"type":"Point","coordinates":[18.295881,49.774911]},"properties":{"fid_zbg":"9263480","osm_dist_m":1661,"in_osm":false,"proposed:man_made":"chimney"}},{"type":"Feature","geometry":{"type":"Point","coordinates":[18.263765,49.811781]},"properties":{"fid_zbg":"5927099797864448","vyska_obj":44,"zdrojvys_p":"VGHMÚř","osm_dist_m":821,"in_osm":false,"proposed:man_made":"chimney","proposed:height":"44"}},{"type":"Feature","geometry":{"type":"Point","coordinates":[18.293059,49.781188]},"properties":{"fid_zbg":"3735086063157248","osm_dist_m":1362,"in_osm":false,"proposed:man_made":"chimney"}},{"type":"Feature","geometry":{"type":"Point","coordinates":[18.266878,49.76742]},"properties":{"fid_zbg":"7423203739697152","zdrojvys_p":"Neuvedeno","in_osm":false,"proposed:man_made":"chimney"}},{"type":"Feature","geometry":{"type":"Point","coordinates":[18.381578,49.784658]},"properties":{"fid_zbg":"9263895","in_osm":false,"proposed:man_made":"chimney"}},{"type":"Feature","geometry":{"type":"Point","coordinates":[18.349753,49.888025]},"properties":{"fid_zbg":"9263615","osm_dist_m":543,"in_osm":false,"proposed:man_made":"chimney"}},{"type":"Feature","geometry":{"type":"Point","coordinates":[18.338831,49.830876]},"properties":{"fid_zbg":"4018633059598336","in_osm":false,"proposed:man_made":"chimney"}},{"type":"Feature","geometry":{"type":"Point","coordinates":[18.549465,49.879576]},"properties":{"fid_zbg":"9263621","osm_dist_m":1864,"in_osm":false,"proposed:man_made":"chimney"}},{"type":"Feature","geometry":{"type":"Point","coordinates":[18.296745,49.792773]},"properties":{"fid_zbg":"9263477","osm_dist_m":868,"in_osm":false,"proposed:man_made":"chimney"}},{"type":"Feature","geometry":{"type":"Point","coordinates":[18.297817,49.811516]},"properties":{"fid_zbg":"9263871","vyska_obj":47,"zdrojvys_p":"VGHMÚř","osm_dist_m":4,"in_osm":true,"proposed:man_made":"chimney","proposed:height":"47"}},{"type":"Feature","geometry":{"type":"Point","coordinates":[18.279431,49.820934]},"properties":{"fid_zbg":"9263856","vyska_obj":79,"zdrojvys_p":"VGHMÚř","osm_dist_m":0,"in_osm":true,"proposed:man_made":"chimney","proposed:height":"79"}},{"type":"Feature","geometry":{"type":"Point","coordinates":[18.348116,49.88719]},"properties":{"fid_zbg":"9263612","vyska_obj":50,"zdrojvys_p":"VGHMÚř","osm_dist_m":678,"in_osm":false,"proposed:man_made":"chimney","proposed:height":"50"}},{"type":"Feature","geometry":{"type":"Point","coordinates":[18.243189,49.818943]},"properties":{"fid_zbg":"9263803","vyska_obj":80,"zdrojvys_p":"VGHMÚř","osm_dist_m":3,"in_osm":true,"proposed:man_made":"chimney","proposed:height":"80"}},{"type":"Feature","geometry":{"type":"Point","coordinates":[18.309925,49.788288]},"properties":{"fid_zbg":"9263625","vyska_obj":58,"zdrojvys_p":"VGHMÚř","osm_dist_m":3,"in_osm":true,"proposed:man_made":"chimney","proposed:height":"58"}},{"type":"Feature","geometry":{"type":"Point","coordinates":[18.54137,49.873077]},"properties":{"fid_zbg":"9263654","vyska_obj":61,"zdrojvys_p":"VGHMÚř","osm_dist_m":1232,"in_osm":false,"proposed:man_made":"chimney","proposed:height":"61"}},{"type":"Feature","geometry":{"type":"Point","coordinates":[18.543317,49.872916]},"properties":{"fid_zbg":"9263655","osm_dist_m":1170,"in_osm":false,"proposed:man_made":"chimney"}},{"type":"Feature","geometry":{"type":"Point","coordinates":[18.293932,49.77055]},"properties":{"fid_zbg":"9263884","vyska_obj":50,"zdrojvys_p":"VGHMÚř","osm_dist_m":2138,"in_osm":false,"proposed:man_made":"chimney","proposed:height":"50"}},{"type":"Feature","geometry":{"type":"Point","coordinates":[18.316757,49.800295]},"properties":{"fid_zbg":"3729557215510528","vyska_obj":45,"zdrojvys_p":"VGHMÚř","osm_dist_m":176,"in_osm":false,"proposed:man_made":"chimney","proposed:height":"45"}},{"type":"Feature","geometry":{"type":"Point","coordinates":[18.263282,49.812068]},"properties":{"fid_zbg":"9263835","vyska_obj":37,"zdrojvys_p":"VGHMÚř","osm_dist_m":833,"in_osm":false,"proposed:man_made":"chimney","proposed:height":"37"}},{"type":"Feature","geometry":{"type":"Point","coordinates":[18.22874,49.91603]},"properties":{"fid_zbg":"31182971343994880","zdrojvys_p":"Neuvedeno","in_osm":false,"proposed:man_made":"chimney"}},{"type":"Feature","geometry":{"type":"Point","coordinates":[18.321082,49.795106]},"properties":{"fid_zbg":"9263550","vyska_obj":80,"zdrojvys_p":"VGHMÚř","osm_dist_m":280,"in_osm":false,"proposed:man_made":"chimney","proposed:height":"80"}},{"type":"Feature","geometry":{"type":"Point","coordinates":[18.251811,49.882198]},"properties":{"fid_zbg":"9263587","in_osm":false,"proposed:man_made":"chimney"}},{"type":"Feature","geometry":{"type":"Point","coordinates":[18.322146,49.792627]},"properties":{"fid_zbg":"9263553","vyska_obj":121,"zdrojvys_p":"VGHMÚř","osm_dist_m":1,"in_osm":true,"proposed:man_made":"chimney","proposed:height":"121"}},{"type":"Feature","geometry":{"type":"Point","coordinates":[18.31802,49.797817]},"properties":{"fid_zbg":"9263543","vyska_obj":81,"zdrojvys_p":"VGHMÚř","osm_dist_m":5,"in_osm":true,"proposed:man_made":"chimney","proposed:height":"81"}},{"type":"Feature","geometry":{"type":"Point","coordinates":[18.313572,49.794658]},"properties":{"fid_zbg":"9263549","vyska_obj":221,"zdrojvys_p":"VGHMÚř","osm_dist_m":5,"in_osm":true,"proposed:man_made":"chimney","proposed:height":"221"}},{"type":"Feature","geometry":{"type":"Point","coordinates":[18.324606,49.785386]},"properties":{"fid_zbg":"9263563","vyska_obj":82,"zdrojvys_p":"VGHMÚř","osm_dist_m":0,"in_osm":true,"proposed:man_made":"chimney","proposed:height":"82"}},{"type":"Feature","geometry":{"type":"Point","coordinates":[18.262921,49.811455]},"properties":{"fid_zbg":"9263836","vyska_obj":50,"zdrojvys_p":"VGHMÚř","osm_dist_m":892,"in_osm":false,"proposed:man_made":"chimney","proposed:height":"50"}},{"type":"Feature","geometry":{"type":"Point","coordinates":[18.289061,49.799172]},"properties":{"fid_zbg":"9263476","in_osm":false,"proposed:man_made":"chimney"}},{"type":"Feature","geometry":{"type":"Point","coordinates":[18.263751,49.810621]},"properties":{"fid_zbg":"9263841","osm_dist_m":901,"in_osm":false,"proposed:man_made":"chimney"}},{"type":"Feature","geometry":{"type":"Point","coordinates":[18.261203,49.810905]},"properties":{"fid_zbg":"3732831557648384","vyska_obj":61,"zdrojvys_p":"VGHMÚř","osm_dist_m":1028,"in_osm":false,"proposed:man_made":"chimney","proposed:height":"61"}},{"type":"Feature","geometry":{"type":"Point","coordinates":[18.324907,49.793153]},"properties":{"fid_zbg":"9263554","vyska_obj":56,"zdrojvys_p":"VGHMÚř","osm_dist_m":206,"in_osm":false,"proposed:man_made":"chimney","proposed:height":"56"}},{"type":"Feature","geometry":{"type":"Point","coordinates":[18.317976,49.797011]},"properties":{"fid_zbg":"3729556259209216","vyska_obj":81,"zdrojvys_p":"VGHMÚř","osm_dist_m":5,"in_osm":true,"proposed:man_made":"chimney","proposed:height":"81"}},{"type":"Feature","geometry":{"type":"Point","coordinates":[18.281216,49.820213]},"properties":{"fid_zbg":"9263853","vyska_obj":81,"zdrojvys_p":"VGHMÚř","osm_dist_m":4,"in_osm":true,"proposed:man_made":"chimney","proposed:height":"81"}},{"type":"Feature","geometry":{"type":"Point","coordinates":[18.316622,49.788207]},"properties":{"fid_zbg":"9263561","vyska_obj":93,"zdrojvys_p":"VGHMÚř","osm_dist_m":2,"in_osm":true,"proposed:man_made":"chimney","proposed:height":"93"}},{"type":"Feature","geometry":{"type":"Point","coordinates":[18.276247,49.819118]},"properties":{"fid_zbg":"9263864","vyska_obj":74,"zdrojvys_p":"VGHMÚř","osm_dist_m":2,"in_osm":true,"proposed:man_made":"chimney","proposed:height":"74"}},{"type":"Feature","geometry":{"type":"Point","coordinates":[18.258288,49.810437]},"properties":{"fid_zbg":"9263872","vyska_obj":47,"zdrojvys_p":"VGHMÚř","osm_dist_m":1436,"in_osm":false,"proposed:man_made":"chimney","proposed:height":"47"}},{"type":"Feature","geometry":{"type":"Point","coordinates":[18.153971,49.829856]},"properties":{"fid_zbg":"9263517","in_osm":false,"proposed:man_made":"chimney"}},{"type":"Feature","geometry":{"type":"Point","coordinates":[18.308437,49.78641]},"properties":{"fid_zbg":"9263469","vyska_obj":70,"zdrojvys_p":"VGHMÚř","osm_dist_m":115,"in_osm":false,"proposed:man_made":"chimney","proposed:height":"70"}},{"type":"Feature","geometry":{"type":"Point","coordinates":[18.313621,49.795535]},"properties":{"fid_zbg":"9263548","vyska_obj":167,"zdrojvys_p":"VGHMÚř","osm_dist_m":2,"in_osm":true,"proposed:man_made":"chimney","proposed:height":"167"}},{"type":"Feature","geometry":{"type":"Point","coordinates":[18.277422,49.860918]},"properties":{"fid_zbg":"9263493","vyska_obj":71,"zdrojvys_p":"VGHMÚř","osm_dist_m":153,"in_osm":false,"proposed:man_made":"chimney","proposed:height":"71"}},{"type":"Feature","geometry":{"type":"Point","coordinates":[18.324934,49.793403]},"properties":{"fid_zbg":"9263555","vyska_obj":101,"zdrojvys_p":"VGHMÚř","osm_dist_m":217,"in_osm":false,"proposed:man_made":"chimney","proposed:height":"101"}},{"type":"Feature","geometry":{"type":"Point","coordinates":[18.289887,49.714204]},"properties":{"fid_zbg":"9263502","vyska_obj":151,"zdrojvys_p":"VGHMÚř","osm_dist_m":4,"in_osm":true,"proposed:man_made":"chimney","proposed:height":"151"}},{"type":"Feature","geometry":{"type":"Point","coordinates":[18.252693,49.738361]},"properties":{"fid_zbg":"9263892","in_osm":false,"proposed:man_made":"chimney"}},{"type":"Feature","geometry":{"type":"Point","coordinates":[18.311376,49.786826]},"properties":{"fid_zbg":"9263472","vyska_obj":56,"zdrojvys_p":"VGHMÚř","osm_dist_m":2,"in_osm":true,"proposed:man_made":"chimney","proposed:height":"56"}},{"type":"Feature","geometry":{"type":"Point","coordinates":[18.368186,49.899852]},"properties":{"fid_zbg":"9263592","vyska_obj":81,"zdrojvys_p":"VGHMÚř","osm_dist_m":1,"in_osm":true,"proposed:man_made":"chimney","proposed:height":"81"}},{"type":"Feature","geometry":{"type":"Point","coordinates":[18.329462,49.788388]},"properties":{"fid_zbg":"9263558","vyska_obj":103,"zdrojvys_p":"VGHMÚř","osm_dist_m":4,"in_osm":true,"proposed:man_made":"chimney","proposed:height":"103"}},{"type":"Feature","geometry":{"type":"Point","coordinates":[18.309128,49.788349]},"properties":{"fid_zbg":"9263629","vyska_obj":40,"zdrojvys_p":"VGHMÚř","osm_dist_m":2,"in_osm":true,"proposed:man_made":"chimney","proposed:height":"40"}},{"type":"Feature","geometry":{"type":"Point","coordinates":[18.211773,49.831484]},"properties":{"fid_zbg":"9263522","vyska_obj":102,"zdrojvys_p":"VGHMÚř","osm_dist_m":5,"in_osm":true,"proposed:man_made":"chimney","proposed:height":"102"}},{"type":"Feature","geometry":{"type":"Point","coordinates":[18.378784,49.908487]},"properties":{"fid_zbg":"9263593","vyska_obj":57,"zdrojvys_p":"VGHMÚř","osm_dist_m":1221,"in_osm":false,"proposed:man_made":"chimney","proposed:height":"57"}},{"type":"Feature","geometry":{"type":"Point","coordinates":[18.468151,49.905807]},"properties":{"fid_zbg":"9263596","vyska_obj":270,"zdrojvys_p":"VGHMÚř","osm_dist_m":11,"in_osm":true,"proposed:man_made":"chimney","proposed:height":"270"}},{"type":"Feature","geometry":{"type":"Point","coordinates":[18.309332,49.788345]},"properties":{"fid_zbg":"3656775890894848","vyska_obj":40,"zdrojvys_p":"VGHMÚř","osm_dist_m":3,"in_osm":true,"proposed:man_made":"chimney","proposed:height":"40"}},{"type":"Feature","geometry":{"type":"Point","coordinates":[18.279192,49.820877]},"properties":{"fid_zbg":"9263857","vyska_obj":91,"zdrojvys_p":"VGHMÚř","osm_dist_m":2,"in_osm":true,"proposed:man_made":"chimney","proposed:height":"91"}},{"type":"Feature","geometry":{"type":"Point","coordinates":[18.325007,49.795464]},"properties":{"fid_zbg":"9263556","vyska_obj":101,"zdrojvys_p":"VGHMÚř","osm_dist_m":294,"in_osm":false,"proposed:man_made":"chimney","proposed:height":"101"}},{"type":"Feature","geometry":{"type":"Point","coordinates":[18.309754,49.788336]},"properties":{"fid_zbg":"3656775790231552","vyska_obj":40,"zdrojvys_p":"VGHMÚř","osm_dist_m":4,"in_osm":true,"proposed:man_made":"chimney","proposed:height":"40"}},{"type":"Feature","geometry":{"type":"Point","coordinates":[18.250007,49.806435]},"properties":{"fid_zbg":"9263877","osm_dist_m":1462,"in_osm":false,"proposed:man_made":"chimney"}},{"type":"Feature","geometry":{"type":"Point","coordinates":[18.347596,49.905328]},"properties":{"fid_zbg":"9263616","osm_dist_m":1449,"in_osm":false,"proposed:man_made":"chimney"}},{"type":"Feature","geometry":{"type":"Point","coordinates":[18.319685,49.785252]},"properties":{"fid_zbg":"1966262217344087","vyska_obj":40,"zdrojvys_p":"VGHMÚř","osm_dist_m":354,"in_osm":false,"proposed:man_made":"chimney","proposed:height":"40"}},{"type":"Feature","geometry":{"type":"Point","coordinates":[18.210602,49.832478]},"properties":{"fid_zbg":"9263524","vyska_obj":102,"zdrojvys_p":"VGHMÚř","osm_dist_m":5,"in_osm":true,"proposed:man_made":"chimney","proposed:height":"102"}},{"type":"Feature","geometry":{"type":"Point","coordinates":[18.278547,49.821431]},"properties":{"fid_zbg":"9263862","vyska_obj":61,"zdrojvys_p":"VGHMÚř","osm_dist_m":1,"in_osm":true,"proposed:man_made":"chimney","proposed:height":"61"}},{"type":"Feature","geometry":{"type":"Point","coordinates":[18.296188,49.853574]},"properties":{"fid_zbg":"9263534","in_osm":false,"proposed:man_made":"chimney"}},{"type":"Feature","geometry":{"type":"Point","coordinates":[18.27831,49.819479]},"properties":{"fid_zbg":"9263869","vyska_obj":81,"zdrojvys_p":"VGHMÚř","osm_dist_m":1,"in_osm":true,"proposed:man_made":"chimney","proposed:height":"81"}},{"type":"Feature","geometry":{"type":"Point","coordinates":[18.307104,49.798083]},"properties":{"fid_zbg":"9263622","vyska_obj":47,"zdrojvys_p":"VGHMÚř","osm_dist_m":491,"in_osm":false,"proposed:man_made":"chimney","proposed:height":"47"}},{"type":"Feature","geometry":{"type":"Point","coordinates":[18.47828,49.823088]},"properties":{"fid_zbg":"9263672","vyska_obj":121,"zdrojvys_p":"VGHMÚř","osm_dist_m":3,"in_osm":true,"proposed:man_made":"chimney","proposed:height":"121"}},{"type":"Feature","geometry":{"type":"Point","coordinates":[18.547828,49.862739]},"properties":{"fid_zbg":"9263637","vyska_obj":103,"zdrojvys_p":"VGHMÚř","osm_dist_m":1,"in_osm":true,"proposed:man_made":"chimney","proposed:height":"103"}},{"type":"Feature","geometry":{"type":"Point","coordinates":[18.31927,49.783922]},"properties":{"fid_zbg":"3736096085114880","vyska_obj":40,"zdrojvys_p":"VGHMÚř","osm_dist_m":356,"in_osm":false,"proposed:man_made":"chimney","proposed:height":"40"}},{"type":"Feature","geometry":{"type":"Point","coordinates":[18.322232,49.797656]},"properties":{"fid_zbg":"9263546","vyska_obj":81,"zdrojvys_p":"VGHMÚř","osm_dist_m":2,"in_osm":true,"proposed:man_made":"chimney","proposed:height":"81"}},{"type":"Feature","geometry":{"type":"Point","coordinates":[18.313082,49.795946]},"properties":{"fid_zbg":"3729551880355840","vyska_obj":121,"zdrojvys_p":"VGHMÚř","osm_dist_m":1,"in_osm":true,"proposed:man_made":"chimney","proposed:height":"121"}},{"type":"Feature","geometry":{"type":"Point","coordinates":[18.532581,49.858]},"properties":{"fid_zbg":"9263636","osm_dist_m":1213,"in_osm":false,"proposed:man_made":"chimney"}},{"type":"Feature","geometry":{"type":"Point","coordinates":[18.320316,49.818353]},"properties":{"fid_zbg":"9263536","vyska_obj":49,"zdrojvys_p":"VGHMÚř","osm_dist_m":1,"in_osm":true,"proposed:man_made":"chimney","proposed:height":"49"}},{"type":"Feature","geometry":{"type":"Point","coordinates":[18.301609,49.806254]},"properties":{"fid_zbg":"9263878","osm_dist_m":639,"in_osm":false,"proposed:man_made":"chimney"}},{"type":"Feature","geometry":{"type":"Point","coordinates":[18.105061,49.903411]},"properties":{"fid_zbg":"9263570","in_osm":false,"proposed:man_made":"chimney"}},{"type":"Feature","geometry":{"type":"Point","coordinates":[18.324842,49.791082]},"properties":{"fid_zbg":"9263559","vyska_obj":53,"zdrojvys_p":"VGHMÚř","osm_dist_m":258,"in_osm":false,"proposed:man_made":"chimney","proposed:height":"53"}},{"type":"Feature","geometry":{"type":"Point","coordinates":[18.340681,49.907591]},"properties":{"fid_zbg":"9263599","osm_dist_m":1864,"in_osm":false,"proposed:man_made":"chimney"}},{"type":"Feature","geometry":{"type":"Point","coordinates":[18.539785,49.87196]},"properties":{"fid_zbg":"9263653","osm_dist_m":1170,"in_osm":false,"proposed:man_made":"chimney"}},{"type":"Feature","geometry":{"type":"Point","coordinates":[18.496532,49.843931]},"properties":{"fid_zbg":"9263663","vyska_obj":121,"zdrojvys_p":"VGHMÚř","osm_dist_m":4,"in_osm":true,"proposed:man_made":"chimney","proposed:height":"121"}},{"type":"Feature","geometry":{"type":"Point","coordinates":[18.515866,49.864487]},"properties":{"fid_zbg":"9263634","in_osm":false,"proposed:man_made":"chimney"}},{"type":"Feature","geometry":{"type":"Point","coordinates":[18.302354,49.863646]},"properties":{"fid_zbg":"35547101538549760","zdrojvys_p":"Neuvedeno","in_osm":false,"proposed:man_made":"chimney"}},{"type":"Feature","geometry":{"type":"Point","coordinates":[18.192024,49.906539]},"properties":{"fid_zbg":"9263582","in_osm":false,"proposed:man_made":"chimney"}},{"type":"Feature","geometry":{"type":"Point","coordinates":[18.259373,49.811538]},"properties":{"fid_zbg":"9263845","vyska_obj":40,"zdrojvys_p":"VGHMÚř","osm_dist_m":1422,"in_osm":false,"proposed:man_made":"chimney","proposed:height":"40"}},{"type":"Feature","geometry":{"type":"Point","coordinates":[18.286384,49.780745]},"properties":{"fid_zbg":"9263475","vyska_obj":40,"zdrojvys_p":"VGHMÚř","in_osm":false,"proposed:man_made":"chimney","proposed:height":"40"}},{"type":"Feature","geometry":{"type":"Point","coordinates":[18.32105,49.794335]},"properties":{"fid_zbg":"9263551","vyska_obj":81,"zdrojvys_p":"VGHMÚř","osm_dist_m":205,"in_osm":false,"proposed:man_made":"chimney","proposed:height":"81"}},{"type":"Feature","geometry":{"type":"Point","coordinates":[18.269227,49.860268]},"properties":{"fid_zbg":"425154064680023","osm_dist_m":432,"in_osm":false,"proposed:man_made":"chimney"}},{"type":"Feature","geometry":{"type":"Point","coordinates":[18.522796,49.786398]},"properties":{"fid_zbg":"9263690","in_osm":false,"proposed:man_made":"chimney"}},{"type":"Feature","geometry":{"type":"Point","coordinates":[18.355592,49.89295]},"properties":{"fid_zbg":"9263610","vyska_obj":42,"zdrojvys_p":"VGHMÚř","osm_dist_m":203,"in_osm":false,"proposed:man_made":"chimney","proposed:height":"42"}},{"type":"Feature","geometry":{"type":"Point","coordinates":[18.252944,49.817895]},"properties":{"fid_zbg":"9263828","vyska_obj":45,"zdrojvys_p":"VGHMÚř","osm_dist_m":709,"in_osm":false,"proposed:man_made":"chimney","proposed:height":"45"}},{"type":"Feature","geometry":{"type":"Point","coordinates":[18.26526,49.818926]},"properties":{"fid_zbg":"9263846","vyska_obj":50,"zdrojvys_p":"VGHMÚř","osm_dist_m":653,"in_osm":false,"proposed:man_made":"chimney","proposed:height":"50"}},{"type":"Feature","geometry":{"type":"Point","coordinates":[18.299993,49.78593]},"properties":{"fid_zbg":"9263633","osm_dist_m":711,"in_osm":false,"proposed:man_made":"chimney"}},{"type":"Feature","geometry":{"type":"Point","coordinates":[18.234228,49.840511]},"properties":{"fid_zbg":"9263528","vyska_obj":103,"zdrojvys_p":"VGHMÚř","osm_dist_m":1,"in_osm":true,"proposed:man_made":"chimney","proposed:height":"103"}},{"type":"Feature","geometry":{"type":"Point","coordinates":[18.275301,49.860548]},"properties":{"fid_zbg":"9263495","vyska_obj":152,"zdrojvys_p":"VGHMÚř","osm_dist_m":4,"in_osm":true,"proposed:man_made":"chimney","proposed:height":"152"}},{"type":"Feature","geometry":{"type":"Point","coordinates":[18.262682,49.810328]},"properties":{"fid_zbg":"9263875","vyska_obj":43,"zdrojvys_p":"VGHMÚř","osm_dist_m":980,"in_osm":false,"proposed:man_made":"chimney","proposed:height":"43"}},{"type":"Feature","geometry":{"type":"Point","coordinates":[18.352732,49.903992]},"properties":{"fid_zbg":"9263617","vyska_obj":45,"zdrojvys_p":"VGHMÚř","osm_dist_m":1198,"in_osm":false,"proposed:man_made":"chimney","proposed:height":"45"}},{"type":"Feature","geometry":{"type":"Point","coordinates":[18.313899,49.782049]},"properties":{"fid_zbg":"9263565","vyska_obj":111,"zdrojvys_p":"VGHMÚř","osm_dist_m":1,"in_osm":true,"proposed:man_made":"chimney","proposed:height":"111"}},{"type":"Feature","geometry":{"type":"Point","coordinates":[18.319183,49.836806]},"properties":{"fid_zbg":"9263535","vyska_obj":40,"zdrojvys_p":"VGHMÚř","in_osm":false,"proposed:man_made":"chimney","proposed:height":"40"}},{"type":"Feature","geometry":{"type":"Point","coordinates":[18.546547,49.893779]},"properties":{"fid_zbg":"9263620","osm_dist_m":1,"in_osm":true,"proposed:man_made":"chimney"}},{"type":"Feature","geometry":{"type":"Point","coordinates":[18.275559,49.729656]},"properties":{"fid_zbg":"9263890","vyska_obj":40,"zdrojvys_p":"VGHMÚř","osm_dist_m":1987,"in_osm":false,"proposed:man_made":"chimney","proposed:height":"40"}},{"type":"Feature","geometry":{"type":"Point","coordinates":[18.262295,49.811808]},"properties":{"fid_zbg":"9263837","vyska_obj":45,"zdrojvys_p":"VGHMÚř","osm_dist_m":909,"in_osm":false,"proposed:man_made":"chimney","proposed:height":"45"}},{"type":"Feature","geometry":{"type":"Point","coordinates":[18.355959,49.89457]},"properties":{"fid_zbg":"9263602","vyska_obj":40,"zdrojvys_p":"VGHMÚř","osm_dist_m":312,"in_osm":false,"proposed:man_made":"chimney","proposed:height":"40"}},{"type":"Feature","geometry":{"type":"Point","coordinates":[18.303132,49.771585]},"properties":{"fid_zbg":"9263885","vyska_obj":54,"zdrojvys_p":"VGHMÚř","osm_dist_m":1391,"in_osm":false,"proposed:man_made":"chimney","proposed:height":"54"}},{"type":"Feature","geometry":{"type":"Point","coordinates":[18.467868,49.83985]},"properties":{"fid_zbg":"9263665","vyska_obj":45,"zdrojvys_p":"VGHMÚř","osm_dist_m":0,"in_osm":true,"proposed:man_made":"chimney","proposed:height":"45"}},{"type":"Feature","geometry":{"type":"Point","coordinates":[18.267529,49.855423]},"properties":{"fid_zbg":"9263488","vyska_obj":76,"zdrojvys_p":"VGHMÚř","osm_dist_m":790,"in_osm":false,"proposed:man_made":"chimney","proposed:height":"76"}},{"type":"Feature","geometry":{"type":"Point","coordinates":[18.26145,49.810662]},"properties":{"fid_zbg":"9263840","vyska_obj":50,"zdrojvys_p":"VGHMÚř","osm_dist_m":1028,"in_osm":false,"proposed:man_made":"chimney","proposed:height":"50"}},{"type":"Feature","geometry":{"type":"Point","coordinates":[18.308635,49.797914]},"properties":{"fid_zbg":"9263624","vyska_obj":47,"zdrojvys_p":"VGHMÚř","osm_dist_m":387,"in_osm":false,"proposed:man_made":"chimney","proposed:height":"47"}},{"type":"Feature","geometry":{"type":"Point","coordinates":[18.234513,49.836031]},"properties":{"fid_zbg":"3631284370800640","vyska_obj":90,"zdrojvys_p":"VGHMÚř","osm_dist_m":8,"in_osm":true,"proposed:man_made":"chimney","proposed:height":"90"}},{"type":"Feature","geometry":{"type":"Point","coordinates":[18.266326,49.86913]},"properties":{"fid_zbg":"9263485","vyska_obj":77,"zdrojvys_p":"VGHMÚř","osm_dist_m":1,"in_osm":true,"proposed:man_made":"chimney","proposed:height":"77"}},{"type":"Feature","geometry":{"type":"Point","coordinates":[18.27789,49.860402]},"properties":{"fid_zbg":"9263499","vyska_obj":72,"zdrojvys_p":"VGHMÚř","osm_dist_m":182,"in_osm":false,"proposed:man_made":"chimney","proposed:height":"72"}},{"type":"Feature","geometry":{"type":"Point","coordinates":[18.218871,49.894962]},"properties":{"fid_zbg":"9263585","osm_dist_m":0,"in_osm":true,"proposed:man_made":"chimney"}},{"type":"Feature","geometry":{"type":"Point","coordinates":[18.46,49.909821]},"properties":{"fid_zbg":"9263595","vyska_obj":80,"zdrojvys_p":"VGHMÚř","osm_dist_m":2,"in_osm":true,"proposed:man_made":"chimney","proposed:height":"80"}},{"type":"Feature","geometry":{"type":"Point","coordinates":[18.327328,49.811752]},"properties":{"fid_zbg":"9263538","vyska_obj":52,"zdrojvys_p":"VGHMÚř","osm_dist_m":2,"in_osm":true,"proposed:man_made":"chimney","proposed:height":"52"}},{"type":"Feature","geometry":{"type":"Point","coordinates":[18.366005,49.899153]},"properties":{"fid_zbg":"9263591","osm_dist_m":174,"in_osm":false,"proposed:man_made":"chimney"}},{"type":"Feature","geometry":{"type":"Point","coordinates":[18.365244,49.82572]},"properties":{"fid_zbg":"9263670","vyska_obj":73,"zdrojvys_p":"VGHMÚř","in_osm":false,"proposed:man_made":"chimney","proposed:height":"73"}},{"type":"Feature","geometry":{"type":"Point","coordinates":[18.528931,49.861578]},"properties":{"fid_zbg":"9263635","in_osm":false,"proposed:man_made":"chimney"}},{"type":"Feature","geometry":{"type":"Point","coordinates":[18.523884,49.783966]},"properties":{"fid_zbg":"1963714412545111","in_osm":false,"proposed:man_made":"chimney"}},{"type":"Feature","geometry":{"type":"Point","coordinates":[18.229177,49.813104]},"properties":{"fid_zbg":"9263805","vyska_obj":45,"zdrojvys_p":"VGHMÚř","in_osm":false,"proposed:man_made":"chimney","proposed:height":"45"}},{"type":"Feature","geometry":{"type":"Point","coordinates":[18.324158,49.783389]},"properties":{"fid_zbg":"9263564","vyska_obj":82,"zdrojvys_p":"VGHMÚř","osm_dist_m":1,"in_osm":true,"proposed:man_made":"chimney","proposed:height":"82"}},{"type":"Feature","geometry":{"type":"Point","coordinates":[18.275745,49.859272]},"properties":{"fid_zbg":"9263498","vyska_obj":70,"zdrojvys_p":"VGHMÚř","osm_dist_m":140,"in_osm":false,"proposed:man_made":"chimney","proposed:height":"70"}},{"type":"Feature","geometry":{"type":"Point","coordinates":[18.244198,49.81829]},"properties":{"fid_zbg":"9263849","vyska_obj":50,"zdrojvys_p":"VGHMÚř","osm_dist_m":103,"in_osm":false,"proposed:man_made":"chimney","proposed:height":"50"}},{"type":"Feature","geometry":{"type":"Point","coordinates":[18.243039,49.818849]},"properties":{"fid_zbg":"9263804","vyska_obj":80,"zdrojvys_p":"VGHMÚř","osm_dist_m":2,"in_osm":true,"proposed:man_made":"chimney","proposed:height":"80"}},{"type":"Feature","geometry":{"type":"Point","coordinates":[18.121643,49.922273]},"properties":{"fid_zbg":"9263568","in_osm":false,"proposed:man_made":"chimney"}},{"type":"Feature","geometry":{"type":"Point","coordinates":[18.243051,49.850213]},"properties":{"fid_zbg":"9263532","vyska_obj":50,"zdrojvys_p":"VGHMÚř","osm_dist_m":839,"in_osm":false,"proposed:man_made":"chimney","proposed:height":"50"}},{"type":"Feature","geometry":{"type":"Point","coordinates":[18.345647,49.890088]},"properties":{"fid_zbg":"9263619","osm_dist_m":574,"in_osm":false,"proposed:man_made":"chimney"}},{"type":"Feature","geometry":{"type":"Point","coordinates":[18.549403,49.817103]},"properties":{"fid_zbg":"9263680","vyska_obj":83,"zdrojvys_p":"VGHMÚř","osm_dist_m":2,"in_osm":true,"proposed:man_made":"chimney","proposed:height":"83"}},{"type":"Feature","geometry":{"type":"Point","coordinates":[18.36912,49.775306]},"properties":{"fid_zbg":"9263686","vyska_obj":55,"zdrojvys_p":"VGHMÚř","in_osm":false,"proposed:man_made":"chimney","proposed:height":"55"}},{"type":"Feature","geometry":{"type":"Point","coordinates":[18.3081,49.790148]},"properties":{"fid_zbg":"9263630","vyska_obj":76,"zdrojvys_p":"VGHMÚř","osm_dist_m":4,"in_osm":true,"proposed:man_made":"chimney","proposed:height":"76"}},{"type":"Feature","geometry":{"type":"Point","coordinates":[18.31809,49.798956]},"properties":{"fid_zbg":"9263542","vyska_obj":81,"zdrojvys_p":"VGHMÚř","osm_dist_m":1,"in_osm":true,"proposed:man_made":"chimney","proposed:height":"81"}},{"type":"Feature","geometry":{"type":"Point","coordinates":[18.273243,49.816005]},"properties":{"fid_zbg":"9263863","vyska_obj":120,"zdrojvys_p":"VGHMÚř","osm_dist_m":4,"in_osm":true,"proposed:man_made":"chimney","proposed:height":"120"}},{"type":"Feature","geometry":{"type":"Point","coordinates":[18.316566,49.787866]},"properties":{"fid_zbg":"9263562","vyska_obj":55,"zdrojvys_p":"VGHMÚř","osm_dist_m":39,"in_osm":true,"proposed:man_made":"chimney","proposed:height":"55"}},{"type":"Feature","geometry":{"type":"Point","coordinates":[18.207967,49.819336]},"properties":{"fid_zbg":"9263810","vyska_obj":50,"zdrojvys_p":"VGHMÚř","in_osm":false,"proposed:man_made":"chimney","proposed:height":"50"}},{"type":"Feature","geometry":{"type":"Point","coordinates":[18.329513,49.789776]},"properties":{"fid_zbg":"9263557","vyska_obj":103,"zdrojvys_p":"VGHMÚř","osm_dist_m":2,"in_osm":true,"proposed:man_made":"chimney","proposed:height":"103"}},{"type":"Feature","geometry":{"type":"Point","coordinates":[18.275166,49.859739]},"properties":{"fid_zbg":"9263497","vyska_obj":72,"zdrojvys_p":"VGHMÚř","osm_dist_m":85,"in_osm":false,"proposed:man_made":"chimney","proposed:height":"72"}},{"type":"Feature","geometry":{"type":"Point","coordinates":[18.309542,49.788343]},"properties":{"fid_zbg":"9263627","vyska_obj":40,"zdrojvys_p":"VGHMÚř","osm_dist_m":3,"in_osm":true,"proposed:man_made":"chimney","proposed:height":"40"}},{"type":"Feature","geometry":{"type":"Point","coordinates":[18.190527,49.788478]},"properties":{"fid_zbg":"9263880","vyska_obj":50,"zdrojvys_p":"VGHMÚř","in_osm":false,"proposed:man_made":"chimney","proposed:height":"50"}},{"type":"Feature","geometry":{"type":"Point","coordinates":[18.526551,49.830634]},"properties":{"fid_zbg":"9263679","vyska_obj":66,"zdrojvys_p":"VGHMÚř","osm_dist_m":1,"in_osm":true,"proposed:man_made":"chimney","proposed:height":"66"}},{"type":"Feature","geometry":{"type":"Point","coordinates":[18.239852,49.841825]},"properties":{"fid_zbg":"9263530","vyska_obj":72,"zdrojvys_p":"VGHMÚř","osm_dist_m":429,"in_osm":false,"proposed:man_made":"chimney","proposed:height":"72"}},{"type":"Feature","geometry":{"type":"Point","coordinates":[18.309893,49.7869]},"properties":{"fid_zbg":"9263471","vyska_obj":54,"zdrojvys_p":"VGHMÚř","osm_dist_m":3,"in_osm":true,"proposed:man_made":"chimney","proposed:height":"54"}},{"type":"Feature","geometry":{"type":"Point","coordinates":[18.543484,49.8766]},"properties":{"fid_zbg":"9263652","vyska_obj":50,"zdrojvys_p":"VGHMÚř","osm_dist_m":1563,"in_osm":false,"proposed:man_made":"chimney","proposed:height":"50"}},{"type":"Feature","geometry":{"type":"Point","coordinates":[18.352943,49.89243]},"properties":{"fid_zbg":"9263608","vyska_obj":65,"zdrojvys_p":"VGHMÚř","osm_dist_m":18,"in_osm":true,"proposed:man_made":"chimney","proposed:height":"65"}},{"type":"Feature","geometry":{"type":"Point","coordinates":[18.27666,49.834635]},"properties":{"fid_zbg":"3748420460216320","osm_dist_m":1465,"in_osm":false,"proposed:man_made":"chimney"}},{"type":"Feature","geometry":{"type":"Point","coordinates":[18.322692,49.797653]},"properties":{"fid_zbg":"9263547","vyska_obj":81,"zdrojvys_p":"VGHMÚř","osm_dist_m":1,"in_osm":true,"proposed:man_made":"chimney","proposed:height":"81"}},{"type":"Feature","geometry":{"type":"Point","coordinates":[18.254285,49.819993]},"properties":{"fid_zbg":"9263827","vyska_obj":70,"zdrojvys_p":"VGHMÚř","osm_dist_m":804,"in_osm":false,"proposed:man_made":"chimney","proposed:height":"70"}},{"type":"Feature","geometry":{"type":"Point","coordinates":[18.2113,49.831891]},"properties":{"fid_zbg":"9263523","vyska_obj":102,"zdrojvys_p":"VGHMÚř","osm_dist_m":4,"in_osm":true,"proposed:man_made":"chimney","proposed:height":"102"}},{"type":"Feature","geometry":{"type":"Point","coordinates":[18.21058,49.814021]},"properties":{"fid_zbg":"9263807","vyska_obj":50,"zdrojvys_p":"VGHMÚř","in_osm":false,"proposed:man_made":"chimney","proposed:height":"50"}},{"type":"Feature","geometry":{"type":"Point","coordinates":[18.207295,49.819203]},"properties":{"fid_zbg":"9263808","in_osm":false,"proposed:man_made":"chimney"}},{"type":"Feature","geometry":{"type":"Point","coordinates":[18.320928,49.791301]},"properties":{"fid_zbg":"9263560","vyska_obj":82,"zdrojvys_p":"VGHMÚř","osm_dist_m":171,"in_osm":false,"proposed:man_made":"chimney","proposed:height":"82"}},{"type":"Feature","geometry":{"type":"Point","coordinates":[18.469487,49.90521]},"properties":{"fid_zbg":"9263598","vyska_obj":270,"zdrojvys_p":"VGHMÚř","osm_dist_m":11,"in_osm":true,"proposed:man_made":"chimney","proposed:height":"270"}},{"type":"Feature","geometry":{"type":"Point","coordinates":[18.320982,49.793341]},"properties":{"fid_zbg":"9263552","vyska_obj":85,"zdrojvys_p":"VGHMÚř","osm_dist_m":116,"in_osm":false,"proposed:man_made":"chimney","proposed:height":"85"}},{"type":"Feature","geometry":{"type":"Point","coordinates":[18.47821,49.820485]},"properties":{"fid_zbg":"37070232300290048","zdrojvys_p":"Neuvedeno","osm_dist_m":285,"in_osm":false,"proposed:man_made":"chimney"}},{"type":"Feature","geometry":{"type":"Point","coordinates":[18.322338,49.792874]},"properties":{"fid_zbg":"38052225402011648","zdrojvys_p":"Neuvedeno","osm_dist_m":31,"in_osm":true,"proposed:man_made":"chimney"}},{"type":"Feature","geometry":{"type":"Point","coordinates":[18.311727,49.809724]},"properties":{"fid_zbg":"37703796666662912","zdrojvys_p":"Neuvedeno","osm_dist_m":506,"in_osm":false,"proposed:man_made":"chimney"}},{"type":"Feature","geometry":{"type":"Point","coordinates":[18.322423,49.792792]},"properties":{"fid_zbg":"38052225452343296","zdrojvys_p":"Neuvedeno","osm_dist_m":27,"in_osm":true,"proposed:man_made":"chimney"}},{"type":"Feature","geometry":{"type":"Point","coordinates":[18.31152,49.809761]},"properties":{"fid_zbg":"37703796817657856","zdrojvys_p":"Neuvedeno","osm_dist_m":520,"in_osm":false,"proposed:man_made":"chimney"}},{"type":"Feature","geometry":{"type":"Point","coordinates":[18.317975,49.796694]},"properties":{"fid_zbg":"9263544","vyska_obj":85,"zdrojvys_p":"VGHMÚř","osm_dist_m":4,"in_osm":true,"proposed:man_made":"chimney","proposed:height":"85"}},{"type":"Feature","geometry":{"type":"Point","coordinates":[18.273258,49.81906]},"properties":{"fid_zbg":"38215407500263424","vyska_obj":40,"zdrojvys_p":"VGHMÚř","osm_dist_m":216,"in_osm":false,"proposed:man_made":"chimney","proposed:height":"40"}},{"type":"Feature","geometry":{"type":"Point","coordinates":[18.27188,49.818697]},"properties":{"fid_zbg":"38215407449931776","vyska_obj":42,"zdrojvys_p":"VGHMÚř","osm_dist_m":308,"in_osm":false,"proposed:man_made":"chimney","proposed:height":"42"}},{"type":"Feature","geometry":{"type":"Point","coordinates":[18.25537,49.809721]},"properties":{"fid_zbg":"9263873","vyska_obj":40,"zdrojvys_p":"VGHMÚř","osm_dist_m":1343,"in_osm":false,"proposed:man_made":"chimney","proposed:height":"40"}},{"type":"Feature","geometry":{"type":"Point","coordinates":[18.481692,49.860689]},"properties":{"fid_zbg":"9263664","in_osm":false,"proposed:man_made":"chimney"}},{"type":"Feature","geometry":{"type":"Point","coordinates":[18.252848,49.817951]},"properties":{"fid_zbg":"9263830","vyska_obj":45,"zdrojvys_p":"VGHMÚř","osm_dist_m":702,"in_osm":false,"proposed:man_made":"chimney","proposed:height":"45"}},{"type":"Feature","geometry":{"type":"Point","coordinates":[18.247469,49.822134]},"properties":{"fid_zbg":"9263850","vyska_obj":69,"zdrojvys_p":"VGHMÚř","osm_dist_m":465,"in_osm":false,"proposed:man_made":"chimney","proposed:height":"69"}},{"type":"Feature","geometry":{"type":"Point","coordinates":[18.269277,49.860295]},"properties":{"fid_zbg":"9263496","osm_dist_m":428,"in_osm":false,"proposed:man_made":"chimney"}},{"type":"Feature","geometry":{"type":"Point","coordinates":[18.237172,49.848401]},"properties":{"fid_zbg":"9263519","vyska_obj":92,"zdrojvys_p":"VGHMÚř","osm_dist_m":897,"in_osm":false,"proposed:man_made":"chimney","proposed:height":"92"}},{"type":"Feature","geometry":{"type":"Point","coordinates":[18.262855,49.8104]},"properties":{"fid_zbg":"9263876","osm_dist_m":966,"in_osm":false,"proposed:man_made":"chimney"}},{"type":"Feature","geometry":{"type":"Point","coordinates":[18.402475,49.841958]},"properties":{"fid_zbg":"9263660","vyska_obj":56,"zdrojvys_p":"VGHMÚř","in_osm":false,"proposed:man_made":"chimney","proposed:height":"56"}},{"type":"Feature","geometry":{"type":"Point","coordinates":[18.32199,49.790127]},"properties":{"fid_zbg":"56300855187472384","zdrojvys_p":"Neuvedeno","osm_dist_m":276,"in_osm":false,"proposed:man_made":"chimney"}},{"type":"Feature","geometry":{"type":"Point","coordinates":[18.300077,49.787952]},"properties":{"fid_zbg":"57616923529052160","zdrojvys_p":"Neuvedeno","osm_dist_m":629,"in_osm":false,"proposed:man_made":"chimney"}}]}