{"type": "FeatureCollection", "features": [{"type": "Feature", "geometry": {"type": "Polygon", "coordinates": [[[17.551892, 48.959812], [17.552403, 48.960175], [17.552648, 48.960348], [17.552774, 48.960444], [17.55215, 48.960805], [17.551258, 48.960167], [17.551764, 48.959888], [17.551838, 48.959844], [17.551892, 48.959812]]]}, "properties": {"ref:zabaged": "473991191", "zabaged_type": "solární", "name": null, "id_eru": "03126_T11", "vykon_MW": 0.34800000000000003, "area_m2": 5844, "osm_power_plant_within_300m": false, "osm_solar_object_within_300m": false}}, {"type": "Feature", "geometry": {"type": "Polygon", "coordinates": [[[17.37696, 48.953587], [17.37696, 48.953541], [17.376972, 48.953491], [17.37685, 48.953489], [17.376843, 48.953472], [17.376849, 48.953352], [17.376943, 48.953355], [17.376948, 48.953203], [17.37694, 48.952746], [17.376934, 48.952603], [17.376919, 48.952474], [17.376872, 48.952213], [17.376824, 48.952001], [17.376817, 48.951932], [17.376831, 48.951909], [17.37686, 48.951903], [17.376895, 48.951907], [17.376921, 48.951924], [17.377108, 48.952114], [17.377218, 48.952279], [17.377318, 48.952418], [17.377436, 48.952593], [17.377527, 48.952793], [17.377568, 48.952909], [17.377583, 48.952988], [17.377588, 48.953036], [17.377593, 48.953238], [17.377588, 48.95338], [17.377598, 48.95348], [17.377605, 48.953568], [17.377607, 48.953584], [17.377354, 48.953598], [17.377362, 48.953631], [17.377251, 48.953639], [17.377137, 48.953598], [17.376987, 48.953588], [17.37696, 48.953587]]]}, "properties": {"ref:zabaged": "477597607", "zabaged_type": "vodní", "name": null, "id_eru": "02096_T11", "vykon_MW": 0.398, "area_m2": 6966, "osm_power_plant_within_300m": false, "osm_solar_object_within_300m": null}}, {"type": "Feature", "geometry": {"type": "Polygon", "coordinates": [[[17.613942, 49.209362], [17.613332, 49.209225], [17.61321, 49.209178], [17.613278, 49.209005], [17.613304, 49.208894], [17.61333, 49.208769], [17.61334, 49.20874], [17.613357, 49.208719], [17.613401, 49.208689], [17.613525, 49.208614], [17.613656, 49.208543], [17.613736, 49.208505], [17.61382, 49.20847], [17.613881, 49.208031], [17.614154, 49.20804], [17.614832, 49.207906], [17.615416, 49.208022], [17.614835, 49.208585], [17.614504, 49.208777], [17.613942, 49.209362]]]}, "properties": {"ref:zabaged": "474626794", "zabaged_type": "solární", "name": null, "id_eru": "15067_T11", "vykon_MW": 0.55, "area_m2": 12493, "osm_power_plant_within_300m": false, "osm_solar_object_within_300m": true}}, {"type": "Feature", "geometry": {"type": "Polygon", "coordinates": [[[17.302007, 48.887381], [17.302319, 48.88749], [17.302956, 48.8877], [17.3031, 48.887751], [17.302763, 48.888175], [17.302547, 48.888459], [17.302068, 48.888358], [17.301632, 48.888325], [17.301533, 48.888303], [17.301461, 48.888278], [17.301434, 48.888233], [17.301423, 48.888153], [17.301362, 48.888128], [17.301416, 48.888064], [17.301474, 48.888082], [17.301679, 48.887813], [17.302007, 48.887381]]]}, "properties": {"ref:zabaged": "27937816830803968", "zabaged_type": "plynová a spalovací", "name": null, "id_eru": "18133_T11", "vykon_MW": 0.9390000000000001, "area_m2": 8781, "osm_power_plant_within_300m": false, "osm_solar_object_within_300m": null}}, {"type": "Feature", "geometry": {"type": "Polygon", "coordinates": [[[17.466402, 49.046842], [17.46662, 49.04777], [17.466375, 49.047816], [17.466132, 49.046883], [17.466402, 49.046842]]]}, "properties": {"ref:zabaged": "476888282", "zabaged_type": "solární", "name": null, "id_eru": "13485_T11", "vykon_MW": 0.095, "area_m2": 2029, "osm_power_plant_within_300m": false, "osm_solar_object_within_300m": true}}, {"type": "Feature", "geometry": {"type": "Polygon", "coordinates": [[[17.401911, 48.971417], [17.40241, 48.971196], [17.40276, 48.971056], [17.40321, 48.970859], [17.40353, 48.971099], [17.4037, 48.971232], [17.404177, 48.97161], [17.404918, 48.972174], [17.404613, 48.972188], [17.404567, 48.972205], [17.404597, 48.972472], [17.402531, 48.97259], [17.402413, 48.972597], [17.401991, 48.971616], [17.401911, 48.971417]]]}, "properties": {"ref:zabaged": "395247173", "zabaged_type": "solární", "name": null, "id_eru": "05559_T11", "vykon_MW": 1, "area_m2": 25833, "osm_power_plant_within_300m": true, "osm_solar_object_within_300m": true}}, {"type": "Feature", "geometry": {"type": "Polygon", "coordinates": [[[17.476192, 49.148076], [17.476234, 49.14816], [17.476293, 49.148253], [17.476379, 49.148347], [17.476522, 49.148452], [17.476809, 49.148588], [17.477082, 49.14909], [17.476473, 49.149222], [17.47627, 49.149324], [17.476114, 49.149092], [17.475943, 49.148617], [17.47581, 49.148183], [17.476192, 49.148076]]]}, "properties": {"ref:zabaged": "482672170", "zabaged_type": "plynová a spalovací", "name": null, "id_eru": "02892_T11", "vykon_MW": 0.49500000000000005, "area_m2": 6672, "osm_power_plant_within_300m": false, "osm_solar_object_within_300m": null}}, {"type": "Feature", "geometry": {"type": "Polygon", "coordinates": [[[17.65169, 49.021066], [17.651697, 49.021013], [17.651991, 49.020992], [17.652456, 49.020916], [17.653242, 49.020704], [17.653425, 49.020657], [17.653617, 49.020605], [17.653768, 49.020562], [17.653861, 49.020531], [17.65398, 49.020487], [17.654071, 49.020449], [17.654176, 49.020402], [17.654317, 49.020324], [17.654419, 49.020267], [17.654508, 49.020208], [17.65459, 49.020148], [17.654664, 49.0201], [17.65472, 49.020053], [17.654795, 49.019991], [17.654856, 49.019932], [17.655596, 49.020677], [17.655917, 49.021058], [17.656174, 49.021427], [17.656335, 49.021684], [17.656262, 49.021727], [17.656058, 49.021697], [17.655829, 49.021661], [17.655632, 49.021631], [17.655389, 49.021594], [17.655023, 49.021548], [17.654818, 49.021521], [17.654633, 49.021495], [17.654526, 49.021479], [17.654263, 49.021446], [17.653954, 49.021399], [17.653653, 49.021351], [17.653399, 49.021313], [17.653169, 49.021279], [17.652936, 49.021244], [17.652726, 49.021212], [17.652514, 49.021183], [17.652229, 49.021139], [17.652019, 49.021109], [17.651858, 49.021089], [17.65169, 49.021066]]]}, "properties": {"ref:zabaged": "486479884", "zabaged_type": "solární", "name": null, "id_eru": "14131_T11", "vykon_MW": 3.011, "area_m2": 27561, "osm_power_plant_within_300m": false, "osm_solar_object_within_300m": true}}, {"type": "Feature", "geometry": {"type": "Polygon", "coordinates": [[[17.472913, 49.050155], [17.472863, 49.050224], [17.472259, 49.050217], [17.47192, 49.050329], [17.471033, 49.050569], [17.470944, 49.050421], [17.470985, 49.050409], [17.471108, 49.050371], [17.471253, 49.050341], [17.471357, 49.050313], [17.471521, 49.050279], [17.47165, 49.050249], [17.471742, 49.050234], [17.472006, 49.050187], [17.472188, 49.050165], [17.472274, 49.050159], [17.472409, 49.050149], [17.472573, 49.050146], [17.472787, 49.050149], [17.472913, 49.050155]]]}, "properties": {"ref:zabaged": "482671982", "zabaged_type": "solární", "name": null, "id_eru": "15520_T11", "vykon_MW": 0.15, "area_m2": 1828, "osm_power_plant_within_300m": true, "osm_solar_object_within_300m": true}}, {"type": "Feature", "geometry": {"type": "Polygon", "coordinates": [[[17.516559, 49.204668], [17.516037, 49.204681], [17.516028, 49.204575], [17.516027, 49.204553], [17.51604, 49.204552], [17.516039, 49.204538], [17.516026, 49.204538], [17.516025, 49.204516], [17.515607, 49.20452], [17.515375, 49.204524], [17.515365, 49.204399], [17.515359, 49.204149], [17.515359, 49.204004], [17.515076, 49.204005], [17.51507, 49.203702], [17.515049, 49.202962], [17.514955, 49.199257], [17.514788, 49.199085], [17.515074, 49.199077], [17.51508, 49.199359], [17.51513, 49.200559], [17.51516, 49.20199], [17.515192, 49.202951], [17.516485, 49.20294], [17.516559, 49.204668]]]}, "properties": {"ref:zabaged": "474628678", "zabaged_type": "solární", "name": null, "id_eru": "14645_T11", "vykon_MW": 1.177, "area_m2": 22358, "osm_power_plant_within_300m": false, "osm_solar_object_within_300m": false}}, {"type": "Feature", "geometry": {"type": "Polygon", "coordinates": [[[17.727176, 48.986963], [17.727271, 48.986611], [17.727874, 48.986645], [17.727821, 48.986892], [17.72779, 48.986919], [17.727501, 48.986955], [17.727331, 48.986976], [17.727176, 48.986963]]]}, "properties": {"ref:zabaged": "455598832", "zabaged_type": "solární", "name": null, "id_eru": "13530_T11", "vykon_MW": 0.029, "area_m2": 1630, "osm_power_plant_within_300m": false, "osm_solar_object_within_300m": false}}, {"type": "Feature", "geometry": {"type": "Polygon", "coordinates": [[[17.332305, 48.921117], [17.332596, 48.921898], [17.331933, 48.921979], [17.332274, 48.922905], [17.332201, 48.92291], [17.331894, 48.92293], [17.331803, 48.922936], [17.331418, 48.92196], [17.331888, 48.921938], [17.331343, 48.920468], [17.332056, 48.920438], [17.332305, 48.921117]]]}, "properties": {"ref:zabaged": "395510122", "zabaged_type": "solární", "name": null, "id_eru": "09592_T11", "vykon_MW": 0.561, "area_m2": 12668, "osm_power_plant_within_300m": true, "osm_solar_object_within_300m": true}}, {"type": "Feature", "geometry": {"type": "Polygon", "coordinates": [[[17.284104, 49.193929], [17.283919, 49.193894], [17.284317, 49.19321], [17.284523, 49.192813], [17.285076, 49.1921], [17.285434, 49.19223], [17.28546, 49.19226], [17.285506, 49.192308], [17.285136, 49.19266], [17.28635, 49.193161], [17.286148, 49.193397], [17.286127, 49.193422], [17.286099, 49.193454], [17.285592, 49.194072], [17.285466, 49.194092], [17.285202, 49.194014], [17.28481, 49.193919], [17.284441, 49.193834], [17.284362, 49.19398], [17.284104, 49.193929]]]}, "properties": {"ref:zabaged": "396392658", "zabaged_type": "solární", "name": null, "id_eru": "14971_T11", "vykon_MW": 1.449, "area_m2": 19565, "osm_power_plant_within_300m": false, "osm_solar_object_within_300m": true}}, {"type": "Feature", "geometry": {"type": "Polygon", "coordinates": [[[17.708935, 48.906463], [17.709995, 48.906766], [17.710056, 48.906833], [17.709429, 48.907151], [17.708581, 48.90757], [17.70818, 48.907279], [17.708228, 48.907161], [17.708398, 48.907081], [17.708409, 48.906323], [17.708935, 48.906463]]]}, "properties": {"ref:zabaged": "455599504", "zabaged_type": "solární", "name": null, "id_eru": "15005_T11", "vykon_MW": 0.343, "area_m2": 9649, "osm_power_plant_within_300m": false, "osm_solar_object_within_300m": true}}, {"type": "Feature", "geometry": {"type": "Polygon", "coordinates": [[[17.274029, 49.039041], [17.273315, 49.03893], [17.273154, 49.03888], [17.273201, 49.038595], [17.273235, 49.038444], [17.27308, 49.038451], [17.273103, 49.038253], [17.273113, 49.038207], [17.273169, 49.038042], [17.273227, 49.037894], [17.27393, 49.038004], [17.274036, 49.037899], [17.274132, 49.037813], [17.274317, 49.03763], [17.274658, 49.037652], [17.274307, 49.038433], [17.274165, 49.038777], [17.274103, 49.03892], [17.274029, 49.039041]]]}, "properties": {"ref:zabaged": "47553249980448768", "zabaged_type": "solární", "name": null, "id_eru": "35752_T11", "vykon_MW": 0.75, "area_m2": 10614, "osm_power_plant_within_300m": false, "osm_solar_object_within_300m": true}}, {"type": "Feature", "geometry": {"type": "Polygon", "coordinates": [[[17.389577, 48.940581], [17.390022, 48.940805], [17.390251, 48.941208], [17.390371, 48.941567], [17.390319, 48.94161], [17.3904, 48.941657], [17.390431, 48.941846], [17.390215, 48.942058], [17.388681, 48.943633], [17.388928, 48.943752], [17.38712, 48.945637], [17.387037, 48.945743], [17.386887, 48.945658], [17.385549, 48.944889], [17.386922, 48.943819], [17.386546, 48.94361], [17.3878, 48.942221], [17.388635, 48.941381], [17.389577, 48.940581]]]}, "properties": {"ref:zabaged": "473991297", "zabaged_type": "solární", "name": null, "id_eru": "14987_T11", "vykon_MW": 2.92, "area_m2": 75517, "osm_power_plant_within_300m": false, "osm_solar_object_within_300m": false}}, {"type": "Feature", "geometry": {"type": "Polygon", "coordinates": [[[17.456825, 49.056665], [17.457046, 49.056728], [17.456469, 49.057622], [17.455313, 49.0573], [17.455609, 49.056849], [17.455695, 49.056804], [17.455816, 49.056795], [17.45659, 49.05701], [17.456825, 49.056665]]]}, "properties": {"ref:zabaged": "476887970", "zabaged_type": "solární", "name": null, "id_eru": "14969_T11", "vykon_MW": 0.398, "area_m2": 6759, "osm_power_plant_within_300m": false, "osm_solar_object_within_300m": true}}, {"type": "Feature", "geometry": {"type": "Polygon", "coordinates": [[[17.55215, 48.960805], [17.552774, 48.960444], [17.554268, 48.961605], [17.554357, 48.961672], [17.554892, 48.962104], [17.555376, 48.962533], [17.554845, 48.962536], [17.554366, 48.962778], [17.55389, 48.962761], [17.552059, 48.961261], [17.551903, 48.961146], [17.551784, 48.961056], [17.551839, 48.960985], [17.55215, 48.960805]]]}, "properties": {"ref:zabaged": "473989791", "zabaged_type": "solární", "name": null, "id_eru": "14986_T11", "vykon_MW": 1.021, "area_m2": 27725, "osm_power_plant_within_300m": false, "osm_solar_object_within_300m": false}}, {"type": "Feature", "geometry": {"type": "Polygon", "coordinates": [[[17.524227, 49.192082], [17.524138, 49.192055], [17.52393, 49.191987], [17.523734, 49.191907], [17.523539, 49.191822], [17.523403, 49.191767], [17.522871, 49.191597], [17.522194, 49.191372], [17.522597, 49.191108], [17.523725, 49.190355], [17.523989, 49.190526], [17.524354, 49.190764], [17.524465, 49.190849], [17.524011, 49.191151], [17.523946, 49.191194], [17.523628, 49.191409], [17.524355, 49.191867], [17.524227, 49.192082]]]}, "properties": {"ref:zabaged": "474536547", "zabaged_type": "solární", "name": null, "id_eru": "10284_T11", "vykon_MW": 0.799, "area_m2": 14049, "osm_power_plant_within_300m": true, "osm_solar_object_within_300m": true}}, {"type": "Feature", "geometry": {"type": "Polygon", "coordinates": [[[17.348526, 49.021995], [17.349364, 49.021691], [17.349716, 49.021596], [17.350265, 49.02124], [17.350623, 49.021256], [17.351025, 49.021007], [17.351194, 49.02101], [17.351929, 49.020763], [17.352294, 49.021048], [17.352836, 49.021823], [17.352753, 49.021856], [17.350747, 49.02264], [17.350525, 49.022598], [17.348773, 49.022278], [17.348526, 49.021995]]]}, "properties": {"ref:zabaged": "34415055466397696", "zabaged_type": "solární", "name": null, "id_eru": "34658_T11", "vykon_MW": 0.5, "area_m2": 35038, "osm_power_plant_within_300m": false, "osm_solar_object_within_300m": true}}, {"type": "Feature", "geometry": {"type": "Polygon", "coordinates": [[[17.701909, 49.105031], [17.700712, 49.10478], [17.700707, 49.104721], [17.700799, 49.104547], [17.701375, 49.104556], [17.701376, 49.104736], [17.701901, 49.104855], [17.701909, 49.105031]]]}, "properties": {"ref:zabaged": "474842788", "zabaged_type": "solární", "name": null, "id_eru": "15315_T11", "vykon_MW": 0.624, "area_m2": 2319, "osm_power_plant_within_300m": false, "osm_solar_object_within_300m": false}}, {"type": "Feature", "geometry": {"type": "Polygon", "coordinates": [[[17.392539, 49.156026], [17.392108, 49.156257], [17.392015, 49.156214], [17.391821, 49.156034], [17.39172, 49.155939], [17.391476, 49.155702], [17.391281, 49.155518], [17.391135, 49.155353], [17.390989, 49.155199], [17.390884, 49.155065], [17.391083, 49.154982], [17.391251, 49.154912], [17.391342, 49.154874], [17.391826, 49.155419], [17.392072, 49.155671], [17.392539, 49.156026]]]}, "properties": {"ref:zabaged": "474540140", "zabaged_type": "solární", "name": null, "id_eru": "09328_T11", "vykon_MW": 0.075, "area_m2": 6276, "osm_power_plant_within_300m": false, "osm_solar_object_within_300m": true}}, {"type": "Feature", "geometry": {"type": "Polygon", "coordinates": [[[17.254594, 48.969132], [17.254708, 48.969104], [17.255707, 48.96893], [17.255783, 48.969026], [17.256144, 48.968968], [17.256289, 48.969337], [17.256957, 48.969433], [17.257352, 48.970369], [17.25738, 48.970477], [17.256035, 48.970798], [17.254876, 48.971077], [17.254197, 48.969891], [17.254633, 48.969829], [17.254594, 48.969132]]]}, "properties": {"ref:zabaged": "477596887", "zabaged_type": "solární", "name": null, "id_eru": "06158_T11", "vykon_MW": 1.32, "area_m2": 35801, "osm_power_plant_within_300m": false, "osm_solar_object_within_300m": true}}, {"type": "Feature", "geometry": {"type": "Polygon", "coordinates": [[[17.525503, 48.991991], [17.525592, 48.991996], [17.525601, 48.991935], [17.525788, 48.991941], [17.525823, 48.991886], [17.526315, 48.992161], [17.52702, 48.992151], [17.527185, 48.992162], [17.527169, 48.992277], [17.527159, 48.992431], [17.527154, 48.992589], [17.526973, 48.993712], [17.526923, 48.994041], [17.52663, 48.994018], [17.526637, 48.993941], [17.525804, 48.993492], [17.525676, 48.99347], [17.525659, 48.993447], [17.525642, 48.99342], [17.525626, 48.993388], [17.525614, 48.993358], [17.525609, 48.993341], [17.525606, 48.993323], [17.525569, 48.993074], [17.52551, 48.99259], [17.525508, 48.992396], [17.525503, 48.991991]]]}, "properties": {"ref:zabaged": "454180431", "zabaged_type": "solární", "name": null, "id_eru": "13346_T11", "vykon_MW": 0.8130000000000001, "area_m2": 20946, "osm_power_plant_within_300m": false, "osm_solar_object_within_300m": true}}, {"type": "Feature", "geometry": {"type": "Polygon", "coordinates": [[[17.286012, 49.194234], [17.286413, 49.193601], [17.286539, 49.1936], [17.286618, 49.193605], [17.286682, 49.193614], [17.286758, 49.193633], [17.287617, 49.193906], [17.288006, 49.194029], [17.287854, 49.194722], [17.287126, 49.194592], [17.286012, 49.194234]]]}, "properties": {"ref:zabaged": "396397399", "zabaged_type": "solární", "name": null, "id_eru": "14971_T11", "vykon_MW": 1.449, "area_m2": 11146, "osm_power_plant_within_300m": false, "osm_solar_object_within_300m": true}}, {"type": "Feature", "geometry": {"type": "Polygon", "coordinates": [[[17.501855, 49.176528], [17.501831, 49.17647], [17.502435, 49.176377], [17.502486, 49.176488], [17.50237, 49.176595], [17.502056, 49.176872], [17.502017, 49.176914], [17.501914, 49.176876], [17.501855, 49.176528]]]}, "properties": {"ref:zabaged": "474539344", "zabaged_type": "solární", "name": null, "id_eru": "08880_T11", "vykon_MW": 0.024, "area_m2": 1589, "osm_power_plant_within_300m": true, "osm_solar_object_within_300m": false}}, {"type": "Feature", "geometry": {"type": "Polygon", "coordinates": [[[17.35644, 49.078082], [17.356436, 49.078046], [17.356454, 49.07802], [17.356677, 49.077897], [17.356786, 49.077837], [17.356959, 49.077745], [17.357142, 49.077664], [17.357309, 49.077588], [17.357431, 49.077534], [17.357677, 49.077413], [17.357875, 49.077299], [17.358085, 49.077167], [17.358218, 49.077062], [17.358284, 49.077007], [17.358422, 49.076905], [17.358602, 49.077062], [17.358764, 49.077209], [17.358895, 49.077344], [17.358979, 49.077442], [17.359095, 49.077572], [17.35923, 49.077706], [17.359378, 49.077865], [17.359515, 49.078014], [17.359626, 49.078132], [17.359723, 49.078212], [17.359742, 49.078227], [17.35963, 49.078306], [17.359497, 49.07837], [17.359402, 49.078412], [17.359231, 49.078476], [17.359032, 49.078541], [17.358792, 49.078618], [17.358641, 49.078661], [17.358502, 49.078698], [17.358271, 49.078773], [17.358086, 49.078842], [17.357669, 49.078984], [17.357631, 49.078974], [17.35756, 49.078922], [17.357385, 49.078783], [17.35722, 49.078653], [17.357061, 49.078537], [17.356892, 49.078407], [17.356735, 49.078286], [17.356606, 49.078199], [17.356478, 49.078105], [17.35644, 49.078082]]]}, "properties": {"ref:zabaged": "481052058", "zabaged_type": "solární", "name": null, "id_eru": "07239_T11", "vykon_MW": 1, "area_m2": 28703, "osm_power_plant_within_300m": false, "osm_solar_object_within_300m": true}}, {"type": "Feature", "geometry": {"type": "Polygon", "coordinates": [[[17.600283, 48.971622], [17.59876, 48.97144], [17.5987, 48.971136], [17.599006, 48.971083], [17.599011, 48.970942], [17.598559, 48.970693], [17.598753, 48.970376], [17.599629, 48.97087], [17.599742, 48.970827], [17.600493, 48.971389], [17.600283, 48.971622]]]}, "properties": {"ref:zabaged": "477502084", "zabaged_type": "plynová a spalovací", "name": null, "id_eru": "15885_T11", "vykon_MW": 0.995, "area_m2": 9544, "osm_power_plant_within_300m": false, "osm_solar_object_within_300m": null}}, {"type": "Feature", "geometry": {"type": "Polygon", "coordinates": [[[17.346943, 49.035749], [17.346892, 49.035433], [17.347067, 49.035465], [17.347209, 49.035493], [17.347371, 49.035528], [17.347396, 49.035532], [17.347301, 49.035699], [17.346943, 49.035749]]]}, "properties": {"ref:zabaged": "476887696", "zabaged_type": "solární", "name": null, "id_eru": "11525_T11", "vykon_MW": 0.021, "area_m2": 856, "osm_power_plant_within_300m": false, "osm_solar_object_within_300m": false}}, {"type": "Feature", "geometry": {"type": "Polygon", "coordinates": [[[17.460132, 48.983671], [17.46083, 48.98032], [17.461751, 48.980422], [17.46168, 48.980628], [17.461014, 48.983621], [17.460132, 48.983671]]]}, "properties": {"ref:zabaged": "477501608", "zabaged_type": "solární", "name": null, "id_eru": "02855_T11", "vykon_MW": 0.9, "area_m2": 23867, "osm_power_plant_within_300m": false, "osm_solar_object_within_300m": true}}, {"type": "Feature", "geometry": {"type": "Polygon", "coordinates": [[[17.401842, 48.974621], [17.398901, 48.974571], [17.398854, 48.974248], [17.398819, 48.974069], [17.398752, 48.973794], [17.398736, 48.973747], [17.398713, 48.97369], [17.39869, 48.97364], [17.398639, 48.973552], [17.398503, 48.973316], [17.398341, 48.973097], [17.398482, 48.973044], [17.400308, 48.972615], [17.401614, 48.972304], [17.401646, 48.972384], [17.401692, 48.972672], [17.401758, 48.973166], [17.401815, 48.974028], [17.401842, 48.974621]]]}, "properties": {"ref:zabaged": "395246063", "zabaged_type": "solární", "name": null, "id_eru": "13059_T11", "vykon_MW": 2.2, "area_m2": 48956, "osm_power_plant_within_300m": true, "osm_solar_object_within_300m": true}}, {"type": "Feature", "geometry": {"type": "Polygon", "coordinates": [[[17.435202, 48.906648], [17.435395, 48.907152], [17.434901, 48.907217], [17.434957, 48.907382], [17.434794, 48.907368], [17.43433, 48.907433], [17.434274, 48.907371], [17.434179, 48.907315], [17.434131, 48.907287], [17.434104, 48.907197], [17.434072, 48.906974], [17.434168, 48.906917], [17.434286, 48.906923], [17.434304, 48.90666], [17.434507, 48.906663], [17.434569, 48.906667], [17.434575, 48.906626], [17.435202, 48.906648]]]}, "properties": {"ref:zabaged": "477501684", "zabaged_type": "solární", "name": null, "id_eru": "15346_T11", "vykon_MW": 0.266, "area_m2": 6174, "osm_power_plant_within_300m": false, "osm_solar_object_within_300m": true}}, {"type": "Feature", "geometry": {"type": "Polygon", "coordinates": [[[17.618975, 49.23538], [17.619245, 49.234796], [17.619371, 49.23482], [17.619483, 49.234576], [17.621291, 49.23494], [17.621073, 49.235412], [17.620905, 49.235764], [17.618975, 49.23538]]]}, "properties": {"ref:zabaged": "476869765", "zabaged_type": "solární", "name": null, "id_eru": "05976_T11", "vykon_MW": 0.55, "area_m2": 13881, "osm_power_plant_within_300m": true, "osm_solar_object_within_300m": true}}, {"type": "Feature", "geometry": {"type": "Polygon", "coordinates": [[[17.529687, 49.042616], [17.52938, 49.042358], [17.52952, 49.042282], [17.529858, 49.042502], [17.529687, 49.042616]]]}, "properties": {"ref:zabaged": "476892150", "zabaged_type": "solární", "name": null, "id_eru": "15267_T11", "vykon_MW": 0.016, "area_m2": 552, "osm_power_plant_within_300m": false, "osm_solar_object_within_300m": false}}, {"type": "Feature", "geometry": {"type": "Polygon", "coordinates": [[[17.253297, 48.971396], [17.252837, 48.971107], [17.252971, 48.971007], [17.253026, 48.970864], [17.252885, 48.970449], [17.252892, 48.969604], [17.253196, 48.969293], [17.253327, 48.969276], [17.25383, 48.969341], [17.254189, 48.969258], [17.254594, 48.969132], [17.254633, 48.969829], [17.254197, 48.969891], [17.254876, 48.971077], [17.254791, 48.971094], [17.253297, 48.971396]]]}, "properties": {"ref:zabaged": "477592533", "zabaged_type": "solární", "name": null, "id_eru": "03954_T11", "vykon_MW": 0.677, "area_m2": 26417, "osm_power_plant_within_300m": false, "osm_solar_object_within_300m": true}}, {"type": "Feature", "geometry": {"type": "Polygon", "coordinates": [[[17.281826, 49.192115], [17.2818, 49.191792], [17.28182, 49.191609], [17.283025, 49.191744], [17.283277, 49.191758], [17.283302, 49.191421], [17.283334, 49.191243], [17.283344, 49.190914], [17.283684, 49.190916], [17.283936, 49.191072], [17.284079, 49.19114], [17.284338, 49.191228], [17.284053, 49.191788], [17.284943, 49.191971], [17.284903, 49.192037], [17.285076, 49.1921], [17.284523, 49.192813], [17.284317, 49.19321], [17.283919, 49.193894], [17.284104, 49.193929], [17.284051, 49.194197], [17.283948, 49.194427], [17.283043, 49.194426], [17.28259, 49.194231], [17.282648, 49.193887], [17.282698, 49.193581], [17.282676, 49.193562], [17.282725, 49.193349], [17.282814, 49.193055], [17.282922, 49.192679], [17.283024, 49.192434], [17.28307, 49.192338], [17.28289, 49.192298], [17.282536, 49.192258], [17.28192, 49.192232], [17.28189, 49.192214], [17.281884, 49.192115], [17.281826, 49.192115]]]}, "properties": {"ref:zabaged": "396399886", "zabaged_type": "solární", "name": null, "id_eru": "14966_T11", "vykon_MW": 2.077, "area_m2": 44913, "osm_power_plant_within_300m": false, "osm_solar_object_within_300m": true}}, {"type": "Feature", "geometry": {"type": "Polygon", "coordinates": [[[17.524519, 49.189354], [17.524196, 49.189334], [17.524242, 49.189021], [17.524246, 49.188972], [17.524372, 49.189009], [17.524526, 49.189092], [17.524588, 49.189178], [17.524582, 49.189264], [17.524537, 49.189336], [17.524519, 49.189354]]]}, "properties": {"ref:zabaged": "474536499", "zabaged_type": "solární", "name": null, "id_eru": "15551_T11", "vykon_MW": 0.030000000000000002, "area_m2": 886, "osm_power_plant_within_300m": true, "osm_solar_object_within_300m": true}}, {"type": "Feature", "geometry": {"type": "Polygon", "coordinates": [[[17.512214, 49.203403], [17.512321, 49.203186], [17.512634, 49.202641], [17.512815, 49.202019], [17.512955, 49.202026], [17.512989, 49.203279], [17.512964, 49.203342], [17.512904, 49.203378], [17.512816, 49.203392], [17.512214, 49.203403]]]}, "properties": {"ref:zabaged": "474624444", "zabaged_type": "solární", "name": null, "id_eru": "14645_T11", "vykon_MW": 1.177, "area_m2": 4602, "osm_power_plant_within_300m": false, "osm_solar_object_within_300m": false}}, {"type": "Feature", "geometry": {"type": "Polygon", "coordinates": [[[17.373868, 48.941631], [17.373674, 48.941489], [17.373451, 48.941324], [17.37253, 48.940719], [17.372765, 48.940548], [17.372884, 48.94054], [17.372905, 48.94048], [17.372924, 48.940439], [17.372953, 48.940415], [17.373669, 48.939855], [17.373811, 48.93986], [17.373951, 48.939797], [17.374203, 48.939746], [17.374289, 48.939739], [17.375332, 48.940334], [17.375196, 48.94046], [17.375501, 48.940588], [17.375615, 48.940491], [17.376347, 48.940882], [17.376401, 48.941058], [17.376289, 48.941147], [17.37629, 48.941148], [17.376071, 48.94132], [17.375582, 48.941266], [17.375396, 48.941176], [17.375054, 48.94144], [17.375134, 48.941483], [17.374971, 48.941598], [17.374916, 48.94164], [17.37546, 48.941994], [17.37543, 48.942049], [17.37509, 48.942083], [17.375036, 48.942122], [17.374157, 48.941608], [17.373868, 48.941631]]]}, "properties": {"ref:zabaged": "473992877", "zabaged_type": "solární", "name": null, "id_eru": "15455_T11", "vykon_MW": 4.707, "area_m2": 36633, "osm_power_plant_within_300m": false, "osm_solar_object_within_300m": true}}, {"type": "Feature", "geometry": {"type": "Polygon", "coordinates": [[[17.429499, 49.248075], [17.430383, 49.24799], [17.430906, 49.247956], [17.432789, 49.249767], [17.432854, 49.249838], [17.431483, 49.249969], [17.429499, 49.248075]]]}, "properties": {"ref:zabaged": "476877371", "zabaged_type": "solární", "name": null, "id_eru": "05317_T11", "vykon_MW": 1.078, "area_m2": 23348, "osm_power_plant_within_300m": false, "osm_solar_object_within_300m": true}}, {"type": "Feature", "geometry": {"type": "Polygon", "coordinates": [[[17.393085, 48.943736], [17.392835, 48.943619], [17.392881, 48.943617], [17.392926, 48.943609], [17.392969, 48.943597], [17.393007, 48.94358], [17.393041, 48.943559], [17.393068, 48.943534], [17.393089, 48.943506], [17.393102, 48.943477], [17.393107, 48.943447], [17.393104, 48.943416], [17.393093, 48.943386], [17.39311, 48.943369], [17.393898, 48.943737], [17.393643, 48.943992], [17.393085, 48.943736]]]}, "properties": {"ref:zabaged": "473991313", "zabaged_type": "solární", "name": null, "id_eru": "05524_T11", "vykon_MW": 0.098, "area_m2": 2262, "osm_power_plant_within_300m": false, "osm_solar_object_within_300m": true}}, {"type": "Feature", "geometry": {"type": "Polygon", "coordinates": [[[17.388144, 48.903459], [17.38852, 48.904472], [17.388907, 48.905548], [17.388727, 48.905563], [17.385926, 48.904948], [17.385631, 48.903629], [17.386687, 48.903571], [17.388144, 48.903459]]]}, "properties": {"ref:zabaged": "480242110", "zabaged_type": "solární", "name": null, "id_eru": "06816_T11", "vykon_MW": 1.733, "area_m2": 37768, "osm_power_plant_within_300m": false, "osm_solar_object_within_300m": true}}, {"type": "Feature", "geometry": {"type": "Polygon", "coordinates": [[[17.535282, 49.079432], [17.535065, 49.079261], [17.535187, 49.079183], [17.53541, 49.079368], [17.535282, 49.079432]]]}, "properties": {"ref:zabaged": "482282240", "zabaged_type": "solární", "name": null, "id_eru": "08582_T11", "vykon_MW": 0.006, "area_m2": 308, "osm_power_plant_within_300m": false, "osm_solar_object_within_300m": false}}, {"type": "Feature", "geometry": {"type": "Polygon", "coordinates": [[[17.51413, 49.211649], [17.514247, 49.211284], [17.515865, 49.211526], [17.515759, 49.211926], [17.51574, 49.211922], [17.515424, 49.211856], [17.515331, 49.21183], [17.51413, 49.211649]]]}, "properties": {"ref:zabaged": "476876805", "zabaged_type": "solární", "name": null, "id_eru": "07281_T11", "vykon_MW": 0.23900000000000002, "area_m2": 5121, "osm_power_plant_within_300m": true, "osm_solar_object_within_300m": true}}, {"type": "Feature", "geometry": {"type": "Polygon", "coordinates": [[[17.519614, 49.190698], [17.519727, 49.189411], [17.519819, 49.189184], [17.519941, 49.188494], [17.519965, 49.188308], [17.519979, 49.188112], [17.521898, 49.188247], [17.521739, 49.189332], [17.521501, 49.191201], [17.520731, 49.191022], [17.519697, 49.190797], [17.519724, 49.190741], [17.519614, 49.190698]]]}, "properties": {"ref:zabaged": "474539840", "zabaged_type": "solární", "name": null, "id_eru": "07749_T11", "vykon_MW": 3.61, "area_m2": 44442, "osm_power_plant_within_300m": true, "osm_solar_object_within_300m": true}}, {"type": "Feature", "geometry": {"type": "Polygon", "coordinates": [[[17.51985, 48.893067], [17.519805, 48.893153], [17.519294, 48.893718], [17.5189, 48.894046], [17.518666, 48.894159], [17.517585, 48.89493], [17.51709, 48.895338], [17.516534, 48.89583], [17.516051, 48.896203], [17.515674, 48.896506], [17.515605, 48.896639], [17.515613, 48.896773], [17.515589, 48.896777], [17.515082, 48.896847], [17.514868, 48.896865], [17.515095, 48.896552], [17.515118, 48.896508], [17.51515, 48.896446], [17.515197, 48.896384], [17.515267, 48.896296], [17.515348, 48.896208], [17.51545, 48.896118], [17.515588, 48.895999], [17.515725, 48.89587], [17.515835, 48.895776], [17.515948, 48.89567], [17.516052, 48.895592], [17.516164, 48.895482], [17.516254, 48.895389], [17.516339, 48.895314], [17.516427, 48.895243], [17.516475, 48.895196], [17.5165, 48.89515], [17.516512, 48.895099], [17.516536, 48.895054], [17.5166, 48.894988], [17.516672, 48.894884], [17.516718, 48.894801], [17.516741, 48.89473], [17.516744, 48.89469], [17.516795, 48.894609], [17.516871, 48.894536], [17.516932, 48.894488], [17.517007, 48.894442], [17.517201, 48.894299], [17.51792, 48.893982], [17.518359, 48.893724], [17.518534, 48.893557], [17.519037, 48.892759], [17.519867, 48.893022], [17.51985, 48.893067]]]}, "properties": {"ref:zabaged": "473990007", "zabaged_type": "solární", "name": null, "id_eru": "07630_T11", "vykon_MW": 1.001, "area_m2": 28922, "osm_power_plant_within_300m": false, "osm_solar_object_within_300m": true}}, {"type": "Feature", "geometry": {"type": "Polygon", "coordinates": [[[17.523097, 48.870504], [17.522569, 48.870379], [17.521976, 48.870305], [17.521922, 48.870185], [17.521959, 48.869771], [17.522153, 48.869487], [17.52279, 48.868959], [17.523742, 48.869692], [17.52394, 48.869914], [17.523187, 48.870193], [17.523097, 48.870504]]]}, "properties": {"ref:zabaged": "384892012", "zabaged_type": "solární", "name": null, "id_eru": "04774_T11", "vykon_MW": 0.35900000000000004, "area_m2": 14426, "osm_power_plant_within_300m": false, "osm_solar_object_within_300m": true}}, {"type": "Feature", "geometry": {"type": "Polygon", "coordinates": [[[17.319719, 48.989691], [17.319666, 48.989647], [17.319478, 48.989468], [17.318808, 48.988857], [17.318582, 48.988625], [17.319659, 48.988112], [17.322593, 48.986681], [17.322745, 48.986829], [17.323057, 48.98713], [17.323414, 48.987469], [17.323729, 48.987751], [17.322425, 48.988388], [17.320514, 48.989311], [17.319719, 48.989691]]]}, "properties": {"ref:zabaged": "460108819", "zabaged_type": "solární", "name": null, "id_eru": "15500_T11", "vykon_MW": 1.952, "area_m2": 52807, "osm_power_plant_within_300m": true, "osm_solar_object_within_300m": true}}, {"type": "Feature", "geometry": {"type": "Polygon", "coordinates": [[[17.567094, 49.236281], [17.567073, 49.2363], [17.567056, 49.236319], [17.566952, 49.236463], [17.566784, 49.236702], [17.56672, 49.236793], [17.566489, 49.237125], [17.566226, 49.2375], [17.564944, 49.237137], [17.565366, 49.236489], [17.565497, 49.236525], [17.565571, 49.236421], [17.566388, 49.236657], [17.566767, 49.236147], [17.56695, 49.236199], [17.567128, 49.236256], [17.567094, 49.236281]]]}, "properties": {"ref:zabaged": "476869975", "zabaged_type": "solární", "name": null, "id_eru": "15658_T11", "vykon_MW": 1.272, "area_m2": 10970, "osm_power_plant_within_300m": false, "osm_solar_object_within_300m": true}}, {"type": "Feature", "geometry": {"type": "Polygon", "coordinates": [[[17.461826, 48.983598], [17.461014, 48.983621], [17.46168, 48.980628], [17.46242, 48.980709], [17.462379, 48.98086], [17.462488, 48.980871], [17.462442, 48.981102], [17.462089, 48.982312], [17.461826, 48.983598]]]}, "properties": {"ref:zabaged": "477500410", "zabaged_type": "solární", "name": null, "id_eru": "02434_T11", "vykon_MW": 0.783, "area_m2": 19409, "osm_power_plant_within_300m": false, "osm_solar_object_within_300m": true}}, {"type": "Feature", "geometry": {"type": "Polygon", "coordinates": [[[17.62991, 49.062939], [17.630513, 49.062537], [17.633005, 49.064025], [17.632485, 49.064408], [17.63246, 49.064427], [17.632371, 49.06446], [17.632308, 49.064415], [17.62991, 49.062939]]]}, "properties": {"ref:zabaged": "476892600", "zabaged_type": "solární", "name": null, "id_eru": "13614_T11", "vykon_MW": 0.683, "area_m2": 15996, "osm_power_plant_within_300m": false, "osm_solar_object_within_300m": true}}, {"type": "Feature", "geometry": {"type": "Polygon", "coordinates": [[[17.478563, 49.036384], [17.478159, 49.035998], [17.478357, 49.035832], [17.478565, 49.035631], [17.478511, 49.035594], [17.47853, 49.035575], [17.478523, 49.035556], [17.478501, 49.035493], [17.478461, 49.035432], [17.4784, 49.03538], [17.478274, 49.035302], [17.4782, 49.035175], [17.478161, 49.035146], [17.477995, 49.035232], [17.477845, 49.035133], [17.478446, 49.034767], [17.478749, 49.034583], [17.479027, 49.03441], [17.479144, 49.034347], [17.480006, 49.034308], [17.479918, 49.034421], [17.479864, 49.034474], [17.479819, 49.034517], [17.479756, 49.034577], [17.479717, 49.034617], [17.479676, 49.034658], [17.47959, 49.034741], [17.479501, 49.034826], [17.479425, 49.034895], [17.479368, 49.034947], [17.479293, 49.035017], [17.479227, 49.035071], [17.479145, 49.03513], [17.479092, 49.035173], [17.479063, 49.035198], [17.479056, 49.035218], [17.479057, 49.03523], [17.479163, 49.035322], [17.479297, 49.035431], [17.479267, 49.035436], [17.479308, 49.035466], [17.479353, 49.035512], [17.479399, 49.035579], [17.479436, 49.035628], [17.479486, 49.035693], [17.479542, 49.035766], [17.4796, 49.035828], [17.479673, 49.035914], [17.479738, 49.035993], [17.479744, 49.036014], [17.479838, 49.036046], [17.479595, 49.036114], [17.478735, 49.036326], [17.478563, 49.036384]]]}, "properties": {"ref:zabaged": "476890022", "zabaged_type": "solární", "name": null, "id_eru": "14538_T11", "vykon_MW": 0.633, "area_m2": 17186, "osm_power_plant_within_300m": false, "osm_solar_object_within_300m": true}}, {"type": "Feature", "geometry": {"type": "Polygon", "coordinates": [[[17.489764, 49.140483], [17.489641, 49.140368], [17.489626, 49.14033], [17.489704, 49.140313], [17.490567, 49.140125], [17.491738, 49.139864], [17.492391, 49.14052], [17.491775, 49.140642], [17.49076, 49.140859], [17.490786, 49.140685], [17.490786, 49.140625], [17.49075, 49.140487], [17.490606, 49.140518], [17.489897, 49.140669], [17.489764, 49.140483]]]}, "properties": {"ref:zabaged": "474538646", "zabaged_type": "solární", "name": null, "id_eru": "13933_T11", "vykon_MW": 0.524, "area_m2": 11464, "osm_power_plant_within_300m": false, "osm_solar_object_within_300m": true}}, {"type": "Feature", "geometry": {"type": "Polygon", "coordinates": [[[17.473349, 48.90325], [17.47339, 48.903236], [17.473427, 48.903218], [17.473592, 48.903103], [17.47366, 48.903062], [17.473762, 48.903017], [17.474022, 48.90292], [17.474362, 48.902785], [17.474633, 48.902695], [17.474787, 48.902645], [17.474824, 48.902614], [17.474866, 48.902561], [17.474887, 48.9025], [17.474931, 48.902485], [17.474952, 48.902513], [17.475542, 48.902299], [17.475712, 48.902451], [17.475617, 48.902528], [17.475482, 48.902583], [17.475388, 48.902613], [17.475329, 48.902636], [17.475282, 48.902674], [17.475213, 48.902737], [17.475176, 48.902776], [17.475101, 48.902772], [17.475041, 48.902866], [17.475016, 48.90288], [17.47497, 48.90289], [17.474894, 48.90291], [17.474841, 48.90294], [17.474762, 48.903019], [17.474651, 48.903115], [17.474606, 48.903146], [17.474535, 48.903174], [17.474422, 48.903186], [17.474362, 48.90319], [17.474246, 48.903199], [17.474197, 48.903209], [17.474155, 48.903235], [17.474124, 48.903277], [17.474024, 48.903375], [17.473913, 48.903473], [17.473809, 48.903546], [17.473688, 48.903597], [17.473592, 48.903618], [17.473503, 48.903651], [17.473416, 48.903702], [17.473325, 48.903722], [17.473244, 48.90372], [17.473136, 48.903721], [17.473075, 48.903695], [17.473211, 48.903474], [17.473427, 48.903396], [17.473349, 48.90325]]]}, "properties": {"ref:zabaged": "473992607", "zabaged_type": "solární", "name": null, "id_eru": "15027_T11", "vykon_MW": 0.22, "area_m2": 7907, "osm_power_plant_within_300m": false, "osm_solar_object_within_300m": true}}, {"type": "Feature", "geometry": {"type": "Polygon", "coordinates": [[[17.475896, 49.053122], [17.475565, 49.052656], [17.475661, 49.052628], [17.475838, 49.052866], [17.475996, 49.053092], [17.475896, 49.053122]]]}, "properties": {"ref:zabaged": "476891916", "zabaged_type": "solární", "name": null, "id_eru": "03618_T11", "vykon_MW": 0.027, "area_m2": 459, "osm_power_plant_within_300m": false, "osm_solar_object_within_300m": true}}, {"type": "Feature", "geometry": {"type": "Polygon", "coordinates": [[[17.394641, 48.947739], [17.394091, 48.947916], [17.393983, 48.947798], [17.393958, 48.947771], [17.393933, 48.947744], [17.393656, 48.947463], [17.393554, 48.947366], [17.393506, 48.947321], [17.393855, 48.947182], [17.393946, 48.947144], [17.39403, 48.94711], [17.394043, 48.947124], [17.394398, 48.947494], [17.394641, 48.947739]]]}, "properties": {"ref:zabaged": "480241640", "zabaged_type": "plynová a spalovací", "name": null, "id_eru": "00273_T11", "vykon_MW": 0.999, "area_m2": 3567, "osm_power_plant_within_300m": false, "osm_solar_object_within_300m": null}}, {"type": "Feature", "geometry": {"type": "Polygon", "coordinates": [[[17.389241, 48.939774], [17.389572, 48.940207], [17.389265, 48.940418], [17.389577, 48.940581], [17.388635, 48.941381], [17.3878, 48.942221], [17.386546, 48.94361], [17.385713, 48.943149], [17.388234, 48.940484], [17.389241, 48.939774]]]}, "properties": {"ref:zabaged": "473989937", "zabaged_type": "solární", "name": null, "id_eru": "15455_T11", "vykon_MW": 4.707, "area_m2": 33658, "osm_power_plant_within_300m": false, "osm_solar_object_within_300m": false}}, {"type": "Feature", "geometry": {"type": "Polygon", "coordinates": [[[17.655875, 49.009954], [17.655912, 49.009768], [17.655945, 49.009682], [17.656399, 49.009099], [17.65691, 49.008432], [17.656966, 49.008354], [17.656976, 49.007849], [17.656982, 49.007138], [17.656987, 49.006892], [17.656981, 49.006304], [17.657561, 49.006318], [17.657724, 49.006196], [17.657735, 49.005646], [17.657001, 49.005602], [17.657002, 49.005339], [17.65699, 49.005244], [17.656929, 49.005089], [17.656307, 49.003784], [17.656028, 49.003228], [17.656046, 49.002788], [17.655803, 49.002773], [17.655136, 49.001352], [17.65832, 49.001249], [17.658951, 49.00296], [17.65898, 49.003056], [17.659073, 49.003323], [17.659147, 49.003571], [17.659248, 49.004083], [17.659424, 49.004695], [17.659644, 49.00541], [17.659774, 49.005838], [17.659765, 49.005908], [17.659592, 49.006074], [17.659236, 49.006375], [17.659184, 49.006442], [17.659136, 49.006626], [17.659121, 49.00747], [17.659113, 49.007611], [17.65906, 49.008635], [17.659036, 49.009246], [17.659025, 49.009402], [17.659018, 49.009559], [17.658995, 49.009572], [17.65897, 49.009576], [17.658378, 49.00954], [17.658327, 49.009549], [17.658238, 49.009582], [17.657167, 49.010534], [17.65684, 49.010872], [17.6564, 49.011249], [17.656313, 49.011339], [17.656245, 49.011488], [17.656169, 49.011621], [17.656016, 49.011598], [17.655817, 49.011588], [17.655823, 49.011492], [17.655852, 49.01079], [17.655845, 49.010621], [17.655836, 49.010303], [17.655875, 49.009954]]]}, "properties": {"ref:zabaged": "389089116", "zabaged_type": "solární", "name": null, "id_eru": "14418_T11", "vykon_MW": 10.211, "area_m2": 195169, "osm_power_plant_within_300m": true, "osm_solar_object_within_300m": true}}, {"type": "Feature", "geometry": {"type": "Polygon", "coordinates": [[[17.47328, 49.122736], [17.473465, 49.122882], [17.475181, 49.124472], [17.475303, 49.124649], [17.475232, 49.124692], [17.475187, 49.124665], [17.475135, 49.124698], [17.475113, 49.124712], [17.47509, 49.124727], [17.475029, 49.124766], [17.475074, 49.124797], [17.474934, 49.124891], [17.473989, 49.124496], [17.47375, 49.124395], [17.473737, 49.124388], [17.473887, 49.124241], [17.473373, 49.12378], [17.473164, 49.123684], [17.472158, 49.123232], [17.472651, 49.122711], [17.47328, 49.122736]]]}, "properties": {"ref:zabaged": "482664883", "zabaged_type": "solární", "name": null, "id_eru": "11523_T11", "vykon_MW": 0.55, "area_m2": 19588, "osm_power_plant_within_300m": true, "osm_solar_object_within_300m": true}}, {"type": "Feature", "geometry": {"type": "Polygon", "coordinates": [[[17.288986, 48.962629], [17.287576, 48.962499], [17.287706, 48.962017], [17.287739, 48.961967], [17.287785, 48.96194], [17.288432, 48.962016], [17.289102, 48.962017], [17.288986, 48.962629]]]}, "properties": {"ref:zabaged": "477598931", "zabaged_type": "solární", "name": null, "id_eru": "15171_T11", "vykon_MW": 0.263, "area_m2": 6550, "osm_power_plant_within_300m": true, "osm_solar_object_within_300m": true}}, {"type": "Feature", "geometry": {"type": "Polygon", "coordinates": [[[17.381344, 48.93763], [17.380908, 48.938041], [17.381151, 48.938157], [17.381583, 48.93775], [17.38183, 48.937879], [17.382212, 48.937521], [17.382442, 48.937649], [17.382617, 48.937486], [17.382973, 48.937686], [17.383042, 48.937681], [17.383562, 48.937963], [17.383723, 48.938041], [17.384052, 48.938143], [17.381659, 48.94046], [17.381209, 48.940643], [17.378809, 48.939307], [17.378437, 48.93912], [17.377351, 48.93852], [17.378651, 48.937095], [17.378679, 48.937095], [17.379429, 48.937412], [17.380017, 48.936886], [17.381344, 48.93763]]]}, "properties": {"ref:zabaged": "473990793", "zabaged_type": "solární", "name": null, "id_eru": "15682_T11", "vykon_MW": 3.583, "area_m2": 107125, "osm_power_plant_within_300m": false, "osm_solar_object_within_300m": false}}, {"type": "Feature", "geometry": {"type": "Polygon", "coordinates": [[[17.659491, 49.021545], [17.658912, 49.021337], [17.657696, 49.020889], [17.65769, 49.020698], [17.658043, 49.020258], [17.658097, 49.019997], [17.658429, 49.019552], [17.659487, 49.019937], [17.659666, 49.019729], [17.660692, 49.020143], [17.66065, 49.020194], [17.660497, 49.020363], [17.660293, 49.020603], [17.660092, 49.020832], [17.659924, 49.021004], [17.659609, 49.021382], [17.659515, 49.021509], [17.659491, 49.021545]]]}, "properties": {"ref:zabaged": "401658461", "zabaged_type": "solární", "name": null, "id_eru": "14131_T11", "vykon_MW": 3.011, "area_m2": 28074, "osm_power_plant_within_300m": false, "osm_solar_object_within_300m": true}}, {"type": "Feature", "geometry": {"type": "Polygon", "coordinates": [[[17.439647, 49.048345], [17.439916, 49.046531], [17.439972, 49.046283], [17.440047, 49.04628], [17.440045, 49.046239], [17.441309, 49.046341], [17.441678, 49.046375], [17.441764, 49.046802], [17.441808, 49.047057], [17.441592, 49.048535], [17.441507, 49.048562], [17.440997, 49.048498], [17.439647, 49.048345]]]}, "properties": {"ref:zabaged": "476895362", "zabaged_type": "solární", "name": null, "id_eru": "08014_T11", "vykon_MW": 2, "area_m2": 33686, "osm_power_plant_within_300m": false, "osm_solar_object_within_300m": true}}, {"type": "Feature", "geometry": {"type": "Polygon", "coordinates": [[[17.637262, 49.021999], [17.637163, 49.021988], [17.637067, 49.021942], [17.637001, 49.021805], [17.636993, 49.021723], [17.637303, 49.021577], [17.637468, 49.02173], [17.637512, 49.021774], [17.63718, 49.021916], [17.63715, 49.021929], [17.637185, 49.021964], [17.637214, 49.021951], [17.637239, 49.021975], [17.637246, 49.021982], [17.637262, 49.021999]]]}, "properties": {"ref:zabaged": "413470776", "zabaged_type": "solární", "name": null, "id_eru": "13136_T11", "vykon_MW": 0.030000000000000002, "area_m2": 919, "osm_power_plant_within_300m": false, "osm_solar_object_within_300m": false}}, {"type": "Feature", "geometry": {"type": "Polygon", "coordinates": [[[17.472913, 49.050155], [17.473116, 49.050161], [17.473284, 49.050169], [17.473451, 49.05017], [17.47367, 49.050178], [17.473824, 49.050181], [17.473938, 49.050179], [17.473899, 49.05023], [17.473398, 49.050621], [17.473192, 49.050776], [17.47316, 49.050722], [17.473121, 49.050656], [17.472875, 49.050252], [17.472863, 49.050224], [17.472913, 49.050155]]]}, "properties": {"ref:zabaged": "482671980", "zabaged_type": "solární", "name": null, "id_eru": "15520_T11", "vykon_MW": 0.15, "area_m2": 2815, "osm_power_plant_within_300m": true, "osm_solar_object_within_300m": true}}, {"type": "Feature", "geometry": {"type": "Polygon", "coordinates": [[[17.540326, 48.980018], [17.539517, 48.979548], [17.539852, 48.979312], [17.540762, 48.97872], [17.541403, 48.978312], [17.54261, 48.977466], [17.543291, 48.977143], [17.543636, 48.978818], [17.541622, 48.979444], [17.540618, 48.979894], [17.540326, 48.980018]]]}, "properties": {"ref:zabaged": "454179875", "zabaged_type": "solární", "name": null, "id_eru": "08161_T11", "vykon_MW": 1.976, "area_m2": 39459, "osm_power_plant_within_300m": false, "osm_solar_object_within_300m": true}}, {"type": "Feature", "geometry": {"type": "Polygon", "coordinates": [[[17.453268, 49.213225], [17.45315, 49.213704], [17.453603, 49.213752], [17.453193, 49.215351], [17.452917, 49.215331], [17.45234, 49.215237], [17.452878, 49.213052], [17.453268, 49.213225]]]}, "properties": {"ref:zabaged": "476870553", "zabaged_type": "solární", "name": null, "id_eru": "14314_T11", "vykon_MW": 0.253, "area_m2": 13416, "osm_power_plant_within_300m": false, "osm_solar_object_within_300m": true}}, {"type": "Feature", "geometry": {"type": "Polygon", "coordinates": [[[17.537953, 49.127015], [17.538543, 49.127268], [17.538469, 49.127326], [17.538448, 49.127315], [17.538194, 49.127451], [17.537734, 49.127227], [17.537953, 49.127015]]]}, "properties": {"ref:zabaged": "476894102", "zabaged_type": "solární", "name": null, "id_eru": "07251_T11", "vykon_MW": 0.032, "area_m2": 1396, "osm_power_plant_within_300m": false, "osm_solar_object_within_300m": false}}, {"type": "Feature", "geometry": {"type": "Polygon", "coordinates": [[[17.523978, 49.190172], [17.523725, 49.190355], [17.522597, 49.191108], [17.522194, 49.191372], [17.521627, 49.191233], [17.521501, 49.191201], [17.521739, 49.189332], [17.521898, 49.188247], [17.519979, 49.188112], [17.519924, 49.187607], [17.519933, 49.187494], [17.521273, 49.187522], [17.52167, 49.187519], [17.522121, 49.187477], [17.522197, 49.187521], [17.523631, 49.188315], [17.523493, 49.18856], [17.523531, 49.188597], [17.523592, 49.188668], [17.523901, 49.188864], [17.524246, 49.188972], [17.524242, 49.189021], [17.524196, 49.189334], [17.524519, 49.189354], [17.524466, 49.189422], [17.524426, 49.189447], [17.524381, 49.189464], [17.524179, 49.189519], [17.523567, 49.189927], [17.523628, 49.189962], [17.523943, 49.190144], [17.523978, 49.190172]]]}, "properties": {"ref:zabaged": "474544362", "zabaged_type": "solární", "name": null, "id_eru": "15198_T11", "vykon_MW": 1.477, "area_m2": 64253, "osm_power_plant_within_300m": true, "osm_solar_object_within_300m": true}}, {"type": "Feature", "geometry": {"type": "Polygon", "coordinates": [[[17.348914, 49.019437], [17.349306, 49.019499], [17.349422, 49.01957], [17.349435, 49.019587], [17.349519, 49.019533], [17.350157, 49.019631], [17.351014, 49.020108], [17.351392, 49.020344], [17.351929, 49.020763], [17.351194, 49.02101], [17.351025, 49.021007], [17.350623, 49.021256], [17.350265, 49.02124], [17.349716, 49.021596], [17.349364, 49.021691], [17.348526, 49.021995], [17.347166, 49.020435], [17.347534, 49.020228], [17.348914, 49.019437]]]}, "properties": {"ref:zabaged": "477597489", "zabaged_type": "solární", "name": null, "id_eru": "05065_T11", "vykon_MW": 2.975, "area_m2": 54387, "osm_power_plant_within_300m": false, "osm_solar_object_within_300m": true}}, {"type": "Feature", "geometry": {"type": "Polygon", "coordinates": [[[17.281826, 49.192115], [17.281791, 49.19212], [17.281679, 49.192131], [17.281668, 49.192291], [17.281272, 49.192243], [17.281089, 49.192156], [17.280744, 49.191985], [17.280676, 49.191939], [17.280569, 49.191828], [17.280338, 49.191615], [17.280284, 49.191548], [17.28027, 49.1915], [17.280274, 49.191449], [17.280343, 49.191153], [17.280391, 49.190893], [17.280422, 49.190895], [17.280467, 49.190679], [17.280774, 49.190639], [17.280853, 49.190214], [17.280979, 49.189345], [17.281145, 49.189236], [17.281229, 49.189237], [17.281321, 49.189243], [17.281397, 49.189251], [17.281563, 49.189278], [17.281682, 49.1893], [17.281972, 49.189378], [17.282074, 49.189411], [17.282147, 49.189449], [17.28219, 49.18948], [17.282216, 49.189523], [17.282233, 49.189586], [17.282243, 49.18965], [17.282238, 49.189767], [17.282136, 49.190362], [17.282133, 49.190428], [17.282031, 49.19042], [17.282012, 49.190557], [17.281608, 49.190578], [17.281357, 49.19098], [17.281475, 49.191348], [17.281738, 49.191423], [17.281713, 49.191602], [17.28182, 49.191609], [17.2818, 49.191792], [17.281826, 49.192115]]]}, "properties": {"ref:zabaged": "396398170", "zabaged_type": "solární", "name": null, "id_eru": "15081_T11", "vykon_MW": 1.2, "area_m2": 28070, "osm_power_plant_within_300m": false, "osm_solar_object_within_300m": true}}, {"type": "Feature", "geometry": {"type": "Polygon", "coordinates": [[[17.647499, 48.996245], [17.646906, 48.995186], [17.647045, 48.99512], [17.648267, 48.99431], [17.649148, 48.995921], [17.647499, 48.996245]]]}, "properties": {"ref:zabaged": "476894104", "zabaged_type": "solární", "name": null, "id_eru": "15528_T11", "vykon_MW": 0.995, "area_m2": 19814, "osm_power_plant_within_300m": false, "osm_solar_object_within_300m": true}}, {"type": "Feature", "geometry": {"type": "Polygon", "coordinates": [[[17.332628, 48.921976], [17.33388, 48.921887], [17.333946, 48.922093], [17.33399, 48.922329], [17.334096, 48.922782], [17.333987, 48.922804], [17.332777, 48.922872], [17.332459, 48.921988], [17.332628, 48.921976]]]}, "properties": {"ref:zabaged": "395515828", "zabaged_type": "solární", "name": null, "id_eru": "09289_T11", "vykon_MW": 0.5870000000000001, "area_m2": 10251, "osm_power_plant_within_300m": true, "osm_solar_object_within_300m": true}}, {"type": "Feature", "geometry": {"type": "Polygon", "coordinates": [[[17.386041, 48.939092], [17.386168, 48.939133], [17.386317, 48.939194], [17.387663, 48.939685], [17.388593, 48.938995], [17.388689, 48.939128], [17.389241, 48.939774], [17.388234, 48.940484], [17.385713, 48.943149], [17.381209, 48.940643], [17.381659, 48.94046], [17.384052, 48.938143], [17.384498, 48.938307], [17.384385, 48.938424], [17.384569, 48.938488], [17.384697, 48.938357], [17.385422, 48.938778], [17.385345, 48.938862], [17.386041, 48.939092]]]}, "properties": {"ref:zabaged": "473991299", "zabaged_type": "solární", "name": null, "id_eru": "15458_T11", "vykon_MW": 5.73, "area_m2": 158246, "osm_power_plant_within_300m": false, "osm_solar_object_within_300m": true}}, {"type": "Feature", "geometry": {"type": "Polygon", "coordinates": [[[17.546116, 49.188617], [17.545521, 49.18829], [17.545876, 49.188023], [17.546024, 49.188017], [17.54618, 49.188063], [17.54634, 49.188136], [17.546576, 49.188267], [17.546116, 49.188617]]]}, "properties": {"ref:zabaged": "474632012", "zabaged_type": "plynová a spalovací", "name": null, "id_eru": "01875_T11", "vykon_MW": 0.36000000000000004, "area_m2": 2795, "osm_power_plant_within_300m": false, "osm_solar_object_within_300m": null}}, {"type": "Feature", "geometry": {"type": "Polygon", "coordinates": [[[17.564932, 49.237587], [17.5646, 49.237494], [17.564505, 49.237654], [17.564462, 49.237727], [17.564432, 49.237778], [17.564377, 49.237866], [17.564592, 49.237917], [17.564807, 49.237974], [17.56456, 49.238015], [17.564453, 49.237979], [17.564347, 49.237997], [17.564308, 49.238037], [17.56304, 49.238246], [17.561959, 49.238541], [17.562095, 49.238358], [17.562704, 49.237436], [17.5628, 49.237438], [17.562861, 49.237394], [17.563224, 49.236736], [17.565128, 49.237306], [17.564932, 49.237587]]]}, "properties": {"ref:zabaged": "476876927", "zabaged_type": "solární", "name": null, "id_eru": "15658_T11", "vykon_MW": 1.272, "area_m2": 21055, "osm_power_plant_within_300m": false, "osm_solar_object_within_300m": true}}, {"type": "Feature", "geometry": {"type": "Polygon", "coordinates": [[[17.333134, 48.919097], [17.333443, 48.919508], [17.333457, 48.919526], [17.333019, 48.9196], [17.333306, 48.92038], [17.333759, 48.921624], [17.333136, 48.921674], [17.332887, 48.92101], [17.332305, 48.921117], [17.332056, 48.920438], [17.331343, 48.920468], [17.331888, 48.921938], [17.331418, 48.92196], [17.331803, 48.922936], [17.331225, 48.922894], [17.330565, 48.922826], [17.330497, 48.92279], [17.330444, 48.922464], [17.330387, 48.922034], [17.330413, 48.920958], [17.330411, 48.92051], [17.33092, 48.920498], [17.330594, 48.91942], [17.331253, 48.919193], [17.331673, 48.919043], [17.331894, 48.918956], [17.332231, 48.918839], [17.33249, 48.91875], [17.332552, 48.918725], [17.332625, 48.918695], [17.332695, 48.918655], [17.332766, 48.918608], [17.333134, 48.919097]]]}, "properties": {"ref:zabaged": "395514102", "zabaged_type": "solární", "name": null, "id_eru": "15296_T11", "vykon_MW": 2.997, "area_m2": 62218, "osm_power_plant_within_300m": true, "osm_solar_object_within_300m": true}}, {"type": "Feature", "geometry": {"type": "Polygon", "coordinates": [[[17.638134, 49.032793], [17.638132, 49.032764], [17.638576, 49.032631], [17.638714, 49.032812], [17.638603, 49.032847], [17.638417, 49.032896], [17.638199, 49.032956], [17.638134, 49.032793]]]}, "properties": {"ref:zabaged": "486479690", "zabaged_type": "solární", "name": null, "id_eru": "06197_T11", "vykon_MW": 0.017, "area_m2": 856, "osm_power_plant_within_300m": false, "osm_solar_object_within_300m": false}}, {"type": "Feature", "geometry": {"type": "Polygon", "coordinates": [[[17.506272, 48.893232], [17.506336, 48.893174], [17.506522, 48.893023], [17.50662, 48.892953], [17.506891, 48.892824], [17.506995, 48.892778], [17.507115, 48.892717], [17.507312, 48.892587], [17.50734, 48.892597], [17.507845, 48.892219], [17.511117, 48.893164], [17.511051, 48.893266], [17.510991, 48.89335], [17.510917, 48.893452], [17.510843, 48.893545], [17.510781, 48.89362], [17.510721, 48.893685], [17.510601, 48.893812], [17.510476, 48.893932], [17.510425, 48.893979], [17.510382, 48.894018], [17.510324, 48.894066], [17.510277, 48.894105], [17.510137, 48.894212], [17.509974, 48.894336], [17.50982, 48.894447], [17.509722, 48.89452], [17.509072, 48.894677], [17.508895, 48.894724], [17.508834, 48.894764], [17.508691, 48.894888], [17.508555, 48.895024], [17.508456, 48.895131], [17.507631, 48.894868], [17.50694, 48.894656], [17.506079, 48.894388], [17.505335, 48.894163], [17.505212, 48.894138], [17.505111, 48.894121], [17.504992, 48.894124], [17.505084, 48.894035], [17.505255, 48.893923], [17.505658, 48.893696], [17.505774, 48.893623], [17.50604, 48.893427], [17.506272, 48.893232]]]}, "properties": {"ref:zabaged": "473990589", "zabaged_type": "solární", "name": null, "id_eru": "13405_T11", "vykon_MW": 3.219, "area_m2": 77906, "osm_power_plant_within_300m": true, "osm_solar_object_within_300m": true}}, {"type": "Feature", "geometry": {"type": "Polygon", "coordinates": [[[17.490587, 49.004517], [17.4919, 49.005915], [17.492103, 49.00612], [17.491859, 49.006223], [17.491847, 49.006228], [17.491673, 49.006301], [17.491604, 49.006329], [17.491681, 49.006397], [17.491103, 49.006605], [17.490919, 49.006413], [17.490574, 49.006077], [17.490181, 49.005696], [17.490244, 49.005657], [17.489728, 49.005042], [17.490587, 49.004517]]]}, "properties": {"ref:zabaged": "454179267", "zabaged_type": "plynová a spalovací", "name": null, "id_eru": "03018_T11", "vykon_MW": 0.7120000000000001, "area_m2": 18443, "osm_power_plant_within_300m": false, "osm_solar_object_within_300m": null}}, {"type": "Feature", "geometry": {"type": "Polygon", "coordinates": [[[17.339454, 48.927712], [17.339861, 48.928069], [17.336656, 48.929659], [17.335807, 48.929527], [17.339454, 48.927712]]]}, "properties": {"ref:zabaged": "395508808", "zabaged_type": "solární", "name": null, "id_eru": "05525_T11", "vykon_MW": 0.9620000000000001, "area_m2": 15532, "osm_power_plant_within_300m": true, "osm_solar_object_within_300m": true}}, {"type": "Feature", "geometry": {"type": "Polygon", "coordinates": [[[17.251807, 48.87426], [17.252439, 48.874102], [17.252762, 48.874334], [17.253645, 48.87506], [17.254165, 48.875505], [17.253219, 48.876127], [17.25174, 48.87431], [17.251807, 48.87426]]]}, "properties": {"ref:zabaged": "477595668", "zabaged_type": "solární", "name": null, "id_eru": "15039_T11", "vykon_MW": 0.538, "area_m2": 16586, "osm_power_plant_within_300m": false, "osm_solar_object_within_300m": true}}, {"type": "Feature", "geometry": {"type": "Polygon", "coordinates": [[[17.477385, 49.071788], [17.477637, 49.071984], [17.477658, 49.072001], [17.477678, 49.072016], [17.477727, 49.072058], [17.476925, 49.072501], [17.477293, 49.0728], [17.477158, 49.07288], [17.476957, 49.072996], [17.476883, 49.07304], [17.47655, 49.072986], [17.476459, 49.072922], [17.475731, 49.072888], [17.475639, 49.072885], [17.475577, 49.072882], [17.475469, 49.072878], [17.47543, 49.072877], [17.475428, 49.072685], [17.47543, 49.072579], [17.47543, 49.072528], [17.475432, 49.071882], [17.476031, 49.071875], [17.476603, 49.071869], [17.476604, 49.071816], [17.47666, 49.071816], [17.476688, 49.071817], [17.476687, 49.071842], [17.476703, 49.071841], [17.476796, 49.07184], [17.476824, 49.07184], [17.476885, 49.071839], [17.476929, 49.071838], [17.476929, 49.07184], [17.477169, 49.071839], [17.477197, 49.071842], [17.477331, 49.071768], [17.477346, 49.07176], [17.477385, 49.071788]]]}, "properties": {"ref:zabaged": "482671916", "zabaged_type": "parní", "name": null, "id_eru": "04167_T11", "vykon_MW": 0.997, "area_m2": 16403, "osm_power_plant_within_300m": false, "osm_solar_object_within_300m": null}}, {"type": "Feature", "geometry": {"type": "Polygon", "coordinates": [[[17.435646, 48.90873], [17.435825, 48.908743], [17.435824, 48.909076], [17.436536, 48.909077], [17.437212, 48.909446], [17.436709, 48.909913], [17.435771, 48.910495], [17.435414, 48.910708], [17.435022, 48.910944], [17.434615, 48.910945], [17.433826, 48.910921], [17.433354, 48.910883], [17.432721, 48.910835], [17.432298, 48.910795], [17.432517, 48.910021], [17.432747, 48.909141], [17.43286, 48.908793], [17.433272, 48.908798], [17.433266, 48.908681], [17.433762, 48.90867], [17.434605, 48.908651], [17.434725, 48.908925], [17.434839, 48.908922], [17.434876, 48.90892], [17.434917, 48.908918], [17.435646, 48.90873]]]}, "properties": {"ref:zabaged": "477500816", "zabaged_type": "solární", "name": null, "id_eru": "15118_T11", "vykon_MW": 3.198, "area_m2": 65148, "osm_power_plant_within_300m": false, "osm_solar_object_within_300m": true}}, {"type": "Feature", "geometry": {"type": "Polygon", "coordinates": [[[17.632741, 48.986754], [17.632835, 48.986712], [17.632906, 48.986695], [17.633107, 48.986525], [17.633451, 48.986512], [17.634094, 48.986521], [17.634113, 48.986732], [17.632907, 48.986793], [17.632744, 48.986797], [17.632741, 48.986754]]]}, "properties": {"ref:zabaged": "454179749", "zabaged_type": "plynová a spalovací", "name": null, "id_eru": "04033_T11", "vykon_MW": 0.7010000000000001, "area_m2": 2343, "osm_power_plant_within_300m": false, "osm_solar_object_within_300m": null}}, {"type": "Feature", "geometry": {"type": "Polygon", "coordinates": [[[17.461826, 48.983598], [17.462089, 48.982312], [17.463626, 48.982521], [17.463632, 48.982593], [17.463328, 48.983359], [17.462352, 48.983583], [17.461826, 48.983598]]]}, "properties": {"ref:zabaged": "477501432", "zabaged_type": "solární", "name": null, "id_eru": "03959_T11", "vykon_MW": 0.622, "area_m2": 13625, "osm_power_plant_within_300m": false, "osm_solar_object_within_300m": true}}, {"type": "Feature", "geometry": {"type": "Polygon", "coordinates": [[[17.503718, 49.216291], [17.503816, 49.216762], [17.503846, 49.216774], [17.503872, 49.216798], [17.503877, 49.216897], [17.503853, 49.217004], [17.50382, 49.217097], [17.503951, 49.217234], [17.503971, 49.217413], [17.503973, 49.217506], [17.504018, 49.217656], [17.50401, 49.217757], [17.503861, 49.217876], [17.503797, 49.217874], [17.50373, 49.217885], [17.503671, 49.217925], [17.503634, 49.217973], [17.503612, 49.218026], [17.503571, 49.218097], [17.503507, 49.218195], [17.503447, 49.218267], [17.503397, 49.21832], [17.503286, 49.218272], [17.503272, 49.218257], [17.503171, 49.21822], [17.503186, 49.218204], [17.503254, 49.218057], [17.50328, 49.218016], [17.503108, 49.217963], [17.503057, 49.218037], [17.503036, 49.218056], [17.502957, 49.218117], [17.502923, 49.21815], [17.502666, 49.218032], [17.502693, 49.218011], [17.502725, 49.217996], [17.502754, 49.217979], [17.50284, 49.217886], [17.502978, 49.217707], [17.503033, 49.217655], [17.50309, 49.217616], [17.503202, 49.217641], [17.503302, 49.21767], [17.503289, 49.217706], [17.503269, 49.217732], [17.503451, 49.217782], [17.503478, 49.217763], [17.503509, 49.217733], [17.503544, 49.217675], [17.503549, 49.217632], [17.503545, 49.21754], [17.503603, 49.217457], [17.503567, 49.217418], [17.503543, 49.217401], [17.503482, 49.217369], [17.503409, 49.217337], [17.503383, 49.217322], [17.503339, 49.217317], [17.503316, 49.217298], [17.503279, 49.217232], [17.503275, 49.217206], [17.503308, 49.217116], [17.503341, 49.217046], [17.50345, 49.216876], [17.503491, 49.216802], [17.503564, 49.21663], [17.503718, 49.216291]]]}, "properties": {"ref:zabaged": "476876495", "zabaged_type": "vodní", "name": "Bělov", "id_eru": "28629_T11", "vykon_MW": 1.62, "area_m2": 7668, "osm_power_plant_within_300m": false, "osm_solar_object_within_300m": null}}, {"type": "Feature", "geometry": {"type": "Polygon", "coordinates": [[[17.30782, 48.974003], [17.30796, 48.97431], [17.308077, 48.974975], [17.307338, 48.97522], [17.306018, 48.974995], [17.304217, 48.974636], [17.304253, 48.974568], [17.304311, 48.974458], [17.304351, 48.974375], [17.304412, 48.974255], [17.304462, 48.974169], [17.304471, 48.974151], [17.304686, 48.974203], [17.304704, 48.974106], [17.304708, 48.974075], [17.304625, 48.974063], [17.304824, 48.973733], [17.30494, 48.97352], [17.305326, 48.973609], [17.306616, 48.973918], [17.306975, 48.973263], [17.307173, 48.973282], [17.307197, 48.973448], [17.307749, 48.973962], [17.30782, 48.974003]]]}, "properties": {"ref:zabaged": "477593740", "zabaged_type": "solární", "name": null, "id_eru": "06261_T11", "vykon_MW": 0.8, "area_m2": 36776, "osm_power_plant_within_300m": false, "osm_solar_object_within_300m": true}}, {"type": "Feature", "geometry": {"type": "Polygon", "coordinates": [[[17.383833, 49.034557], [17.384606, 49.034946], [17.385346, 49.035455], [17.386598, 49.036456], [17.384006, 49.036505], [17.381875, 49.036492], [17.381458, 49.036502], [17.381351, 49.036443], [17.381258, 49.036337], [17.381902, 49.035883], [17.383833, 49.034557]]]}, "properties": {"ref:zabaged": "477597291", "zabaged_type": "solární", "name": null, "id_eru": "15659_T11", "vykon_MW": 2.049, "area_m2": 45939, "osm_power_plant_within_300m": false, "osm_solar_object_within_300m": true}}, {"type": "Feature", "geometry": {"type": "Polygon", "coordinates": [[[17.567147, 49.235031], [17.567067, 49.235025], [17.566023, 49.234729], [17.566198, 49.234205], [17.567286, 49.23452], [17.56721, 49.234707], [17.567186, 49.234786], [17.567173, 49.23484], [17.567164, 49.234882], [17.567151, 49.234972], [17.567147, 49.235031]]]}, "properties": {"ref:zabaged": "476872787", "zabaged_type": "solární", "name": null, "id_eru": "14241_T11", "vykon_MW": 0.226, "area_m2": 5023, "osm_power_plant_within_300m": false, "osm_solar_object_within_300m": true}}, {"type": "Feature", "geometry": {"type": "Polygon", "coordinates": [[[17.389501, 48.919849], [17.388824, 48.919905], [17.387696, 48.919692], [17.387709, 48.919665], [17.387827, 48.919415], [17.387861, 48.919344], [17.387925, 48.919232], [17.387946, 48.919192], [17.387965, 48.919159], [17.388, 48.9191], [17.388035, 48.919029], [17.388095, 48.91891], [17.388106, 48.918887], [17.388137, 48.918851], [17.388169, 48.918817], [17.388214, 48.918769], [17.388324, 48.918659], [17.388417, 48.91856], [17.388528, 48.918456], [17.3886, 48.918383], [17.388724, 48.918254], [17.388827, 48.918177], [17.388889, 48.918133], [17.388996, 48.918074], [17.389134, 48.918012], [17.389213, 48.917981], [17.389333, 48.917922], [17.389394, 48.917885], [17.38955, 48.91789], [17.38986, 48.917944], [17.390179, 48.917997], [17.390395, 48.918044], [17.390726, 48.918135], [17.39103, 48.918219], [17.391226, 48.918259], [17.391039, 48.918364], [17.390722, 48.918595], [17.390314, 48.918998], [17.389501, 48.919849]]]}, "properties": {"ref:zabaged": "480242082", "zabaged_type": "solární", "name": null, "id_eru": "14083_T11", "vykon_MW": 1.27, "area_m2": 32580, "osm_power_plant_within_300m": false, "osm_solar_object_within_300m": true}}, {"type": "Feature", "geometry": {"type": "Polygon", "coordinates": [[[17.615553, 49.027286], [17.61546, 49.027277], [17.615118, 49.027222], [17.614736, 49.027186], [17.614654, 49.027061], [17.614498, 49.026853], [17.614379, 49.026649], [17.614325, 49.026549], [17.613638, 49.026319], [17.613592, 49.026135], [17.613809, 49.025938], [17.613397, 49.02532], [17.61362, 49.025181], [17.614209, 49.025139], [17.614522, 49.025184], [17.614688, 49.025215], [17.615174, 49.025302], [17.615539, 49.025375], [17.615605, 49.025423], [17.615647, 49.025588], [17.615675, 49.025695], [17.615703, 49.02577], [17.615745, 49.025816], [17.61586, 49.025883], [17.615982, 49.025938], [17.616117, 49.026006], [17.616255, 49.026068], [17.616398, 49.026196], [17.616056, 49.026247], [17.616107, 49.026322], [17.616609, 49.026246], [17.616686, 49.026251], [17.617321, 49.026942], [17.616681, 49.026996], [17.616606, 49.027001], [17.616536, 49.027045], [17.616509, 49.027078], [17.616449, 49.027067], [17.616376, 49.027057], [17.616331, 49.027054], [17.616309, 49.027055], [17.616287, 49.027059], [17.616267, 49.027064], [17.616246, 49.027072], [17.616194, 49.027093], [17.616131, 49.02712], [17.615992, 49.02718], [17.615833, 49.027249], [17.615747, 49.027275], [17.615692, 49.027286], [17.615626, 49.02729], [17.615553, 49.027286]]]}, "properties": {"ref:zabaged": "476895096", "zabaged_type": "solární", "name": null, "id_eru": "14581_T11", "vykon_MW": 1.8900000000000001, "area_m2": 38250, "osm_power_plant_within_300m": false, "osm_solar_object_within_300m": true}}, {"type": "Feature", "geometry": {"type": "Polygon", "coordinates": [[[17.399509, 48.914293], [17.399028, 48.914369], [17.398966, 48.914231], [17.398612, 48.914294], [17.398151, 48.913181], [17.39848, 48.913121], [17.398419, 48.91298], [17.398233, 48.912466], [17.39866, 48.912358], [17.39892, 48.912772], [17.398972, 48.912866], [17.399065, 48.913086], [17.399335, 48.913777], [17.399509, 48.914293]]]}, "properties": {"ref:zabaged": "480242064", "zabaged_type": "plynová a spalovací", "name": null, "id_eru": "25392_T11", "vykon_MW": 2, "area_m2": 12134, "osm_power_plant_within_300m": false, "osm_solar_object_within_300m": null}}, {"type": "Feature", "geometry": {"type": "Polygon", "coordinates": [[[17.628779, 49.066191], [17.629194, 49.065883], [17.628949, 49.065722], [17.629516, 49.065387], [17.629767, 49.065548], [17.629778, 49.06602], [17.629939, 49.066155], [17.629766, 49.066244], [17.629703, 49.066274], [17.629653, 49.066295], [17.629616, 49.066306], [17.629581, 49.066315], [17.629541, 49.066322], [17.629499, 49.066327], [17.629451, 49.066331], [17.629405, 49.066334], [17.629354, 49.066333], [17.629302, 49.066331], [17.629256, 49.066328], [17.629189, 49.06632], [17.629115, 49.06631], [17.629065, 49.066302], [17.629021, 49.066293], [17.628989, 49.066284], [17.62896, 49.066274], [17.628931, 49.066263], [17.62889, 49.066246], [17.628846, 49.066226], [17.628779, 49.066191]]]}, "properties": {"ref:zabaged": "59547351089414144", "zabaged_type": "solární", "name": null, "id_eru": "37077_T11", "vykon_MW": 0.42200000000000004, "area_m2": 5185, "osm_power_plant_within_300m": false, "osm_solar_object_within_300m": false}}, {"type": "Feature", "geometry": {"type": "Polygon", "coordinates": [[[17.487032, 49.007552], [17.486934, 49.007353], [17.487496, 49.007113], [17.487617, 49.007151], [17.487953, 49.007487], [17.487691, 49.007605], [17.487032, 49.007552]]]}, "properties": {"ref:zabaged": "59547339462803456", "zabaged_type": "solární", "name": null, "id_eru": "36933_T11", "vykon_MW": 0.29700000000000004, "area_m2": 2558, "osm_power_plant_within_300m": false, "osm_solar_object_within_300m": false}}, {"type": "Feature", "geometry": {"type": "Polygon", "coordinates": [[[17.604723, 49.049253], [17.604623, 49.04917], [17.60462, 49.049038], [17.604567, 49.048992], [17.60455, 49.048723], [17.604919, 49.048535], [17.605127, 49.04851], [17.605514, 49.048698], [17.605613, 49.048746], [17.604723, 49.049253]]]}, "properties": {"ref:zabaged": "59547361709391872", "zabaged_type": "solární", "name": null, "id_eru": "37688_T11", "vykon_MW": 0.277, "area_m2": 3548, "osm_power_plant_within_300m": false, "osm_solar_object_within_300m": false}}, {"type": "Feature", "geometry": {"type": "Polygon", "coordinates": [[[17.623669, 49.028928], [17.623681, 49.028939], [17.624609, 49.02986], [17.624039, 49.030092], [17.623929, 49.029974], [17.62388, 49.02992], [17.623761, 49.029966], [17.6234, 49.029603], [17.623436, 49.029588], [17.623389, 49.029538], [17.62319, 49.029344], [17.623287, 49.029159], [17.623669, 49.028928]]]}, "properties": {"ref:zabaged": "59547357229875200", "zabaged_type": "solární", "name": null, "id_eru": "37969_T11", "vykon_MW": 0.47400000000000003, "area_m2": 6450, "osm_power_plant_within_300m": false, "osm_solar_object_within_300m": false}}, {"type": "Feature", "geometry": {"type": "Polygon", "coordinates": [[[17.728501, 49.224046], [17.728505, 49.223912], [17.728545, 49.22388], [17.729647, 49.22386], [17.729873, 49.223859], [17.730704, 49.223854], [17.731101, 49.22385], [17.731268, 49.223955], [17.731363, 49.22401], [17.731384, 49.224023], [17.731399, 49.224044], [17.731413, 49.224078], [17.731416, 49.224309], [17.730829, 49.224315], [17.730713, 49.224317], [17.730132, 49.224323], [17.729048, 49.224332], [17.729046, 49.224116], [17.729046, 49.224089], [17.729045, 49.224045], [17.729046, 49.224035], [17.728531, 49.22404], [17.728501, 49.224046]]]}, "properties": {"ref:zabaged": "59547424640729088", "zabaged_type": "solární", "name": null, "id_eru": "37738_T11", "vykon_MW": 0.792, "area_m2": 9347, "osm_power_plant_within_300m": false, "osm_solar_object_within_300m": false}}]}