{"type": "FeatureCollection", "features": [{"type": "Feature", "geometry": {"type": "Point", "coordinates": [17.118889, 48.395556]}, "properties": {"inspire_local_id": "SK11801.SYNOP.KSA-KSK", "station_code": "SK11801", "name": "Kuchyňa - Nový Dvor", "siet": "synoptická, klimatologická", "proposed_tag": "man_made=monitoring_station + monitoring:weather=yes + operator=Slovenský hydrometeorologický ústav", "osm_monitoring_station_50m": false}}, {"type": "Feature", "geometry": {"type": "Point", "coordinates": [17.10583333, 48.16777778]}, "properties": {"inspire_local_id": "SK11813.SYNOP.KSA-KSK", "station_code": "SK11813", "name": "Bratislava - Koliba", "siet": "synoptická, klimatologická", "proposed_tag": "man_made=monitoring_station + monitoring:weather=yes + operator=Slovenský hydrometeorologický ústav", "osm_monitoring_station_50m": true}}, {"type": "Feature", "geometry": {"type": "Point", "coordinates": [17.2075, 48.17027778]}, "properties": {"inspire_local_id": "SK11816.SYNOP.KSA-KSK", "station_code": "SK11816", "name": "Bratislava - letisko", "siet": "synoptická, klimatologická", "proposed_tag": "man_made=monitoring_station + monitoring:weather=yes + operator=Slovenský hydrometeorologický ústav", "osm_monitoring_station_50m": false}}, {"type": "Feature", "geometry": {"type": "Point", "coordinates": [17.66388889, 48.48611111]}, "properties": {"inspire_local_id": "SK11819.SYNOP.KSA-DP", "station_code": "SK11819", "name": "Jaslovské Bohunice", "siet": "synoptická, klimatologická", "proposed_tag": "man_made=monitoring_station + monitoring:weather=yes + operator=Slovenský hydrometeorologický ústav", "osm_monitoring_station_50m": true}}, {"type": "Feature", "geometry": {"type": "Point", "coordinates": [17.83166667, 48.61305556]}, "properties": {"inspire_local_id": "SK11826.SYNOP.KSA-KSK", "station_code": "SK11826", "name": "Piešťany", "siet": "synoptická, klimatologická", "proposed_tag": "man_made=monitoring_station + monitoring:weather=yes + operator=Slovenský hydrometeorologický ústav", "osm_monitoring_station_50m": false}}, {"type": "Feature", "geometry": {"type": "Point", "coordinates": [18.61416667, 49.2325]}, "properties": {"inspire_local_id": "SK11841.SYNOP.KSA-KSK", "station_code": "SK11841", "name": "Dolný Hričov", "siet": "synoptická, klimatologická", "proposed_tag": "man_made=monitoring_station + monitoring:weather=yes + operator=Slovenský hydrometeorologický ústav", "osm_monitoring_station_50m": false}}, {"type": "Feature", "geometry": {"type": "Point", "coordinates": [18.13388889, 48.28027778]}, "properties": {"inspire_local_id": "SK11855.SYNOP.KSA-KSK", "station_code": "SK11855", "name": "Nitra - Velké Janíkovce", "siet": "synoptická, klimatologická", "proposed_tag": "man_made=monitoring_station + monitoring:weather=yes + operator=Slovenský hydrometeorologický ústav", "osm_monitoring_station_50m": false}}, {"type": "Feature", "geometry": {"type": "Point", "coordinates": [18.455, 48.28888889]}, "properties": {"inspire_local_id": "SK11856.SYNOP.KSA", "station_code": "SK11856", "name": "Mochovce", "siet": "synoptická, klimatologická", "proposed_tag": "man_made=monitoring_station + monitoring:weather=yes + operator=Slovenský hydrometeorologický ústav", "osm_monitoring_station_50m": false}}, {"type": "Feature", "geometry": {"type": "Point", "coordinates": [18.19305556, 47.8725]}, "properties": {"inspire_local_id": "SK11858.SYNOP.KSA-KSK", "station_code": "SK11858", "name": "Hurbanovo", "siet": "synoptická, klimatologická", "proposed_tag": "man_made=monitoring_station + monitoring:weather=yes + operator=Slovenský hydrometeorologický ústav", "osm_monitoring_station_50m": false}}, {"type": "Feature", "geometry": {"type": "Point", "coordinates": [18.592987, 48.767594]}, "properties": {"inspire_local_id": "SK11867.SYNOP.KSA-KSK", "station_code": "SK11867", "name": "Prievidza", "siet": "synoptická, klimatologická", "proposed_tag": "man_made=monitoring_station + monitoring:weather=yes + operator=Slovenský hydrometeorologický ústav", "osm_monitoring_station_50m": false}}, {"type": "Feature", "geometry": {"type": "Point", "coordinates": [18.87694444, 48.16972222]}, "properties": {"inspire_local_id": "SK11880.SYNOP.KSA-KSK", "station_code": "SK11880", "name": "Dudince", "siet": "synoptická, klimatologická", "proposed_tag": "man_made=monitoring_station + monitoring:weather=yes + operator=Slovenský hydrometeorologický ústav", "osm_monitoring_station_50m": true}}, {"type": "Feature", "geometry": {"type": "Point", "coordinates": [19.139493, 48.639006]}, "properties": {"inspire_local_id": "SK11903.SYNOP.KSA-KSK", "station_code": "SK11903", "name": "Sliač", "siet": "synoptická, klimatologická", "proposed_tag": "man_made=monitoring_station + monitoring:weather=yes + operator=Slovenský hydrometeorologický ústav", "osm_monitoring_station_50m": false}}, {"type": "Feature", "geometry": {"type": "Point", "coordinates": [19.588889, 48.943333]}, "properties": {"inspire_local_id": "SK11916.SYNOP.KSA-KSK", "station_code": "SK11916", "name": "Chopok", "siet": "synoptická, klimatologická", "proposed_tag": "man_made=monitoring_station + monitoring:weather=yes + operator=Slovenský hydrometeorologický ústav", "osm_monitoring_station_50m": true}}, {"type": "Feature", "geometry": {"type": "Point", "coordinates": [19.678204, 49.369523]}, "properties": {"inspire_local_id": "SK11918.SYNOP.KSA-KSK", "station_code": "SK11918", "name": "Liesek", "siet": "synoptická, klimatologická", "proposed_tag": "man_made=monitoring_station + monitoring:weather=yes + operator=Slovenský hydrometeorologický ústav", "osm_monitoring_station_50m": false}}, {"type": "Feature", "geometry": {"type": "Point", "coordinates": [19.733876, 48.339365]}, "properties": {"inspire_local_id": "SK11927.SYNOP.KSA-KSK", "station_code": "SK11927", "name": "Boľkovce", "siet": "synoptická, klimatologická", "proposed_tag": "man_made=monitoring_station + monitoring:weather=yes + operator=Slovenský hydrometeorologický ústav", "osm_monitoring_station_50m": false}}, {"type": "Feature", "geometry": {"type": "Point", "coordinates": [20.213056, 49.19527778]}, "properties": {"inspire_local_id": "SK11930.SYNOP.KSA-KSK", "station_code": "SK11930", "name": "Lomnicky Štít", "siet": "synoptická, klimatologická", "proposed_tag": "man_made=monitoring_station + monitoring:weather=yes + operator=Slovenský hydrometeorologický ústav", "osm_monitoring_station_50m": false}}, {"type": "Feature", "geometry": {"type": "Point", "coordinates": [20.062418, 49.117785]}, "properties": {"inspire_local_id": "SK11933.SYNOP.KSA-KSK", "station_code": "SK11933", "name": "Štrbské Pleso", "siet": "synoptická, klimatologická", "proposed_tag": "man_made=monitoring_station + monitoring:weather=yes + operator=Slovenský hydrometeorologický ústav", "osm_monitoring_station_50m": true}}, {"type": "Feature", "geometry": {"type": "Point", "coordinates": [20.24944444, 49.068056]}, "properties": {"inspire_local_id": "SK11934.SYNOP.KSA-KSK", "station_code": "SK11934", "name": "Poprad", "siet": "synoptická, klimatologická", "proposed_tag": "man_made=monitoring_station + monitoring:weather=yes + operator=Slovenský hydrometeorologický ústav", "osm_monitoring_station_50m": false}}, {"type": "Feature", "geometry": {"type": "Point", "coordinates": [20.187658, 48.848362]}, "properties": {"inspire_local_id": "SK11938.SYNOP.KSA-KSK", "station_code": "SK11938", "name": "Telgárt", "siet": "synoptická, klimatologická", "proposed_tag": "man_made=monitoring_station + monitoring:weather=yes + operator=Slovenský hydrometeorologický ústav", "osm_monitoring_station_50m": false}}, {"type": "Feature", "geometry": {"type": "Point", "coordinates": [20.323284, 49.034741]}, "properties": {"inspire_local_id": "SK11952.SYNOP.KSA-KSK", "station_code": "SK11952", "name": "Gánovce", "siet": "synoptická, klimatologická", "proposed_tag": "man_made=monitoring_station + monitoring:weather=yes + operator=Slovenský hydrometeorologický ústav", "osm_monitoring_station_50m": true}}, {"type": "Feature", "geometry": {"type": "Point", "coordinates": [21.30444444, 49.03]}, "properties": {"inspire_local_id": "SK11955.SYNOP.KSA-KSK", "station_code": "SK11955", "name": "Prešov-vojsko", "siet": "synoptická, klimatologická", "proposed_tag": "man_made=monitoring_station + monitoring:weather=yes + operator=Slovenský hydrometeorologický ústav", "osm_monitoring_station_50m": true}}, {"type": "Feature", "geometry": {"type": "Point", "coordinates": [20.987029, 48.782907]}, "properties": {"inspire_local_id": "SK11958.SYNOP.KSA", "station_code": "SK11958", "name": "Kojšovská hoľa", "siet": "synoptická, klimatologická", "proposed_tag": "man_made=monitoring_station + monitoring:weather=yes + operator=Slovenský hydrometeorologický ústav", "osm_monitoring_station_50m": true}}, {"type": "Feature", "geometry": {"type": "Point", "coordinates": [21.238661, 48.670761]}, "properties": {"inspire_local_id": "SK11968.SYNOP.KSA-KSK", "station_code": "SK11968", "name": "Košice - letisko", "siet": "synoptická, klimatologická", "proposed_tag": "man_made=monitoring_station + monitoring:weather=yes + operator=Slovenský hydrometeorologický ústav", "osm_monitoring_station_50m": false}}, {"type": "Feature", "geometry": {"type": "Point", "coordinates": [21.64638889, 49.21472222]}, "properties": {"inspire_local_id": "SK11976.SYNOP.KSA-KSK", "station_code": "SK11976", "name": "Tisinec", "siet": "synoptická, klimatologická", "proposed_tag": "man_made=monitoring_station + monitoring:weather=yes + operator=Slovenský hydrometeorologický ústav", "osm_monitoring_station_50m": false}}, {"type": "Feature", "geometry": {"type": "Point", "coordinates": [21.72194444, 48.66305556]}, "properties": {"inspire_local_id": "SK11978.SYNOP.KSA-KSK", "station_code": "SK11978", "name": "Milhostov", "siet": "synoptická, klimatologická", "proposed_tag": "man_made=monitoring_station + monitoring:weather=yes + operator=Slovenský hydrometeorologický ústav", "osm_monitoring_station_50m": false}}, {"type": "Feature", "geometry": {"type": "Point", "coordinates": [21.994444, 48.93472222]}, "properties": {"inspire_local_id": "SK11993.SYNOP.KSA-KSK", "station_code": "SK11993", "name": "Kamenica nad Cirochou", "siet": "synoptická, klimatologická", "proposed_tag": "man_made=monitoring_station + monitoring:weather=yes + operator=Slovenský hydrometeorologický ústav", "osm_monitoring_station_50m": false}}, {"type": "Feature", "geometry": {"type": "Point", "coordinates": [17.176128, 48.818783]}, "properties": {"inspire_local_id": "SK11800.KSA", "station_code": "SK11800", "name": "Holíč", "siet": "klimatologická", "proposed_tag": "man_made=monitoring_station + monitoring:weather=yes + operator=Slovenský hydrometeorologický ústav", "osm_monitoring_station_50m": false}}, {"type": "Feature", "geometry": {"type": "Point", "coordinates": [17.99944444, 48.86638889]}, "properties": {"inspire_local_id": "SK11803.KSA-DP", "station_code": "SK11803", "name": "Trenčín", "siet": "klimatologická", "proposed_tag": "man_made=monitoring_station + monitoring:weather=yes + operator=Slovenský hydrometeorologický ústav", "osm_monitoring_station_50m": false}}, {"type": "Feature", "geometry": {"type": "Point", "coordinates": [17.403094, 48.68915]}, "properties": {"inspire_local_id": "SK11805.KSA", "station_code": "SK11805", "name": "Senica", "siet": "klimatologická", "proposed_tag": "man_made=monitoring_station + monitoring:weather=yes + operator=Slovenský hydrometeorologický ústav", "osm_monitoring_station_50m": false}}, {"type": "Feature", "geometry": {"type": "Point", "coordinates": [17.56027778, 48.75333333]}, "properties": {"inspire_local_id": "SK11806.KSA", "station_code": "SK11806", "name": "Myjava", "siet": "klimatologická", "proposed_tag": "man_made=monitoring_station + monitoring:weather=yes + operator=Slovenský hydrometeorologický ústav", "osm_monitoring_station_50m": false}}, {"type": "Feature", "geometry": {"type": "Point", "coordinates": [17.06777778, 48.15222222]}, "properties": {"inspire_local_id": "SK11810.KSA-DP", "station_code": "SK11810", "name": "Bratislava-Mlynská dolina", "siet": "klimatologická", "proposed_tag": "man_made=monitoring_station + monitoring:weather=yes + operator=Slovenský hydrometeorologický ústav", "osm_monitoring_station_50m": true}}, {"type": "Feature", "geometry": {"type": "Point", "coordinates": [17.152589, 48.255743]}, "properties": {"inspire_local_id": "SK11812.KSA-DP", "station_code": "SK11812", "name": "Malý Javorník", "siet": "klimatologická", "proposed_tag": "man_made=monitoring_station + monitoring:weather=yes + operator=Slovenský hydrometeorologický ústav", "osm_monitoring_station_50m": true}}, {"type": "Feature", "geometry": {"type": "Point", "coordinates": [17.277434, 48.260417]}, "properties": {"inspire_local_id": "SK11815.KSA-DP", "station_code": "SK11815", "name": "Slovenský Grob", "siet": "klimatologická", "proposed_tag": "man_made=monitoring_station + monitoring:weather=yes + operator=Slovenský hydrometeorologický ústav", "osm_monitoring_station_50m": false}}, {"type": "Feature", "geometry": {"type": "Point", "coordinates": [17.513472, 48.198208]}, "properties": {"inspire_local_id": "SK11817.KSA-DP", "station_code": "SK11817", "name": "Kráľová pri Senci", "siet": "klimatologická", "proposed_tag": "man_made=monitoring_station + monitoring:weather=yes + operator=Slovenský hydrometeorologický ústav", "osm_monitoring_station_50m": false}}, {"type": "Feature", "geometry": {"type": "Point", "coordinates": [17.566213, 47.897736]}, "properties": {"inspire_local_id": "SK11818.KSA-DP", "station_code": "SK11818", "name": "Gabčíkovo", "siet": "klimatologická", "proposed_tag": "man_made=monitoring_station + monitoring:weather=yes + operator=Slovenský hydrometeorologický ústav", "osm_monitoring_station_50m": false}}, {"type": "Feature", "geometry": {"type": "Point", "coordinates": [17.881963, 48.070327]}, "properties": {"inspire_local_id": "SK11820.KSA-DP", "station_code": "SK11820", "name": "Žihárec", "siet": "klimatologická", "proposed_tag": "man_made=monitoring_station + monitoring:weather=yes + operator=Slovenský hydrometeorologický ústav", "osm_monitoring_station_50m": false}}, {"type": "Feature", "geometry": {"type": "Point", "coordinates": [17.27388889, 48.37277778]}, "properties": {"inspire_local_id": "SK11833.KSA", "station_code": "SK11833", "name": "Modra - Piesok", "siet": "klimatologická", "proposed_tag": "man_made=monitoring_station + monitoring:weather=yes + operator=Slovenský hydrometeorologický ústav", "osm_monitoring_station_50m": true}}, {"type": "Feature", "geometry": {"type": "Point", "coordinates": [16.99416667, 48.58166667]}, "properties": {"inspire_local_id": "SK11835.KSA", "station_code": "SK11835", "name": "Moravský Svätý Ján", "siet": "klimatologická", "proposed_tag": "man_made=monitoring_station + monitoring:weather=yes + operator=Slovenský hydrometeorologický ústav", "osm_monitoring_station_50m": false}}, {"type": "Feature", "geometry": {"type": "Point", "coordinates": [18.10277778, 48.47027778]}, "properties": {"inspire_local_id": "SK11838.KSA", "station_code": "SK11838", "name": "Kamanová", "siet": "klimatologická", "proposed_tag": "man_made=monitoring_station + monitoring:weather=yes + operator=Slovenský hydrometeorologický ústav", "osm_monitoring_station_50m": false}}, {"type": "Feature", "geometry": {"type": "Point", "coordinates": [18.341417, 48.741415]}, "properties": {"inspire_local_id": "SK11839.KSA-DP", "station_code": "SK11839", "name": "Uhrovec", "siet": "klimatologická", "proposed_tag": "man_made=monitoring_station + monitoring:weather=yes + operator=Slovenský hydrometeorologický ústav", "osm_monitoring_station_50m": false}}, {"type": "Feature", "geometry": {"type": "Point", "coordinates": [17.9875, 48.50944444]}, "properties": {"inspire_local_id": "SK11846.KSK", "station_code": "SK11846", "name": "Veľké Ripňany", "siet": "klimatologická", "proposed_tag": "man_made=monitoring_station + monitoring:weather=yes + operator=Slovenský hydrometeorologický ústav", "osm_monitoring_station_50m": false}}, {"type": "Feature", "geometry": {"type": "Point", "coordinates": [18.15472222, 48.56333333]}, "properties": {"inspire_local_id": "SK11847.KSK", "station_code": "SK11847", "name": "Topoľčany", "siet": "klimatologická", "proposed_tag": "man_made=monitoring_station + monitoring:weather=yes + operator=Slovenský hydrometeorologický ústav", "osm_monitoring_station_50m": false}}, {"type": "Feature", "geometry": {"type": "Point", "coordinates": [18.388436, 48.458319]}, "properties": {"inspire_local_id": "SK11849.KSA", "station_code": "SK11849", "name": "Žikava", "siet": "klimatologická", "proposed_tag": "man_made=monitoring_station + monitoring:weather=yes + operator=Slovenský hydrometeorologický ústav", "osm_monitoring_station_50m": false}}, {"type": "Feature", "geometry": {"type": "Point", "coordinates": [18.626783, 49.401564]}, "properties": {"inspire_local_id": "SK11857.KSA", "station_code": "SK11857", "name": "Turzovka", "siet": "klimatologická", "proposed_tag": "man_made=monitoring_station + monitoring:weather=yes + operator=Slovenský hydrometeorologický ústav", "osm_monitoring_station_50m": false}}, {"type": "Feature", "geometry": {"type": "Point", "coordinates": [18.31638889, 49.06583333]}, "properties": {"inspire_local_id": "SK11862.KSA-DP", "station_code": "SK11862", "name": "Beluša", "siet": "klimatologická", "proposed_tag": "man_made=monitoring_station + monitoring:weather=yes + operator=Slovenský hydrometeorologický ústav", "osm_monitoring_station_50m": true}}, {"type": "Feature", "geometry": {"type": "Point", "coordinates": [18.771139, 49.211439]}, "properties": {"inspire_local_id": "SK11865.KSA", "station_code": "SK11865", "name": "Žilina", "siet": "klimatologická", "proposed_tag": "man_made=monitoring_station + monitoring:weather=yes + operator=Slovenský hydrometeorologický ústav", "osm_monitoring_station_50m": false}}, {"type": "Feature", "geometry": {"type": "Point", "coordinates": [18.809131, 49.430769]}, "properties": {"inspire_local_id": "SK11866.KSA", "station_code": "SK11866", "name": "Čadca", "siet": "klimatologická", "proposed_tag": "man_made=monitoring_station + monitoring:weather=yes + operator=Slovenský hydrometeorologický ústav", "osm_monitoring_station_50m": false}}, {"type": "Feature", "geometry": {"type": "Point", "coordinates": [19.182453, 49.367867]}, "properties": {"inspire_local_id": "SK11868.KSA-DP", "station_code": "SK11868", "name": "Oravská Lesná", "siet": "klimatologická", "proposed_tag": "man_made=monitoring_station + monitoring:weather=yes + operator=Slovenský hydrometeorologický ústav", "osm_monitoring_station_50m": false}}, {"type": "Feature", "geometry": {"type": "Point", "coordinates": [19.483603, 49.478717]}, "properties": {"inspire_local_id": "SK11869.KSA-DP", "station_code": "SK11869", "name": "Rabča", "siet": "klimatologická", "proposed_tag": "man_made=monitoring_station + monitoring:weather=yes + operator=Slovenský hydrometeorologický ústav", "osm_monitoring_station_50m": false}}, {"type": "Feature", "geometry": {"type": "Point", "coordinates": [19.34087, 49.071728]}, "properties": {"inspire_local_id": "SK11872.KSA-DP", "station_code": "SK11872", "name": "Ružomberok", "siet": "klimatologická", "proposed_tag": "man_made=monitoring_station + monitoring:weather=yes + operator=Slovenský hydrometeorologický ústav", "osm_monitoring_station_50m": false}}, {"type": "Feature", "geometry": {"type": "Point", "coordinates": [19.717285, 49.04033]}, "properties": {"inspire_local_id": "SK11874.KSA-DP", "station_code": "SK11874", "name": "Liptovský Hrádok", "siet": "klimatologická", "proposed_tag": "man_made=monitoring_station + monitoring:weather=yes + operator=Slovenský hydrometeorologický ústav", "osm_monitoring_station_50m": false}}, {"type": "Feature", "geometry": {"type": "Point", "coordinates": [19.909004, 49.140056]}, "properties": {"inspire_local_id": "SK11876.KSA-DP", "station_code": "SK11876", "name": "Podbanské", "siet": "klimatologická", "proposed_tag": "man_made=monitoring_station + monitoring:weather=yes + operator=Slovenský hydrometeorologický ústav", "osm_monitoring_station_50m": false}}, {"type": "Feature", "geometry": {"type": "Point", "coordinates": [19.590288, 49.09739]}, "properties": {"inspire_local_id": "SK11878.KSA-DP", "station_code": "SK11878", "name": "Liptovský Mikuláš - Ondrašová", "siet": "klimatologická", "proposed_tag": "man_made=monitoring_station + monitoring:weather=yes + operator=Slovenský hydrometeorologický ústav", "osm_monitoring_station_50m": false}}, {"type": "Feature", "geometry": {"type": "Point", "coordinates": [18.908094, 48.734789]}, "properties": {"inspire_local_id": "SK11879.KSA-DP", "station_code": "SK11879", "name": "Kremnické Bane", "siet": "klimatologická", "proposed_tag": "man_made=monitoring_station + monitoring:weather=yes + operator=Slovenský hydrometeorologický ústav", "osm_monitoring_station_50m": false}}, {"type": "Feature", "geometry": {"type": "Point", "coordinates": [18.641111, 48.045833]}, "properties": {"inspire_local_id": "SK11881.KSA-DP", "station_code": "SK11881", "name": "Želiezovce", "siet": "klimatologická", "proposed_tag": "man_made=monitoring_station + monitoring:weather=yes + operator=Slovenský hydrometeorologický ústav", "osm_monitoring_station_50m": false}}, {"type": "Feature", "geometry": {"type": "Point", "coordinates": [18.335425, 48.056087]}, "properties": {"inspire_local_id": "SK11883.KSA-DP", "station_code": "SK11883", "name": "Veľké Lovce", "siet": "klimatologická", "proposed_tag": "man_made=monitoring_station + monitoring:weather=yes + operator=Slovenský hydrometeorologický ústav", "osm_monitoring_station_50m": false}}, {"type": "Feature", "geometry": {"type": "Point", "coordinates": [18.595672, 47.800456]}, "properties": {"inspire_local_id": "SK11884.KSA-DP", "station_code": "SK11884", "name": "Mužla", "siet": "klimatologická", "proposed_tag": "man_made=monitoring_station + monitoring:weather=yes + operator=Slovenský hydrometeorologický ústav", "osm_monitoring_station_50m": false}}, {"type": "Feature", "geometry": {"type": "Point", "coordinates": [19.383519, 49.471175]}, "properties": {"inspire_local_id": "SK11890.KSA-DP", "station_code": "SK11890", "name": "Oravské Veselé", "siet": "klimatologická", "proposed_tag": "man_made=monitoring_station + monitoring:weather=yes + operator=Slovenský hydrometeorologický ústav", "osm_monitoring_station_50m": false}}, {"type": "Feature", "geometry": {"type": "Point", "coordinates": [19.369081, 49.262162]}, "properties": {"inspire_local_id": "SK11892.KSA-DP", "station_code": "SK11892", "name": "Oravský Podzamok", "siet": "klimatologická", "proposed_tag": "man_made=monitoring_station + monitoring:weather=yes + operator=Slovenský hydrometeorologický ústav", "osm_monitoring_station_50m": false}}, {"type": "Feature", "geometry": {"type": "Point", "coordinates": [18.922836, 49.026686]}, "properties": {"inspire_local_id": "SK11893.KSA-DP", "station_code": "SK11893", "name": "Žabokreky pri Martine", "siet": "klimatologická", "proposed_tag": "man_made=monitoring_station + monitoring:weather=yes + operator=Slovenský hydrometeorologický ústav", "osm_monitoring_station_50m": false}}, {"type": "Feature", "geometry": {"type": "Point", "coordinates": [19.223514, 48.875067]}, "properties": {"inspire_local_id": "SK11894.KSA", "station_code": "SK11894", "name": "Donovaly", "siet": "klimatologická", "proposed_tag": "man_made=monitoring_station + monitoring:weather=yes + operator=Slovenský hydrometeorologický ústav", "osm_monitoring_station_50m": true}}, {"type": "Feature", "geometry": {"type": "Point", "coordinates": [18.854947, 48.859067]}, "properties": {"inspire_local_id": "SK11897.KSA-DP", "station_code": "SK11897", "name": "Turčianske Teplice", "siet": "klimatologická", "proposed_tag": "man_made=monitoring_station + monitoring:weather=yes + operator=Slovenský hydrometeorologický ústav", "osm_monitoring_station_50m": false}}, {"type": "Feature", "geometry": {"type": "Point", "coordinates": [19.115097, 48.733419]}, "properties": {"inspire_local_id": "SK11898.KSA-DP", "station_code": "SK11898", "name": "Banská  Bystrica-Zelená", "siet": "klimatologická", "proposed_tag": "man_made=monitoring_station + monitoring:weather=yes + operator=Slovenský hydrometeorologický ústav", "osm_monitoring_station_50m": false}}, {"type": "Feature", "geometry": {"type": "Point", "coordinates": [18.850353, 48.585719]}, "properties": {"inspire_local_id": "SK11900.KSA-DP", "station_code": "SK11900", "name": "Žiar nad Hronom", "siet": "klimatologická", "proposed_tag": "man_made=monitoring_station + monitoring:weather=yes + operator=Slovenský hydrometeorologický ústav", "osm_monitoring_station_50m": false}}, {"type": "Feature", "geometry": {"type": "Point", "coordinates": [18.919689, 48.449061]}, "properties": {"inspire_local_id": "SK11901.KSA-DP", "station_code": "SK11901", "name": "Banská Štiavnica", "siet": "klimatologická", "proposed_tag": "man_made=monitoring_station + monitoring:weather=yes + operator=Slovenský hydrometeorologický ústav", "osm_monitoring_station_50m": false}}, {"type": "Feature", "geometry": {"type": "Point", "coordinates": [19.0925, 48.318611]}, "properties": {"inspire_local_id": "SK11902.KSA-DP", "station_code": "SK11902", "name": "Bzovík", "siet": "klimatologická", "proposed_tag": "man_made=monitoring_station + monitoring:weather=yes + operator=Slovenský hydrometeorologický ústav", "osm_monitoring_station_50m": false}}, {"type": "Feature", "geometry": {"type": "Point", "coordinates": [19.320137, 48.543744]}, "properties": {"inspire_local_id": "SK11904.KSA-DP", "station_code": "SK11904", "name": "Vígľaš Pstruša", "siet": "klimatologická", "proposed_tag": "man_made=monitoring_station + monitoring:weather=yes + operator=Slovenský hydrometeorologický ústav", "osm_monitoring_station_50m": false}}, {"type": "Feature", "geometry": {"type": "Point", "coordinates": [19.31166667, 48.20305556]}, "properties": {"inspire_local_id": "SK11905.KSA-DP", "station_code": "SK11905", "name": "Dolné Plachtince", "siet": "klimatologická", "proposed_tag": "man_made=monitoring_station + monitoring:weather=yes + operator=Slovenský hydrometeorologický ústav", "osm_monitoring_station_50m": false}}, {"type": "Feature", "geometry": {"type": "Point", "coordinates": [19.27222222, 48.95055556]}, "properties": {"inspire_local_id": "SK11908.KSA-DP", "station_code": "SK11908", "name": "Liptovská Osada", "siet": "klimatologická", "proposed_tag": "man_made=monitoring_station + monitoring:weather=yes + operator=Slovenský hydrometeorologický ústav", "osm_monitoring_station_50m": false}}, {"type": "Feature", "geometry": {"type": "Point", "coordinates": [19.64916667, 48.64388889]}, "properties": {"inspire_local_id": "SK11910.KSA-DP", "station_code": "SK11910", "name": "Lom nad Rimavicou", "siet": "klimatologická", "proposed_tag": "man_made=monitoring_station + monitoring:weather=yes + operator=Slovenský hydrometeorologický ústav", "osm_monitoring_station_50m": false}}, {"type": "Feature", "geometry": {"type": "Point", "coordinates": [19.636517, 48.800347]}, "properties": {"inspire_local_id": "SK11917.KSA-DP", "station_code": "SK11917", "name": "Brezno", "siet": "klimatologická", "proposed_tag": "man_made=monitoring_station + monitoring:weather=yes + operator=Slovenský hydrometeorologický ústav", "osm_monitoring_station_50m": false}}, {"type": "Feature", "geometry": {"type": "Point", "coordinates": [19.75166667, 49.29972222]}, "properties": {"inspire_local_id": "SK11919.KSA", "station_code": "SK11919", "name": "Oravice", "siet": "klimatologická", "proposed_tag": "man_made=monitoring_station + monitoring:weather=yes + operator=Slovenský hydrometeorologický ústav", "osm_monitoring_station_50m": false}}, {"type": "Feature", "geometry": {"type": "Point", "coordinates": [19.661455, 48.518275]}, "properties": {"inspire_local_id": "SK11926.KSA-DP", "station_code": "SK11926", "name": "Málinec", "siet": "klimatologická", "proposed_tag": "man_made=monitoring_station + monitoring:weather=yes + operator=Slovenský hydrometeorologický ústav", "osm_monitoring_station_50m": false}}, {"type": "Feature", "geometry": {"type": "Point", "coordinates": [20.23416667, 49.18944444]}, "properties": {"inspire_local_id": "SK11931.KSA-KSK", "station_code": "SK11931", "name": "Skalnaté Pleso", "siet": "klimatologická", "proposed_tag": "man_made=monitoring_station + monitoring:weather=yes + operator=Slovenský hydrometeorologický ústav", "osm_monitoring_station_50m": false}}, {"type": "Feature", "geometry": {"type": "Point", "coordinates": [20.28527778, 49.16638889]}, "properties": {"inspire_local_id": "SK11935.KSA-DP", "station_code": "SK11935", "name": "Tatranská Lomnica", "siet": "klimatologická", "proposed_tag": "man_made=monitoring_station + monitoring:weather=yes + operator=Slovenský hydrometeorologický ústav", "osm_monitoring_station_50m": false}}, {"type": "Feature", "geometry": {"type": "Point", "coordinates": [20.13944444, 49.26388889]}, "properties": {"inspire_local_id": "SK11936.KSA-DP", "station_code": "SK11936", "name": "Tatranská Javorina", "siet": "klimatologická", "proposed_tag": "man_made=monitoring_station + monitoring:weather=yes + operator=Slovenský hydrometeorologický ústav", "osm_monitoring_station_50m": false}}, {"type": "Feature", "geometry": {"type": "Point", "coordinates": [20.09166667, 48.5925]}, "properties": {"inspire_local_id": "SK11941.KSA-DP", "station_code": "SK11941", "name": "Ratková", "siet": "klimatologická", "proposed_tag": "man_made=monitoring_station + monitoring:weather=yes + operator=Slovenský hydrometeorologický ústav", "osm_monitoring_station_50m": false}}, {"type": "Feature", "geometry": {"type": "Point", "coordinates": [20.008611, 48.373611]}, "properties": {"inspire_local_id": "SK11942.KSA-DP", "station_code": "SK11942", "name": "Rimavská Sobota", "siet": "klimatologická", "proposed_tag": "man_made=monitoring_station + monitoring:weather=yes + operator=Slovenský hydrometeorologický ústav", "osm_monitoring_station_50m": false}}, {"type": "Feature", "geometry": {"type": "Point", "coordinates": [20.535501, 48.652227]}, "properties": {"inspire_local_id": "SK11944.KSA-DP", "station_code": "SK11944", "name": "Rožňava", "siet": "klimatologická", "proposed_tag": "man_made=monitoring_station + monitoring:weather=yes + operator=Slovenský hydrometeorologický ústav", "osm_monitoring_station_50m": true}}, {"type": "Feature", "geometry": {"type": "Point", "coordinates": [20.709754, 48.813205]}, "properties": {"inspire_local_id": "SK11945.KSA-DP", "station_code": "SK11945", "name": "Švedlár", "siet": "klimatologická", "proposed_tag": "man_made=monitoring_station + monitoring:weather=yes + operator=Slovenský hydrometeorologický ústav", "osm_monitoring_station_50m": false}}, {"type": "Feature", "geometry": {"type": "Point", "coordinates": [20.795397, 48.718147]}, "properties": {"inspire_local_id": "SK11946.KSA-DP", "station_code": "SK11946", "name": "Štós-Kúpele", "siet": "klimatologická", "proposed_tag": "man_made=monitoring_station + monitoring:weather=yes + operator=Slovenský hydrometeorologický ústav", "osm_monitoring_station_50m": false}}, {"type": "Feature", "geometry": {"type": "Point", "coordinates": [21.005117, 48.615076]}, "properties": {"inspire_local_id": "SK11947.KSA-DP", "station_code": "SK11947", "name": "Moldava n.Bodvou", "siet": "klimatologická", "proposed_tag": "man_made=monitoring_station + monitoring:weather=yes + operator=Slovenský hydrometeorologický ústav", "osm_monitoring_station_50m": false}}, {"type": "Feature", "geometry": {"type": "Point", "coordinates": [20.80201, 48.944197]}, "properties": {"inspire_local_id": "SK11949.KSA-DP", "station_code": "SK11949", "name": "Spišské Vlachy", "siet": "klimatologická", "proposed_tag": "man_made=monitoring_station + monitoring:weather=yes + operator=Slovenský hydrometeorologický ústav", "osm_monitoring_station_50m": false}}, {"type": "Feature", "geometry": {"type": "Point", "coordinates": [20.542689, 49.262067]}, "properties": {"inspire_local_id": "SK11950.KSA-DP", "station_code": "SK11950", "name": "Podolínec", "siet": "klimatologická", "proposed_tag": "man_made=monitoring_station + monitoring:weather=yes + operator=Slovenský hydrometeorologický ústav", "osm_monitoring_station_50m": false}}, {"type": "Feature", "geometry": {"type": "Point", "coordinates": [20.4225, 49.38722222]}, "properties": {"inspire_local_id": "SK11951.KSA-DP", "station_code": "SK11951", "name": "Červený Kláštor", "siet": "klimatologická", "proposed_tag": "man_made=monitoring_station + monitoring:weather=yes + operator=Slovenský hydrometeorologický ústav", "osm_monitoring_station_50m": false}}, {"type": "Feature", "geometry": {"type": "Point", "coordinates": [20.115013, 48.692943]}, "properties": {"inspire_local_id": "SK11953.KSA-DP", "station_code": "SK11953", "name": "Revúca", "siet": "klimatologická", "proposed_tag": "man_made=monitoring_station + monitoring:weather=yes + operator=Slovenský hydrometeorologický ústav", "osm_monitoring_station_50m": false}}, {"type": "Feature", "geometry": {"type": "Point", "coordinates": [20.289443, 49.15139]}, "properties": {"inspire_local_id": "SK11957.KSA", "station_code": "SK11957", "name": "Stará Lesná", "siet": "klimatologická", "proposed_tag": "man_made=monitoring_station + monitoring:weather=yes + operator=Slovenský hydrometeorologický ústav", "osm_monitoring_station_50m": true}}, {"type": "Feature", "geometry": {"type": "Point", "coordinates": [20.185763, 49.121659]}, "properties": {"inspire_local_id": "SK11959.KSA-DP", "station_code": "SK11959", "name": "Tatranská Polianka", "siet": "klimatologická", "proposed_tag": "man_made=monitoring_station + monitoring:weather=yes + operator=Slovenský hydrometeorologický ústav", "osm_monitoring_station_50m": false}}, {"type": "Feature", "geometry": {"type": "Point", "coordinates": [20.842235, 49.260129]}, "properties": {"inspire_local_id": "SK11961.KSA-DP", "station_code": "SK11961", "name": "Plaveč nad Popradom", "siet": "klimatologická", "proposed_tag": "man_made=monitoring_station + monitoring:weather=yes + operator=Slovenský hydrometeorologický ústav", "osm_monitoring_station_50m": false}}, {"type": "Feature", "geometry": {"type": "Point", "coordinates": [21.270903, 49.285045]}, "properties": {"inspire_local_id": "SK11962.KSA-DP", "station_code": "SK11962", "name": "Bardejov", "siet": "klimatologická", "proposed_tag": "man_made=monitoring_station + monitoring:weather=yes + operator=Slovenský hydrometeorologický ústav", "osm_monitoring_station_50m": false}}, {"type": "Feature", "geometry": {"type": "Point", "coordinates": [21.139323, 49.108359]}, "properties": {"inspire_local_id": "SK11963.KSA-DP", "station_code": "SK11963", "name": "Jakubovany", "siet": "klimatologická", "proposed_tag": "man_made=monitoring_station + monitoring:weather=yes + operator=Slovenský hydrometeorologický ústav", "osm_monitoring_station_50m": false}}, {"type": "Feature", "geometry": {"type": "Point", "coordinates": [21.63138889, 48.90277778]}, "properties": {"inspire_local_id": "SK11966.KSA-DP", "station_code": "SK11966", "name": "Čaklov", "siet": "klimatologická", "proposed_tag": "man_made=monitoring_station + monitoring:weather=yes + operator=Slovenský hydrometeorologický ústav", "osm_monitoring_station_50m": false}}, {"type": "Feature", "geometry": {"type": "Point", "coordinates": [21.420369, 48.949924]}, "properties": {"inspire_local_id": "SK11967.KSA-DP", "station_code": "SK11967", "name": "Zlatá Baňa", "siet": "klimatologická", "proposed_tag": "man_made=monitoring_station + monitoring:weather=yes + operator=Slovenský hydrometeorologický ústav", "osm_monitoring_station_50m": false}}, {"type": "Feature", "geometry": {"type": "Point", "coordinates": [21.245308, 48.753191]}, "properties": {"inspire_local_id": "SK11969.KSA", "station_code": "SK11969", "name": "Košice-Podhradová", "siet": "klimatologická", "proposed_tag": "man_made=monitoring_station + monitoring:weather=yes + operator=Slovenský hydrometeorologický ústav", "osm_monitoring_station_50m": true}}, {"type": "Feature", "geometry": {"type": "Point", "coordinates": [20.522989, 48.554924]}, "properties": {"inspire_local_id": "SK11970.KSA-DP", "station_code": "SK11970", "name": "Silica", "siet": "klimatologická", "proposed_tag": "man_made=monitoring_station + monitoring:weather=yes + operator=Slovenský hydrometeorologický ústav", "osm_monitoring_station_50m": false}}, {"type": "Feature", "geometry": {"type": "Point", "coordinates": [21.492196, 49.396428]}, "properties": {"inspire_local_id": "SK11974.KSA", "station_code": "SK11974", "name": "Roztoky", "siet": "klimatologická", "proposed_tag": "man_made=monitoring_station + monitoring:weather=yes + operator=Slovenský hydrometeorologický ústav", "osm_monitoring_station_50m": false}}, {"type": "Feature", "geometry": {"type": "Point", "coordinates": [21.884013, 49.301648]}, "properties": {"inspire_local_id": "SK11977.KSA-DP", "station_code": "SK11977", "name": "Medzilaborce-Borov", "siet": "klimatologická", "proposed_tag": "man_made=monitoring_station + monitoring:weather=yes + operator=Slovenský hydrometeorologický ústav", "osm_monitoring_station_50m": false}}, {"type": "Feature", "geometry": {"type": "Point", "coordinates": [21.818808, 48.421917]}, "properties": {"inspire_local_id": "SK11979.KSA-DP", "station_code": "SK11979", "name": "Somotor", "siet": "klimatologická", "proposed_tag": "man_made=monitoring_station + monitoring:weather=yes + operator=Slovenský hydrometeorologický ústav", "osm_monitoring_station_50m": false}}, {"type": "Feature", "geometry": {"type": "Point", "coordinates": [21.886111, 48.732222]}, "properties": {"inspire_local_id": "SK11982.KSA-DP", "station_code": "SK11982", "name": "Michalovce", "siet": "klimatologická", "proposed_tag": "man_made=monitoring_station + monitoring:weather=yes + operator=Slovenský hydrometeorologický ústav", "osm_monitoring_station_50m": false}}, {"type": "Feature", "geometry": {"type": "Point", "coordinates": [22.224087, 48.708594]}, "properties": {"inspire_local_id": "SK11984.KSA-DP", "station_code": "SK11984", "name": "Orechová", "siet": "klimatologická", "proposed_tag": "man_made=monitoring_station + monitoring:weather=yes + operator=Slovenský hydrometeorologický ústav", "osm_monitoring_station_50m": false}}, {"type": "Feature", "geometry": {"type": "Point", "coordinates": [22.153333, 49.142222]}, "properties": {"inspire_local_id": "SK11992.KSA-DP", "station_code": "SK11992", "name": "Osadné", "siet": "klimatologická", "proposed_tag": "man_made=monitoring_station + monitoring:weather=yes + operator=Slovenský hydrometeorologický ústav", "osm_monitoring_station_50m": false}}, {"type": "Feature", "geometry": {"type": "Point", "coordinates": [22.1003, 48.63304]}, "properties": {"inspire_local_id": "SK11995.KSA", "station_code": "SK11995", "name": "Vysoká nad Uhom", "siet": "klimatologická", "proposed_tag": "man_made=monitoring_station + monitoring:weather=yes + operator=Slovenský hydrometeorologický ústav", "osm_monitoring_station_50m": false}}]}