{"type": "FeatureCollection", "features": [{"type": "Feature", "geometry": {"type": "Point", "coordinates": [17.1045237, 48.143931]}, "properties": {"object_id": 1, "name": "Bratislavská arcidiecézna charita", "sluzby": "sociálne poradenstvo, strava", "poskytovatel": "Bratislavská arcidiecézna charita (BACH)", "adresa": "Kapitulská 4", "mestska_cast": "Staré Mesto", "strava": "pondelok 9:00 – 14:00", "noclah": null, "hygiena": null, "zdravotne_osetrenie": null, "web": "https://www.charitaba.sk/", "osm_social_facility_within_50m": false}}, {"type": "Feature", "geometry": {"type": "Point", "coordinates": [17.1108282, 48.0969525]}, "properties": {"object_id": 2, "name": "Bratislavská arcidiecézna charita", "sluzby": "sociálne poradenstvo, strava, hygiena", "poskytovatel": "Bratislavská arcidiecézna charita (BACH)", "adresa": "Jasovská 6", "mestska_cast": "Petržalka", "strava": "čas: pondelok a stredu 9:00 – 14:00;\nposkytujeme iba trvanlivé potraviny;\ntel: 0909 250 713; 02/62 250 009", "noclah": null, "hygiena": "čas: pondelok a stredu 9:00 – 14:00;\ncena: oblečenie a potreby do domácnosti (0,20 € za kus alebo bezplatne);\ntel:  +421 909 250 713; 02/62 250 009", "zdravotne_osetrenie": null, "web": "https://www.charitaba.sk/", "osm_social_facility_within_50m": false}}, {"type": "Feature", "geometry": {"type": "Point", "coordinates": [17.1123835, 48.1537839]}, "properties": {"object_id": 3, "name": "Centrum právnej pomoci", "sluzby": "sociálne poradenstvo", "poskytovatel": "Centrum právnej pomoci", "adresa": "Námestie slobody 12", "mestska_cast": "Staré Mesto", "strava": null, "noclah": null, "hygiena": null, "zdravotne_osetrenie": null, "web": "https://www.centrumpravnejpomoci.sk/", "osm_social_facility_within_50m": false}}, {"type": "Feature", "geometry": {"type": "Point", "coordinates": [17.1891206, 48.1769007]}, "properties": {"object_id": 4, "name": "DEPAUL Slovensko, n.o.", "sluzby": "sociálne poradenstvo, nocľah a ubytovanie, hygiena a ošatenie, strava\n", "poskytovatel": "DEPAUL Slovensko, n.o.\n", "adresa": "Ivanská cesta 32", "mestska_cast": "Ružinov", "strava": "strava v Útulku Sv. Vincenta Depaul, aj v Nocľahárni Sv. Vincenta Depaul. Útulok: 24/7 pre klientov útulku, nocľaháreň denne 19:00 - 07:00; registrácia 19:00 - 22:00 (pracujúci aj po 22:00 s potvrdením). \n", "noclah": "Nocľaháreň: V nocľahárni je vyčlenené ubytovanie aj pre ľudí pod vplyvom alkoholu a drog. Odchod z nocľahárne je do 07:00 (v priebhu dňa je nocľaháreň zatvorená).\nÚtulok: O prijatí rozhoduje manažér zariadenia na základe žiadosti. Prednostne pre ľudí bez domova so zhoršeným zdravotným stavom. Úhrada za sociálnu službu v nocľahárni: 1 EUR / noc; v niektorých prípadoch je poskytnuties ošatenia, obuvi a hygienických potrieb  spoplatnené podľa aktuálneho cenníka poskytovateľa. Útulok: 24/7 pre klientov útulku. Nocľaháreň denne 19:00 - 07:00; registrácia 19:00 - 22:00 (pracujúci aj po 22:00 s potvrdením). Úhrada za sociálnu službu v útulku: 1,15-8,00 EUR / deň (v závislosti od výšky príjmu klienta)\n", "hygiena": "hygiena a ošatenie v Útulku Sv. Vincenta Depaul, aj v Nocľahárni Sv. Vincenta Depaul. Útulok: 24/7 pre klientov útulku, nocľaháreň denne 19:00 - 07:00; registrácia 19:00 - 22:00 (pracujúci aj po 22:00 s potvrdením). \n", "zdravotne_osetrenie": null, "web": "https://depaul.sk/", "osm_social_facility_within_50m": true}}, {"type": "Feature", "geometry": {"type": "Point", "coordinates": [17.106331, 48.152099]}, "properties": {"object_id": 5, "name": "Divadlo bez domova, o.z.", "sluzby": "kultúra", "poskytovatel": "Divadlo bez domova, o.z.", "adresa": "Pistoriho palác – ľavé krídlo, Štefánikova 25", "mestska_cast": "Staré Mesto", "strava": null, "noclah": null, "hygiena": null, "zdravotne_osetrenie": null, "web": "http://www.divadlobezdomova.sk/divadlobezdomova/WELCOME.html", "osm_social_facility_within_50m": false}}, {"type": "Feature", "geometry": {"type": "Point", "coordinates": [17.1107891, 48.1163388]}, "properties": {"object_id": 6, "name": "Dom Betlehem", "sluzby": "hygiena a ošatenie, strava, nocľah a ubytovanie", "poskytovatel": "Sestry Misionárky lásky", "adresa": "Rovniankova 10", "mestska_cast": "Petržalka", "strava": "strava: zdarma, sobota 14:30", "noclah": "ubytovanie - dlhodobejšie: zdarma (pre chorých ľudí bez domova)\nkapacita: 13 osôb", "hygiena": "hygiena a oblečenie: zdarma, pondelok 9:00 pre ženy, streda 9:00 pre mužov", "zdravotne_osetrenie": null, "web": null, "osm_social_facility_within_50m": true}}, {"type": "Feature", "geometry": {"type": "Point", "coordinates": [17.2131117, 48.1384542]}, "properties": {"object_id": 7, "name": "Dom Svetla Slovensko", "sluzby": "kontaktné centrum pre užívateľov drog a ľudí zo sexbiznisu", "poskytovatel": "Dom Svetla Slovensko", "adresa": "Bebravská 34, 821 07 Bratislava", "mestska_cast": "Vrakúňa", "strava": null, "noclah": null, "hygiena": null, "zdravotne_osetrenie": null, "web": null, "osm_social_facility_within_50m": false}}, {"type": "Feature", "geometry": {"type": "Point", "coordinates": [17.136936, 48.1722866]}, "properties": {"object_id": 8, "name": "Dom Svetla Slovensko / OZ Prima", "sluzby": "sociálne poradenstvo", "poskytovatel": "Dom Svetla Slovensko", "adresa": "Záborského 42, 831 03 Bratislava ", "mestska_cast": "Nové Mesto", "strava": null, "noclah": null, "hygiena": null, "zdravotne_osetrenie": null, "web": null, "osm_social_facility_within_50m": false}}, {"type": "Feature", "geometry": {"type": "Point", "coordinates": [17.1190137, 48.1571139]}, "properties": {"object_id": 9, "name": "DOMEC denné nízkoprahové a integračné centrum", "sluzby": "sociálne poradenstvo, zdravotné ošetrenie, hygiena a ošatenie, strava", "poskytovatel": "OZ Vagus", "adresa": "Mýtna 33 (pri Račianskom mýte, svetloružový dom so zelenou bránou)", "mestska_cast": "Staré Mesto", "strava": "1. vstup, raňajky: 9:00 - 10:30, obed: 11:15 \n2. vstup olovrant: 13:00 - 14:30, obed: 13:30\nCena: raňajky, olovrant zdarma, obed: 0,30 EUR", "noclah": null, "hygiena": "Hygiena: zdarma. Sprcha: (ženy: 9:30 - 10:30, muži: 10:30 - 11:30) a (ženy: 13:30 - 14:30, muži: 14:30 - 15:30), Ošatenie: pondelok a piatok (9:30 - 11:30, 13:30 - 15:30), 1. vstup - registrácia 9:00 -10:30, 2. vstup - registrácia 13:00 - 14:30.  Oblečenie 0,10 Eur/ks, 0,50 Eur/ks bunda, spacák, obuv. Pranie: 2Eur.  Spoplatnené veci si je možné po dohode s pracovníkmi v DOMCI odpracovať", "zdravotne_osetrenie": "Základné zdravotné ošetrenie - zdarma: pondelok, streda, štvrtok, piatok (9:30 – 12:00; 13:30 – 16:00), 1. vstup – registrácia 9:00 - 10:30, 2. vstup – registrácia  13:00 - 14:30", "web": "https://vagus.sk/domec/3/o-projekte/", "osm_social_facility_within_50m": true}}, {"type": "Feature", "geometry": {"type": "Point", "coordinates": [17.1870221, 48.158789]}, "properties": {"object_id": 10, "name": "Domov pre každého, o.z. ", "sluzby": "nocľah a ubytovanie, hygiena a ošatenie, zdravotné ošetrenie", "poskytovatel": "Domov pre každého, o.z. ", "adresa": "Hradská 2C", "mestska_cast": "Vrakuňa", "strava": null, "noclah": "denne: 18:00 - 8:00, nocľaháreň: 1 EUR/noc, Ubytovanie v útulku - ide o dlhodobejší pobyt. Prijatie po osobnom vstupnom pohovore (cena 50€/mes je za jednu posteľ v 3 lôžkovej izbe)", "hygiena": "hygiena a oblečenie: zdarma, hygiena a oblečenie v stredisku osobnej hygieny Domov pre každého, pondelok-piatok:  9:00-12:00 ", "zdravotne_osetrenie": "základná zdravotná starostlivosť v priestoroch Strediska osobnej hygieny (spolupráca s medikmi v teréne - Porta), zdarma v pondelky 17:30-19:30, telefónny kontakt: +421 948 513 432", "web": "https://www.domovprekazdeho.sk/", "osm_social_facility_within_50m": false}}, {"type": "Feature", "geometry": {"type": "Point", "coordinates": [17.189004, 48.177317]}, "properties": {"object_id": 11, "name": "Domov pre každého, o.z. (nocľaháreň)", "sluzby": "nocľah a ubytovanie", "poskytovatel": "Domov pre každého, o.z. ", "adresa": "Ivanská cesta 32/ Mokráň Záhon", "mestska_cast": "Ružinov", "strava": null, "noclah": "denne 18:00 - 8:00, 1 €/noc", "hygiena": null, "zdravotne_osetrenie": null, "web": "https://www.domovprekazdeho.sk/", "osm_social_facility_within_50m": true}}, {"type": "Feature", "geometry": {"type": "Point", "coordinates": [17.1370348, 48.1750864]}, "properties": {"object_id": 12, "name": "Domov svätého Jána z Boha, n.o. (Milosrdní bratia) ", "sluzby": "sociálne poradenstvo, zdravotné ošetrenie, hygiéna, strava, ošatenie a veci pre domácnosť", "poskytovatel": "Domov svätého Jána z Boha, n.o. (Milosrdní bratia)", "adresa": "Hattalova 6", "mestska_cast": "Nové Mesto ", "strava": "pondelok - piatok 10:00 - 14:00, bezplatne\nvýdaj raňajok od 08:15 - 09:00, bezplatne", "noclah": null, "hygiena": "Čas: pon - pia: 8:00- 11: 00 (hygiena, holenie, strihanie); 6:30 - 8:00 (sušička, práčka) práčka 1,50 Eur, sušička 2,00 Eur; \n\nšatník - pon - ut - st- pia - 9:00 - 12:00, prípadne podľa potreby", "zdravotne_osetrenie": "Základné zdravotné ošetrenie zdarma pondelok - piatok 9:00 - 14:00\n+ o.z. Equita zabezpečuje ošetrovanie lekárom - streda 10:00 - 13:00 v Domove Sv Jána z Boha\n\nzubná ambulancia: ošetrenie sa vykonáva raz v týždni (iba extrakcie), každý pondelok (v čase podľa možností lekára) bezplatne. \nZáujemci o ošetrenie\nsa musia objednať u sociálneho pracovníka osobne alebo telefonicky, najneskôr tri dni vopred. Objednávky a informácie na tel. čísle 0917 615 495. ", "web": "https://www.milosrdni.eu/site/domovsvjanazboha/home", "osm_social_facility_within_50m": true}}, {"type": "Feature", "geometry": {"type": "Point", "coordinates": [17.1369303, 48.175245]}, "properties": {"object_id": 13, "name": "Equita", "sluzby": "zdravotné ošetrenie", "poskytovatel": "Equita", "adresa": "Hattalova 6", "mestska_cast": "Nové Mesto ", "strava": null, "noclah": null, "hygiena": null, "zdravotne_osetrenie": "zdravotné ošetrenie v Domove Sv Jána z Boha, streda 10:00 - 13:00 (niekedy 9:00 - 12:00 alebo 11:00 - 14:00), zdarma", "web": "https://www.equita.sk/", "osm_social_facility_within_50m": true}}, {"type": "Feature", "geometry": {"type": "Point", "coordinates": [17.0755163, 48.144583]}, "properties": {"object_id": 14, "name": "Equita", "sluzby": "zdravotné ošetrenie", "poskytovatel": "Equita", "adresa": "parkovisko pod mostom Lanfranconi", "mestska_cast": "Karlova Ves", "strava": null, "noclah": null, "hygiena": null, "zdravotne_osetrenie": "ošetrenie v mobilnej ambulancií pre ľudí bez domova, zdarma, utorok, štvrtok 19:30-20:30", "web": "https://www.equita.sk/", "osm_social_facility_within_50m": false}}, {"type": "Feature", "geometry": {"type": "Point", "coordinates": [17.1041191, 48.159128]}, "properties": {"object_id": 15, "name": "Integračné centrum STOPA Slovensko", "sluzby": "sociálne poradenstvo", "poskytovatel": "o.z. STOPA Slovensko", "adresa": "Pražská 33", "mestska_cast": "Staré Mesto", "strava": null, "noclah": null, "hygiena": null, "zdravotne_osetrenie": null, "web": "https://www.stopaslovensko.sk/integracne-centrum/", "osm_social_facility_within_50m": false}}, {"type": "Feature", "geometry": {"type": "Point", "coordinates": [17.1825577, 48.1704915]}, "properties": {"object_id": 16, "name": "KOLO", "sluzby": "Ďaľšie služby", "poskytovatel": "Magistrát hl. mesta Bratislavy", "adresa": "Pestovateľská 13", "mestska_cast": "Ružinov", "strava": null, "noclah": null, "hygiena": null, "zdravotne_osetrenie": null, "web": "https://www.olo.sk/kolo/", "osm_social_facility_within_50m": false}}, {"type": "Feature", "geometry": {"type": "Point", "coordinates": [17.0605032, 48.1517953]}, "properties": {"object_id": 17, "name": "KOLO 2", "sluzby": "Ďaľšie služby", "poskytovatel": "Magistrát hl. mesta Bratislavy", "adresa": "Jurigovo námestie (OD Kotva)", "mestska_cast": "Karlova Ves", "strava": null, "noclah": null, "hygiena": null, "zdravotne_osetrenie": null, "web": "https://www.olo.sk/kolo/", "osm_social_facility_within_50m": false}}, {"type": "Feature", "geometry": {"type": "Point", "coordinates": [17.1008232, 48.1298393]}, "properties": {"object_id": 18, "name": "Komunita Sant'Egidio", "sluzby": "strava\n", "poskytovatel": "Komunita Sant'Egidio\n", "adresa": "Nobelovo námestie", "mestska_cast": "Petržalka", "strava": "Nobelovo námestie: utorok 17:30-18:30, zdarma\n", "noclah": null, "hygiena": null, "zdravotne_osetrenie": null, "web": "https://www.santegidio.sk/", "osm_social_facility_within_50m": false}}, {"type": "Feature", "geometry": {"type": "Point", "coordinates": [17.1074703, 48.1556733]}, "properties": {"object_id": 19, "name": "Komunita Sant'Egidio", "sluzby": "strava\n", "poskytovatel": "Komunita Sant'Egidio\n", "adresa": "Predstaničné námestie (pri Hlavnej stanici Bratislava)", "mestska_cast": "Staré Mesto", "strava": "Predstaničné námestie: streda 18:00-19:00, zdarma\n", "noclah": null, "hygiena": null, "zdravotne_osetrenie": null, "web": "https://www.santegidio.sk/", "osm_social_facility_within_50m": false}}, {"type": "Feature", "geometry": {"type": "Point", "coordinates": [17.1056003, 48.1453932]}, "properties": {"object_id": 20, "name": "Komunita Sant'Egidio", "sluzby": "strava\n", "poskytovatel": "Komunita Sant'Egidio\n", "adresa": "Župné námestie (pred Kapucínskym kostolom)", "mestska_cast": "Staré Mesto", "strava": "Župné námestie: streda 18:00-19:00, zdarma\n", "noclah": null, "hygiena": null, "zdravotne_osetrenie": null, "web": "https://www.santegidio.sk/", "osm_social_facility_within_50m": false}}, {"type": "Feature", "geometry": {"type": "Point", "coordinates": [17.2042377, 48.1388825]}, "properties": {"object_id": 21, "name": "Kontaktné centrum K2 - OZ Odyseus", "sluzby": "kontaktné centrum pre užívateľov drog a ľudí zo sexbiznisu\n", "poskytovatel": "OZ Odyseus\n", "adresa": "Stavbárska 40  (Pentagon)", "mestska_cast": "Vrakuňa", "strava": null, "noclah": null, "hygiena": null, "zdravotne_osetrenie": null, "web": "https://www.ozodyseus.sk/centrum-k2", "osm_social_facility_within_50m": false}}, {"type": "Feature", "geometry": {"type": "Point", "coordinates": [17.0899985, 48.1129443]}, "properties": {"object_id": 22, "name": "Kontaktné centrum Káčko - OZ Prima", "sluzby": "kontaktné centrum pre užívateľov drog a ľudí zo sexbiznisu\n", "poskytovatel": "OZ Prima\n", "adresa": "Kopčianska 88", "mestska_cast": "Petržalka", "strava": null, "noclah": null, "hygiena": null, "zdravotne_osetrenie": null, "web": "http://primaoz.sk/kontaktne-centrum/", "osm_social_facility_within_50m": false}}, {"type": "Feature", "geometry": {"type": "Point", "coordinates": [17.0959523, 48.1081987]}, "properties": {"object_id": 23, "name": "Kontaktné miesto - podpora a poradenstvo OZ Odyseus", "sluzby": "kontaktné centrum pre užívateľov drog a ľudí zo sexbiznisu\n", "poskytovatel": "OZ Odyseus\n", "adresa": "Panónska cesta (parkovisko pri Tescu)", "mestska_cast": "Petržalka", "strava": null, "noclah": null, "hygiena": null, "zdravotne_osetrenie": null, "web": "https://www.ozodyseus.sk/", "osm_social_facility_within_50m": false}}, {"type": "Feature", "geometry": {"type": "Point", "coordinates": [17.1835789, 48.1297213]}, "properties": {"object_id": 24, "name": "Kontaktné miesto - podpora a poradenstvo OZ Odyseus", "sluzby": "kontaktné centrum pre užívateľov drog a ľudí zo sexbiznisu\n", "poskytovatel": "OZ Odyseus\n", "adresa": "Slovnaftská ul. (parkovisko pre kamióny)", "mestska_cast": "Ružinov", "strava": null, "noclah": null, "hygiena": null, "zdravotne_osetrenie": null, "web": "https://www.ozodyseus.sk/", "osm_social_facility_within_50m": false}}, {"type": "Feature", "geometry": {"type": "Point", "coordinates": [17.2044864, 48.1389783]}, "properties": {"object_id": 25, "name": "Kontaktné miesto - podpora a poradenstvo OZ Odyseus", "sluzby": "kontaktné centrum pre užívateľov drog a ľudí zo sexbiznisu\n", "poskytovatel": "OZ Odyseus\n", "adresa": "Stavbárska - Pentagon (pred Centrom K2)", "mestska_cast": "Vrakuňa", "strava": null, "noclah": null, "hygiena": null, "zdravotne_osetrenie": null, "web": "https://www.ozodyseus.sk/", "osm_social_facility_within_50m": false}}, {"type": "Feature", "geometry": {"type": "Point", "coordinates": [17.1258173, 48.1577557]}, "properties": {"object_id": 26, "name": "Kontaktné miesto - podpora a poradenstvo OZ Odyseus", "sluzby": "kontaktné centrum pre užívateľov drog a ľudí zo sexbiznisu\n", "poskytovatel": "OZ Odyseus\n", "adresa": "Trnavské mýto (parkovisko pri Pezinský sud)", "mestska_cast": "Nové Mesto ", "strava": null, "noclah": null, "hygiena": null, "zdravotne_osetrenie": null, "web": "https://www.ozodyseus.sk/", "osm_social_facility_within_50m": false}}, {"type": "Feature", "geometry": {"type": "Point", "coordinates": [17.1787455, 48.1287843]}, "properties": {"object_id": 27, "name": "Kontaktné miesto - podpora a poradenstvo OZ Prima", "sluzby": "kontaktné centrum pre užívateľov drog a ľudí zo sexbiznisu\n", "poskytovatel": "OZ Prima\n", "adresa": "parkovisko Slovnaft", "mestska_cast": "Ružinov", "strava": null, "noclah": null, "hygiena": null, "zdravotne_osetrenie": null, "web": "http://primaoz.sk/streetwork/", "osm_social_facility_within_50m": false}}, {"type": "Feature", "geometry": {"type": "Point", "coordinates": [17.0970012, 48.1158148]}, "properties": {"object_id": 28, "name": "Kontaktné miesto - podpora a poradenstvo OZ Prima", "sluzby": "kontaktné centrum pre užívateľov drog a ľudí zo sexbiznisu\n", "poskytovatel": "OZ Prima\n", "adresa": "Panónska (parkovisko pri Fiate oproti Citroenu)", "mestska_cast": "Petržalka", "strava": null, "noclah": null, "hygiena": null, "zdravotne_osetrenie": null, "web": "http://primaoz.sk/streetwork/", "osm_social_facility_within_50m": false}}, {"type": "Feature", "geometry": {"type": "Point", "coordinates": [17.075288, 48.144518]}, "properties": {"object_id": 29, "name": "Kresťania v meste", "sluzby": "strava, ošatenie\n", "poskytovatel": "Kresťania v meste, o.z.\n", "adresa": "parkovisko pod mostom Lanfranconi", "mestska_cast": "Karlova Ves", "strava": "Strava zdarma: utorok a štvrtok 19:30 celoročne. Výdaj stravy od novembra do marca aj v soboty od 17:00    \n", "noclah": null, "hygiena": "Ošatenie: zdarma štvrtok 19:30 celoročne, v zimných mesiacoch aj zimný materiál (prikrývky, spacáky a pod.)\nHygienické potreby: šampóny, mydlá, zubné kefky, pasty, prášok na pranie\n", "zdravotne_osetrenie": null, "web": "https://www.krestaniavmeste.sk/", "osm_social_facility_within_50m": false}}, {"type": "Feature", "geometry": {"type": "Point", "coordinates": [17.1139819, 48.1461904]}, "properties": {"object_id": 30, "name": "Maltézska pomoc Slovensko o.z.", "sluzby": "strava\n", "poskytovatel": "Maltézska pomoc Slovensko o.z.", "adresa": "Špitálska 21 - Kláštor Sv. Alžbety", "mestska_cast": "Staré Mesto", "strava": "nedeľa 12:15, zdarma\n", "noclah": null, "hygiena": null, "zdravotne_osetrenie": null, "web": null, "osm_social_facility_within_50m": false}}, {"type": "Feature", "geometry": {"type": "Point", "coordinates": [17.1874423, 48.1585065]}, "properties": {"object_id": 31, "name": "Mestský útulok Hradská", "sluzby": "nocľah a ubytovanie", "poskytovatel": "Hlavné mesto SR Bratislava", "adresa": "Hradská 2/B", "mestska_cast": "Vrakuňa", "strava": null, "noclah": "Čas: 24/7 pre klientov\nCena: úhrada za sociálnu službu v útulku: 1 až 6 € / deň (v závislosti od výšky príjmu klienta)", "hygiena": null, "zdravotne_osetrenie": null, "web": null, "osm_social_facility_within_50m": false}}, {"type": "Feature", "geometry": {"type": "Point", "coordinates": [17.1087819, 48.1492076]}, "properties": {"object_id": 32, "name": "Ošetrovňa sv. Alžbety", "sluzby": "sociálne poradenstvo, zdravotné ošetrenie, hygiena a ošatenie, strava\n", "poskytovatel": "DEPAUL Slovensko, n.o.\n", "adresa": "Námestie 1. mája/ Banskobystrická (VŠ zdravotníctva a sociálnej práce sv. Alžbety)", "mestska_cast": "Staré Mesto", "strava": "polievka a teplý nápoj zdarma\n", "noclah": null, "hygiena": "hygiena a ošatenie zdarma pondelok - piatok a nedeľa v čase 14:30 - 18:30", "zdravotne_osetrenie": "ošetrenie zdarma pondelok - piatok  a nedeľa v čase 14:30 - 18:30\n", "web": "https://depaul.sk/osetrovna-sv-alzbety/", "osm_social_facility_within_50m": false}}, {"type": "Feature", "geometry": {"type": "Point", "coordinates": [17.12951, 48.1687769]}, "properties": {"object_id": 33, "name": "PKP - poradňa komplexnej pomoci", "sluzby": "sociálne poradenstvo \n", "poskytovatel": "Ústredie práce, sociálnych vecí a rodiny\n", "adresa": "Jarošova 1, 831 03 Bratislava", "mestska_cast": "Nové Mesto", "strava": null, "noclah": null, "hygiena": null, "zdravotne_osetrenie": null, "web": "https://www.upsvr.gov.sk/social-affairs-and-family/socialne-veci/bezplatne-dlhove-poradenstvo.html?lang=sk&page_id=1121420", "osm_social_facility_within_50m": false}}, {"type": "Feature", "geometry": {"type": "Point", "coordinates": [17.1137457, 48.1577444]}, "properties": {"object_id": 34, "name": "Proti prúdu - NOTA BENE", "sluzby": "sociálne poradenstvo, pouličný časopis\n", "poskytovatel": "Proti prúdu o.z.\n", "adresa": "Karpatská 10", "mestska_cast": "Staré Mesto", "strava": null, "noclah": null, "hygiena": null, "zdravotne_osetrenie": null, "web": "https://www.notabene.sk/?kontakty", "osm_social_facility_within_50m": false}}, {"type": "Feature", "geometry": {"type": "Point", "coordinates": [17.2215543, 48.12809]}, "properties": {"object_id": 35, "name": "Resoty - Resocializačná komunita Antona Srholca", "sluzby": "nocľah a ubytovanie\n", "poskytovatel": "Reosty- Resocializačná komunita Antona Srholca\n", "adresa": "Pri trati 13", "mestska_cast": "Podunajské Biskupice", "strava": null, "noclah": "Prijatie len po osobnom vstupnom stretnutí medzi 9:00 – 12:00, 160 EUR/mesiac (raňajky, obed, olovrant, drogéria, ošatenie). Informácie: pondelok - piatok: 9:00 - 12:00\n", "hygiena": null, "zdravotne_osetrenie": null, "web": "http://www.resoty.sk/", "osm_social_facility_within_50m": true}}, {"type": "Feature", "geometry": {"type": "Point", "coordinates": [17.110685, 48.156531]}, "properties": {"object_id": 36, "name": "Útulok sv. Lujzy de Marillac", "sluzby": "sociálne poradenstvo, nocľah a ubytovanie, hygiena a ošatenie, strava\n", "poskytovatel": "DEPAUL Slovensko, n.o.\n", "adresa": "Jelenia 4", "mestska_cast": "Staré Mesto", "strava": "Úhrada za sociálnu službu v útulku: 1,15-11,00 EUR / deň (v závislosti od výšky príjmu klienta)\n", "noclah": "24/7 pre klientov, pre ťažko chorých ľudí bez domova, prijatie len po osobnom vstupnom stretnutí, o cene sa informovať priamo v zariadení. O prijatí rozhoduje manažér zariadenia na základe žiadosti. Žiadateľ nemá nárok na na prijatie. Prednostne pre ľudí bez domova so zhoršeným zdravotným stavom. Úhrada za sociálnu službu v útulku: 1,15-11,00 EUR / deň (v závislosti od výšky príjmu klienta)\n", "hygiena": "Úhrada za sociálnu službu v útulku: 1,15-11,00 EUR / deň (v závislosti od výšky príjmu klienta)\n", "zdravotne_osetrenie": null, "web": "https://depaul.sk/utulok-sv-lujzy-de-marillac/", "osm_social_facility_within_50m": false}}]}