{"type": "FeatureCollection", "features": [{"type": "Feature", "geometry": {"type": "Point", "coordinates": [18.7245882, 49.227772]}, "properties": {"highway": "milestone", "ref": "60", "distance": "0.0", "ssc:usek": 2706, "ssc:stanicenie_m": 0, "side": "P", "road_class": "cesta I. triedy", "spravca": "SSC - IVSC ZA"}}, {"type": "Feature", "geometry": {"type": "Point", "coordinates": [18.9375801, 49.2387861]}, "properties": {"highway": "milestone", "ref": "583", "distance": "17.0", "ssc:usek": 398740, "ssc:stanicenie_m": 34, "side": "P", "road_class": "cesta II. triedy", "spravca": "SC ŽSK - HPOV"}}, {"type": "Feature", "geometry": {"type": "Point", "coordinates": [18.7609722, 49.2277407]}, "properties": {"highway": "milestone", "ref": "583", "distance": "2.0", "ssc:usek": 402330, "ssc:stanicenie_m": 503, "side": "P", "road_class": "cesta II. triedy", "spravca": "SC ŽSK - HPOV"}}, {"type": "Feature", "geometry": {"type": "Point", "coordinates": [18.609405, 48.9686432]}, "properties": {"highway": "milestone", "ref": "64", "distance": "167.0", "ssc:usek": 7317, "ssc:stanicenie_m": 617, "side": "P", "road_class": "cesta I. triedy", "spravca": "SSC - IVSC ZA"}}, {"type": "Feature", "geometry": {"type": "Point", "coordinates": [18.7422022, 49.232591]}, "properties": {"highway": "milestone", "ref": "583", "distance": "0.5", "ssc:usek": 810270, "ssc:stanicenie_m": 286, "side": "P", "road_class": "cesta II. triedy", "spravca": "SC ŽSK - HPOV"}}, {"type": "Feature", "geometry": {"type": "Point", "coordinates": [18.9685123, 49.2465821]}, "properties": {"highway": "milestone", "ref": "583", "distance": "19.5", "ssc:usek": 2777, "ssc:stanicenie_m": 329, "side": "P", "road_class": "cesta II. triedy", "spravca": "SC ŽSK - HPOV"}}, {"type": "Feature", "geometry": {"type": "Point", "coordinates": [18.6266751, 49.088122]}, "properties": {"highway": "milestone", "ref": "517", "distance": "24.0", "ssc:usek": 398592, "ssc:stanicenie_m": 213, "side": "P", "road_class": "cesta II. triedy", "spravca": "SC ŽSK - HPOV"}}, {"type": "Feature", "geometry": {"type": "Point", "coordinates": [18.6087112, 48.976333]}, "properties": {"highway": "milestone", "ref": "64", "distance": "168.0", "ssc:usek": 7317, "ssc:stanicenie_m": 1589, "side": "P", "road_class": "cesta I. triedy", "spravca": "SSC - IVSC ZA"}}, {"type": "Feature", "geometry": {"type": "Point", "coordinates": [18.7276236, 49.145524]}, "properties": {"highway": "milestone", "ref": "64", "distance": "194.0", "ssc:usek": 402127, "ssc:stanicenie_m": 1645, "side": "P", "road_class": "cesta I. triedy", "spravca": "SSC - IVSC ZA"}}, {"type": "Feature", "geometry": {"type": "Point", "coordinates": [18.5929885, 49.0778965]}, "properties": {"highway": "milestone", "ref": "517", "distance": "19.5", "ssc:usek": 7295, "ssc:stanicenie_m": 262, "side": "P", "road_class": "cesta II. triedy", "spravca": "SC ŽSK - HPOV"}}, {"type": "Feature", "geometry": {"type": "Point", "coordinates": [18.7509207, 49.2582386]}, "properties": {"highway": "milestone", "ref": "11", "distance": "439.5", "ssc:usek": 2683, "ssc:stanicenie_m": 746, "side": "L", "road_class": "cesta I. triedy", "spravca": "NDS - SSUR CA"}}, {"type": "Feature", "geometry": {"type": "Point", "coordinates": [18.7571119, 49.27046]}, "properties": {"highway": "milestone", "ref": "11", "distance": "438.0", "ssc:usek": 398503, "ssc:stanicenie_m": 250, "side": "P", "road_class": "cesta I. triedy", "spravca": "SSC - IVSC ZA"}}, {"type": "Feature", "geometry": {"type": "Point", "coordinates": [18.7376852, 49.1940973]}, "properties": {"highway": "milestone", "ref": "64b", "distance": "0.5", "ssc:usek": 1226935, "ssc:stanicenie_m": 2, "side": "P", "road_class": "cesta I. triedy", "spravca": "NDS - SSUD PB"}}, {"type": "Feature", "geometry": {"type": "Point", "coordinates": [18.761181, 49.2250477]}, "properties": {"highway": "milestone", "ref": "60", "distance": "4.0", "ssc:usek": 2725, "ssc:stanicenie_m": 183, "side": "P", "road_class": "cesta I. triedy", "spravca": "SSC - IVSC ZA"}}, {"type": "Feature", "geometry": {"type": "Point", "coordinates": [18.7395215, 49.1817015]}, "properties": {"highway": "milestone", "ref": "64b", "distance": "2.0", "ssc:usek": 1226935, "ssc:stanicenie_m": 1502, "side": "P", "road_class": "cesta I. triedy", "spravca": "NDS - SSUD PB"}}, {"type": "Feature", "geometry": {"type": "Point", "coordinates": [18.7416866, 49.1858794]}, "properties": {"highway": "milestone", "ref": "64b", "distance": "1.5", "ssc:usek": 1226935, "ssc:stanicenie_m": 1002, "side": "P", "road_class": "cesta I. triedy", "spravca": "NDS - SSUD PB"}}, {"type": "Feature", "geometry": {"type": "Point", "coordinates": [18.7414084, 49.1903635]}, "properties": {"highway": "milestone", "ref": "64b", "distance": "1.0", "ssc:usek": 1226935, "ssc:stanicenie_m": 502, "side": "P", "road_class": "cesta I. triedy", "spravca": "NDS - SSUD PB"}}, {"type": "Feature", "geometry": {"type": "Point", "coordinates": [18.7479906, 49.2542641]}, "properties": {"highway": "milestone", "ref": "11", "distance": "440.0", "ssc:usek": 2683, "ssc:stanicenie_m": 255, "side": "P", "road_class": "cesta I. triedy", "spravca": "NDS - SSUR CA"}}, {"type": "Feature", "geometry": {"type": "Point", "coordinates": [18.9059041, 49.2230951]}, "properties": {"highway": "milestone", "ref": "583", "distance": "14.0", "ssc:usek": 398768, "ssc:stanicenie_m": 86, "side": "P", "road_class": "cesta II. triedy", "spravca": "SC ŽSK - HPOV"}}, {"type": "Feature", "geometry": {"type": "Point", "coordinates": [18.756553, 49.2164338]}, "properties": {"highway": "milestone", "ref": "60", "distance": "3.0", "ssc:usek": 8639, "ssc:stanicenie_m": 228, "side": "P", "road_class": "cesta I. triedy", "spravca": "SSC - IVSC ZA"}}, {"type": "Feature", "geometry": {"type": "Point", "coordinates": [18.6113129, 49.0141141]}, "properties": {"highway": "milestone", "ref": "64", "distance": "174.0", "ssc:usek": 402348, "ssc:stanicenie_m": 372, "side": "P", "road_class": "cesta I. triedy", "spravca": "SSC - IVSC ZA"}}, {"type": "Feature", "geometry": {"type": "Point", "coordinates": [18.7939312, 49.2243226]}, "properties": {"highway": "milestone", "ref": "583", "distance": "4.5", "ssc:usek": 750315, "ssc:stanicenie_m": 18, "side": "P", "road_class": "cesta II. triedy", "spravca": "SC ŽSK - HPOV"}}, {"type": "Feature", "geometry": {"type": "Point", "coordinates": [18.6337603, 49.0902012]}, "properties": {"highway": "milestone", "ref": "64", "distance": "183.0", "ssc:usek": 132, "ssc:stanicenie_m": 40, "side": "P", "road_class": "cesta I. triedy", "spravca": "SSC - IVSC ZA"}}, {"type": "Feature", "geometry": {"type": "Point", "coordinates": [18.6296726, 49.0734989]}, "properties": {"highway": "milestone", "ref": "64", "distance": "181.0", "ssc:usek": 398622, "ssc:stanicenie_m": 260, "side": "P", "road_class": "cesta I. triedy", "spravca": "SSC - IVSC ZA"}}, {"type": "Feature", "geometry": {"type": "Point", "coordinates": [18.787317, 49.225298]}, "properties": {"highway": "milestone", "ref": "583", "distance": "4.0", "ssc:usek": 2700, "ssc:stanicenie_m": 33, "side": "P", "road_class": "cesta II. triedy", "spravca": "SC ŽSK - HPOV"}}, {"type": "Feature", "geometry": {"type": "Point", "coordinates": [18.7221309, 49.2410145]}, "properties": {"highway": "milestone", "ref": "507", "distance": "220.5", "ssc:usek": 398488, "ssc:stanicenie_m": 2, "side": "P", "road_class": "cesta II. triedy", "spravca": "SC ŽSK - HPOV"}}, {"type": "Feature", "geometry": {"type": "Point", "coordinates": [18.5989437, 49.0107719]}, "properties": {"highway": "milestone", "ref": "64", "distance": "173.0", "ssc:usek": 402344, "ssc:stanicenie_m": 6, "side": "P", "road_class": "cesta I. triedy", "spravca": "SSC - IVSC ZA"}}, {"type": "Feature", "geometry": {"type": "Point", "coordinates": [18.6328746, 49.0822246]}, "properties": {"highway": "milestone", "ref": "64", "distance": "182.0", "ssc:usek": 398625, "ssc:stanicenie_m": 108, "side": "P", "road_class": "cesta I. triedy", "spravca": "SSC - IVSC ZA"}}, {"type": "Feature", "geometry": {"type": "Point", "coordinates": [19.0907755, 49.2631035]}, "properties": {"highway": "milestone", "ref": "583", "distance": "29.0", "ssc:usek": 402040, "ssc:stanicenie_m": 25, "side": "P", "road_class": "cesta II. triedy", "spravca": "SC ŽSK - HPOV"}}, {"type": "Feature", "geometry": {"type": "Point", "coordinates": [18.598443, 48.9803998]}, "properties": {"highway": "milestone", "ref": "64", "distance": "169.0", "ssc:usek": 402327, "ssc:stanicenie_m": 168, "side": "P", "road_class": "cesta I. triedy", "spravca": "SSC - IVSC ZA"}}, {"type": "Feature", "geometry": {"type": "Point", "coordinates": [19.0124528, 49.253305]}, "properties": {"highway": "milestone", "ref": "583", "distance": "23.0", "ssc:usek": 402019, "ssc:stanicenie_m": 87, "side": "P", "road_class": "cesta II. triedy", "spravca": "SC ŽSK - HPOV"}}, {"type": "Feature", "geometry": {"type": "Point", "coordinates": [18.6042482, 49.0890885]}, "properties": {"highway": "milestone", "ref": "517", "distance": "22.0", "ssc:usek": 129, "ssc:stanicenie_m": 709, "side": "P", "road_class": "cesta II. triedy", "spravca": "SC ŽSK - HPOV"}}, {"type": "Feature", "geometry": {"type": "Point", "coordinates": [18.9434621, 49.2397822]}, "properties": {"highway": "milestone", "ref": "583", "distance": "17.5", "ssc:usek": 398741, "ssc:stanicenie_m": 32, "side": "P", "road_class": "cesta II. triedy", "spravca": "SC ŽSK - HPOV"}}, {"type": "Feature", "geometry": {"type": "Point", "coordinates": [18.8388206, 49.2167258]}, "properties": {"highway": "milestone", "ref": "583", "distance": "8.0", "ssc:usek": 398504, "ssc:stanicenie_m": 85, "side": "P", "road_class": "cesta II. triedy", "spravca": "SC ŽSK - HPOV"}}, {"type": "Feature", "geometry": {"type": "Point", "coordinates": [18.7243653, 49.1527061]}, "properties": {"highway": "milestone", "ref": "64", "distance": "195.0", "ssc:usek": 402129, "ssc:stanicenie_m": 49, "side": "P", "road_class": "cesta I. triedy", "spravca": "SSC - IVSC ZA"}}, {"type": "Feature", "geometry": {"type": "Point", "coordinates": [18.7811508, 49.2256901]}, "properties": {"highway": "milestone", "ref": "583", "distance": "3.5", "ssc:usek": 398502, "ssc:stanicenie_m": 168, "side": "P", "road_class": "cesta II. triedy", "spravca": "SC ŽSK - HPOV"}}, {"type": "Feature", "geometry": {"type": "Point", "coordinates": [19.0946104, 49.2630006]}, "properties": {"highway": "milestone", "ref": "583", "distance": "29.5", "ssc:usek": 402042, "ssc:stanicenie_m": 77, "side": "P", "road_class": "cesta II. triedy", "spravca": "SC ŽSK - HPOV"}}, {"type": "Feature", "geometry": {"type": "Point", "coordinates": [19.0362313, 49.2569746]}, "properties": {"highway": "milestone", "ref": "583", "distance": "25.0", "ssc:usek": 421458, "ssc:stanicenie_m": 17, "side": "P", "road_class": "cesta II. triedy", "spravca": "SC ŽSK - HPOV"}}, {"type": "Feature", "geometry": {"type": "Point", "coordinates": [18.5944128, 49.08238]}, "properties": {"highway": "milestone", "ref": "517", "distance": "20.0", "ssc:usek": 7295, "ssc:stanicenie_m": 781, "side": "P", "road_class": "cesta II. triedy", "spravca": "SC ŽSK - HPOV"}}, {"type": "Feature", "geometry": {"type": "Point", "coordinates": [18.6445555, 49.2341863]}, "properties": {"highway": "milestone", "ref": "61", "distance": "189.0", "ssc:usek": 402061, "ssc:stanicenie_m": 363, "side": "P", "road_class": "cesta I. triedy", "spravca": "SSC - IVSC ZA"}}, {"type": "Feature", "geometry": {"type": "Point", "coordinates": [18.8073535, 49.2229667]}, "properties": {"highway": "milestone", "ref": "583", "distance": "5.5", "ssc:usek": 1348103, "ssc:stanicenie_m": 85, "side": "P", "road_class": "cesta II. triedy", "spravca": "SC ŽSK - HPOV"}}, {"type": "Feature", "geometry": {"type": "Point", "coordinates": [18.8332828, 49.218235]}, "properties": {"highway": "milestone", "ref": "583", "distance": "7.5", "ssc:usek": 402064, "ssc:stanicenie_m": 220, "side": "P", "road_class": "cesta II. triedy", "spravca": "SC ŽSK - HPOV"}}, {"type": "Feature", "geometry": {"type": "Point", "coordinates": [18.7286635, 49.2405849]}, "properties": {"highway": "milestone", "ref": "507", "distance": "221.0", "ssc:usek": 398493, "ssc:stanicenie_m": 114, "side": "P", "road_class": "cesta II. triedy", "spravca": "SC ŽSK - HPOV"}}, {"type": "Feature", "geometry": {"type": "Point", "coordinates": [19.0236202, 49.2581122]}, "properties": {"highway": "milestone", "ref": "583", "distance": "24.0", "ssc:usek": 402023, "ssc:stanicenie_m": 42, "side": "P", "road_class": "cesta II. triedy", "spravca": "SC ŽSK - HPOV"}}, {"type": "Feature", "geometry": {"type": "Point", "coordinates": [18.7156796, 49.2427571]}, "properties": {"highway": "milestone", "ref": "507", "distance": "220.0", "ssc:usek": 398484, "ssc:stanicenie_m": 31, "side": "P", "road_class": "cesta II. triedy", "spravca": "SC ŽSK - HPOV"}}, {"type": "Feature", "geometry": {"type": "Point", "coordinates": [18.8731629, 49.2096294]}, "properties": {"highway": "milestone", "ref": "583", "distance": "11.0", "ssc:usek": 402178, "ssc:stanicenie_m": 428, "side": "P", "road_class": "cesta II. triedy", "spravca": "SC ŽSK - HPOV"}}, {"type": "Feature", "geometry": {"type": "Point", "coordinates": [18.6110861, 49.2263929]}, "properties": {"highway": "milestone", "ref": "D1", "distance": "187.5", "ssc:usek": 1226925, "ssc:stanicenie_m": 37, "side": "P", "road_class": "diaľnica", "spravca": "NDS - SSUD PB"}}, {"type": "Feature", "geometry": {"type": "Point", "coordinates": [18.710138, 49.1346324]}, "properties": {"highway": "milestone", "ref": "64", "distance": "192.0", "ssc:usek": 2609, "ssc:stanicenie_m": 83, "side": "P", "road_class": "cesta I. triedy", "spravca": "SSC - IVSC ZA"}}, {"type": "Feature", "geometry": {"type": "Point", "coordinates": [18.7041801, 49.2342094]}, "properties": {"highway": "milestone", "ref": "61", "distance": "196.0", "ssc:usek": 812291, "ssc:stanicenie_m": 19, "side": "P", "road_class": "cesta I. triedy", "spravca": "SSC - IVSC ZA"}}, {"type": "Feature", "geometry": {"type": "Point", "coordinates": [18.6472452, 49.1103497]}, "properties": {"highway": "milestone", "ref": "64", "distance": "186.0", "ssc:usek": 398431, "ssc:stanicenie_m": 290, "side": "P", "road_class": "cesta I. triedy", "spravca": "SSC - IVSC ZA"}}, {"type": "Feature", "geometry": {"type": "Point", "coordinates": [18.6082792, 49.2222674]}, "properties": {"highway": "milestone", "ref": "61", "distance": "186.0", "ssc:usek": 1340363, "ssc:stanicenie_m": 103, "side": "P", "road_class": "cesta I. triedy", "spravca": "SSC - IVSC ZA"}}, {"type": "Feature", "geometry": {"type": "Point", "coordinates": [18.8469866, 49.2132061]}, "properties": {"highway": "milestone", "ref": "583", "distance": "8.5", "ssc:usek": 402069, "ssc:stanicenie_m": 17, "side": "P", "road_class": "cesta II. triedy", "spravca": "SC ŽSK - HPOV"}}, {"type": "Feature", "geometry": {"type": "Point", "coordinates": [18.8851175, 49.2135012]}, "properties": {"highway": "milestone", "ref": "583", "distance": "12.0", "ssc:usek": 398760, "ssc:stanicenie_m": 134, "side": "P", "road_class": "cesta II. triedy", "spravca": "SC ŽSK - HPOV"}}, {"type": "Feature", "geometry": {"type": "Point", "coordinates": [18.9172188, 49.2278648]}, "properties": {"highway": "milestone", "ref": "583", "distance": "15.0", "ssc:usek": 2648, "ssc:stanicenie_m": 869, "side": "P", "road_class": "cesta II. triedy", "spravca": "SC ŽSK - HPOV"}}, {"type": "Feature", "geometry": {"type": "Point", "coordinates": [18.5947647, 49.2215158]}, "properties": {"highway": "milestone", "ref": "61", "distance": "185.0", "ssc:usek": 1754, "ssc:stanicenie_m": 67, "side": "P", "road_class": "cesta I. triedy", "spravca": "SSC - IVSC ZA"}}, {"type": "Feature", "geometry": {"type": "Point", "coordinates": [18.9507832, 49.2422873]}, "properties": {"highway": "milestone", "ref": "583", "distance": "18.0", "ssc:usek": 398744, "ssc:stanicenie_m": 165, "side": "P", "road_class": "cesta II. triedy", "spravca": "SC ŽSK - HPOV"}}, {"type": "Feature", "geometry": {"type": "Point", "coordinates": [18.6178726, 49.2272942]}, "properties": {"highway": "milestone", "ref": "D1", "distance": "188.0", "ssc:usek": 1226926, "ssc:stanicenie_m": 388, "side": "P", "road_class": "diaľnica", "spravca": "NDS - SSUD PB"}}, {"type": "Feature", "geometry": {"type": "Point", "coordinates": [18.7236142, 49.1619621]}, "properties": {"highway": "milestone", "ref": "64", "distance": "196.0", "ssc:usek": 2611, "ssc:stanicenie_m": 175, "side": "P", "road_class": "cesta I. triedy", "spravca": "SSC - IVSC ZA"}}, {"type": "Feature", "geometry": {"type": "Point", "coordinates": [18.7341058, 49.1981766]}, "properties": {"highway": "milestone", "ref": "64b", "distance": "0.0", "ssc:usek": 1226917, "ssc:stanicenie_m": 12, "side": "L", "road_class": "cesta I. triedy", "spravca": "NDS - SSUD PB"}}, {"type": "Feature", "geometry": {"type": "Point", "coordinates": [18.8002824, 49.2235453]}, "properties": {"highway": "milestone", "ref": "583", "distance": "5.0", "ssc:usek": 398807, "ssc:stanicenie_m": 17, "side": "P", "road_class": "cesta II. triedy", "spravca": "SC ŽSK - HPOV"}}, {"type": "Feature", "geometry": {"type": "Point", "coordinates": [18.7498758, 49.2647348]}, "properties": {"highway": "milestone", "ref": "2095", "distance": "1.0", "ssc:usek": 398501, "ssc:stanicenie_m": 107, "side": "P", "road_class": "cesta III. triedy", "spravca": "SC ŽSK - HPOV"}}, {"type": "Feature", "geometry": {"type": "Point", "coordinates": [18.8600112, 49.2074088]}, "properties": {"highway": "milestone", "ref": "583", "distance": "10.0", "ssc:usek": 402177, "ssc:stanicenie_m": 150, "side": "P", "road_class": "cesta II. triedy", "spravca": "SC ŽSK - HPOV"}}, {"type": "Feature", "geometry": {"type": "Point", "coordinates": [18.7345627, 49.1792046]}, "properties": {"highway": "milestone", "ref": "64b", "distance": "2.5", "ssc:usek": 1226935, "ssc:stanicenie_m": 1961, "side": "P", "road_class": "cesta I. triedy", "spravca": "NDS - SSUD PB"}}, {"type": "Feature", "geometry": {"type": "Point", "coordinates": [18.6903984, 49.1320393]}, "properties": {"highway": "milestone", "ref": "64", "distance": "190.5", "ssc:usek": 2604, "ssc:stanicenie_m": 857, "side": "P", "road_class": "cesta I. triedy", "spravca": "SSC - IVSC ZA"}}, {"type": "Feature", "geometry": {"type": "Point", "coordinates": [18.8935104, 49.2203656]}, "properties": {"highway": "milestone", "ref": "583", "distance": "13.0", "ssc:usek": 398765, "ssc:stanicenie_m": 14, "side": "P", "road_class": "cesta II. triedy", "spravca": "SC ŽSK - HPOV"}}, {"type": "Feature", "geometry": {"type": "Point", "coordinates": [18.7544877, 49.228946]}, "properties": {"highway": "milestone", "ref": "583", "distance": "1.5", "ssc:usek": 402330, "ssc:stanicenie_m": 10, "side": "P", "road_class": "cesta II. triedy", "spravca": "SC ŽSK - HPOV"}}, {"type": "Feature", "geometry": {"type": "Point", "coordinates": [19.0298372, 49.2581906]}, "properties": {"highway": "milestone", "ref": "583", "distance": "24.5", "ssc:usek": 2779, "ssc:stanicenie_m": 86, "side": "P", "road_class": "cesta II. triedy", "spravca": "SC ŽSK - HPOV"}}, {"type": "Feature", "geometry": {"type": "Point", "coordinates": [18.6240672, 49.0566285]}, "properties": {"highway": "milestone", "ref": "64", "distance": "179.0", "ssc:usek": 398618, "ssc:stanicenie_m": 937, "side": "P", "road_class": "cesta I. triedy", "spravca": "SSC - IVSC ZA"}}, {"type": "Feature", "geometry": {"type": "Point", "coordinates": [18.7589676, 49.2191776]}, "properties": {"highway": "milestone", "ref": "18", "distance": "0.0", "ssc:usek": 2736, "ssc:stanicenie_m": 53, "side": "P", "road_class": "cesta I. triedy", "spravca": "SSC - IVSC ZA"}}, {"type": "Feature", "geometry": {"type": "Point", "coordinates": [18.7649292, 49.1581191]}, "properties": {"highway": "milestone", "ref": "D1", "distance": "202.5", "ssc:usek": 1654277, "ssc:stanicenie_m": 2843, "side": "P", "road_class": "diaľnica", "spravca": "NDS - SSUD MT"}}, {"type": "Feature", "geometry": {"type": "Point", "coordinates": [18.692081, 49.191895]}, "properties": {"highway": "milestone", "ref": "D1", "distance": "195.5", "ssc:usek": 1226915, "ssc:stanicenie_m": 3359, "side": "P", "road_class": "diaľnica", "spravca": "NDS - SSUD PB"}}, {"type": "Feature", "geometry": {"type": "Point", "coordinates": [19.0494141, 49.2573219]}, "properties": {"highway": "milestone", "ref": "583", "distance": "26.0", "ssc:usek": 402029, "ssc:stanicenie_m": 159, "side": "P", "road_class": "cesta II. triedy", "spravca": "SC ŽSK - HPOV"}}, {"type": "Feature", "geometry": {"type": "Point", "coordinates": [18.6566732, 49.2211805]}, "properties": {"highway": "milestone", "ref": "D1", "distance": "191.0", "ssc:usek": 1226915, "ssc:stanicenie_m": 7872, "side": "P", "road_class": "diaľnica", "spravca": "NDS - SSUD PB"}}, {"type": "Feature", "geometry": {"type": "Point", "coordinates": [18.6220111, 49.0297795]}, "properties": {"highway": "milestone", "ref": "64", "distance": "176.0", "ssc:usek": 402348, "ssc:stanicenie_m": 2311, "side": "P", "road_class": "cesta I. triedy", "spravca": "SSC - IVSC ZA"}}, {"type": "Feature", "geometry": {"type": "Point", "coordinates": [18.6660187, 49.2100664]}, "properties": {"highway": "milestone", "ref": "D1", "distance": "192.5", "ssc:usek": 1226915, "ssc:stanicenie_m": 6352, "side": "P", "road_class": "diaľnica", "spravca": "NDS - SSUD PB"}}, {"type": "Feature", "geometry": {"type": "Point", "coordinates": [18.7113544, 49.189009]}, "properties": {"highway": "milestone", "ref": "D1", "distance": "197.0", "ssc:usek": 1226915, "ssc:stanicenie_m": 1865, "side": "P", "road_class": "diaľnica", "spravca": "NDS - SSUD PB"}}, {"type": "Feature", "geometry": {"type": "Point", "coordinates": [18.6430439, 49.2214254]}, "properties": {"highway": "milestone", "ref": "D1", "distance": "190.0", "ssc:usek": 1226915, "ssc:stanicenie_m": 8881, "side": "P", "road_class": "diaľnica", "spravca": "NDS - SSUD PB"}}, {"type": "Feature", "geometry": {"type": "Point", "coordinates": [18.665528, 49.2145465]}, "properties": {"highway": "milestone", "ref": "D1", "distance": "192.0", "ssc:usek": 1226915, "ssc:stanicenie_m": 6855, "side": "P", "road_class": "diaľnica", "spravca": "NDS - SSUD PB"}}, {"type": "Feature", "geometry": {"type": "Point", "coordinates": [18.6623407, 49.2185527]}, "properties": {"highway": "milestone", "ref": "D1", "distance": "191.5", "ssc:usek": 1226915, "ssc:stanicenie_m": 7362, "side": "P", "road_class": "diaľnica", "spravca": "NDS - SSUD PB"}}, {"type": "Feature", "geometry": {"type": "Point", "coordinates": [18.784279, 49.1544631]}, "properties": {"highway": "milestone", "ref": "D1", "distance": "204.0", "ssc:usek": 1654277, "ssc:stanicenie_m": 4341, "side": "P", "road_class": "diaľnica", "spravca": "NDS - SSUD MT"}}, {"type": "Feature", "geometry": {"type": "Point", "coordinates": [18.8188334, 49.1401344]}, "properties": {"highway": "milestone", "ref": "D1", "distance": "207.0", "ssc:usek": 1655474, "ssc:stanicenie_m": 2403, "side": "L", "road_class": "diaľnica", "spravca": "NDS - SSUD PB"}}, {"type": "Feature", "geometry": {"type": "Point", "coordinates": [18.6979021, 49.1895907]}, "properties": {"highway": "milestone", "ref": "D1", "distance": "196.0", "ssc:usek": 1226915, "ssc:stanicenie_m": 2861, "side": "P", "road_class": "diaľnica", "spravca": "NDS - SSUD PB"}}, {"type": "Feature", "geometry": {"type": "Point", "coordinates": [18.5903161, 48.9947977]}, "properties": {"highway": "milestone", "ref": "64", "distance": "171.0", "ssc:usek": 138, "ssc:stanicenie_m": 562, "side": "P", "road_class": "cesta I. triedy", "spravca": "SSC - IVSC ZA"}}, {"type": "Feature", "geometry": {"type": "Point", "coordinates": [18.6164872, 49.0217382]}, "properties": {"highway": "milestone", "ref": "64", "distance": "175.0", "ssc:usek": 402348, "ssc:stanicenie_m": 1320, "side": "P", "road_class": "cesta I. triedy", "spravca": "SSC - IVSC ZA"}}, {"type": "Feature", "geometry": {"type": "Point", "coordinates": [18.6703586, 49.2019879]}, "properties": {"highway": "milestone", "ref": "D1", "distance": "193.5", "ssc:usek": 1226915, "ssc:stanicenie_m": 5352, "side": "P", "road_class": "diaľnica", "spravca": "NDS - SSUD PB"}}, {"type": "Feature", "geometry": {"type": "Point", "coordinates": [18.7401338, 49.171074]}, "properties": {"highway": "milestone", "ref": "D1", "distance": "200.0", "ssc:usek": 1654277, "ssc:stanicenie_m": 328, "side": "P", "road_class": "diaľnica", "spravca": "NDS - SSUD MT"}}, {"type": "Feature", "geometry": {"type": "Point", "coordinates": [18.7043959, 49.2477094]}, "properties": {"highway": "milestone", "ref": "507", "distance": "219.0", "ssc:usek": 8451, "ssc:stanicenie_m": 514, "side": "P", "road_class": "cesta II. triedy", "spravca": "SC ŽSK - HPOV"}}, {"type": "Feature", "geometry": {"type": "Point", "coordinates": [18.6665009, 49.2055817]}, "properties": {"highway": "milestone", "ref": "D1", "distance": "193.0", "ssc:usek": 1226915, "ssc:stanicenie_m": 5847, "side": "P", "road_class": "diaľnica", "spravca": "NDS - SSUD PB"}}, {"type": "Feature", "geometry": {"type": "Point", "coordinates": [18.8390612, 49.1377384]}, "properties": {"highway": "milestone", "ref": "D1", "distance": "208.5", "ssc:usek": 1655474, "ssc:stanicenie_m": 3903, "side": "L", "road_class": "diaľnica", "spravca": "NDS - SSUD PB"}}, {"type": "Feature", "geometry": {"type": "Point", "coordinates": [18.6368096, 49.2228153]}, "properties": {"highway": "milestone", "ref": "D1", "distance": "189.5", "ssc:usek": 1226915, "ssc:stanicenie_m": 9367, "side": "P", "road_class": "diaľnica", "spravca": "NDS - SSUD PB"}}, {"type": "Feature", "geometry": {"type": "Point", "coordinates": [18.5918561, 49.0860588]}, "properties": {"highway": "milestone", "ref": "517", "distance": "20.5", "ssc:usek": 127, "ssc:stanicenie_m": 62, "side": "P", "road_class": "cesta II. triedy", "spravca": "SC ŽSK - HPOV"}}, {"type": "Feature", "geometry": {"type": "Point", "coordinates": [18.7140447, 49.2280807]}, "properties": {"highway": "milestone", "ref": "61", "distance": "197.0", "ssc:usek": 402175, "ssc:stanicenie_m": 341, "side": "P", "road_class": "cesta I. triedy", "spravca": "SSC - IVSC ZA"}}, {"type": "Feature", "geometry": {"type": "Point", "coordinates": [18.7308157, 49.1749892]}, "properties": {"highway": "milestone", "ref": "64b", "distance": "3.0", "ssc:usek": 1655094, "ssc:stanicenie_m": 87, "side": "L", "road_class": "cesta I. triedy", "spravca": "NDS - SSUD PB"}}, {"type": "Feature", "geometry": {"type": "Point", "coordinates": [19.081481, 49.2621257]}, "properties": {"highway": "milestone", "ref": "583", "distance": "28.5", "ssc:usek": 402038, "ssc:stanicenie_m": 109, "side": "P", "road_class": "cesta II. triedy", "spravca": "SC ŽSK - HPOV"}}, {"type": "Feature", "geometry": {"type": "Point", "coordinates": [18.6876334, 49.1952885]}, "properties": {"highway": "milestone", "ref": "D1", "distance": "195.0", "ssc:usek": 1226915, "ssc:stanicenie_m": 3858, "side": "P", "road_class": "diaľnica", "spravca": "NDS - SSUD PB"}}, {"type": "Feature", "geometry": {"type": "Point", "coordinates": [18.7739055, 49.2262844]}, "properties": {"highway": "milestone", "ref": "583", "distance": "3.0", "ssc:usek": 742647, "ssc:stanicenie_m": 132, "side": "P", "road_class": "cesta II. triedy", "spravca": "SC ŽSK - HPOV"}}, {"type": "Feature", "geometry": {"type": "Point", "coordinates": [18.6764332, 49.2001988]}, "properties": {"highway": "milestone", "ref": "D1", "distance": "194.0", "ssc:usek": 1226915, "ssc:stanicenie_m": 4862, "side": "P", "road_class": "diaľnica", "spravca": "NDS - SSUD PB"}}, {"type": "Feature", "geometry": {"type": "Point", "coordinates": [18.7435117, 49.2138765]}, "properties": {"highway": "milestone", "ref": "60", "distance": "2.0", "ssc:usek": 8554, "ssc:stanicenie_m": 200, "side": "S", "road_class": "cesta I. triedy", "spravca": "SSC - IVSC ZA"}}, {"type": "Feature", "geometry": {"type": "Point", "coordinates": [18.8497426, 49.2108211]}, "properties": {"highway": "milestone", "ref": "583", "distance": "9.0", "ssc:usek": 402071, "ssc:stanicenie_m": 91, "side": "P", "road_class": "cesta II. triedy", "spravca": "SC ŽSK - HPOV"}}, {"type": "Feature", "geometry": {"type": "Point", "coordinates": [18.6192906, 49.0847532]}, "properties": {"highway": "milestone", "ref": "517", "distance": "23.5", "ssc:usek": 129, "ssc:stanicenie_m": 2149, "side": "P", "road_class": "cesta II. triedy", "spravca": "SC ŽSK - HPOV"}}, {"type": "Feature", "geometry": {"type": "Point", "coordinates": [18.6832558, 49.1981801]}, "properties": {"highway": "milestone", "ref": "D1", "distance": "194.5", "ssc:usek": 1226915, "ssc:stanicenie_m": 4313, "side": "P", "road_class": "diaľnica", "spravca": "NDS - SSUD PB"}}, {"type": "Feature", "geometry": {"type": "Point", "coordinates": [18.6110727, 49.2262553]}, "properties": {"highway": "milestone", "ref": "D1", "distance": "187.5", "ssc:usek": 1226911, "ssc:stanicenie_m": 534, "side": "P", "road_class": "diaľnica", "spravca": "NDS - SSUD PB"}}, {"type": "Feature", "geometry": {"type": "Point", "coordinates": [18.62624, 49.2266394]}, "properties": {"highway": "milestone", "ref": "D1", "distance": "188.5", "ssc:usek": 1226915, "ssc:stanicenie_m": 10251, "side": "P", "road_class": "diaľnica", "spravca": "NDS - SSUD PB"}}, {"type": "Feature", "geometry": {"type": "Point", "coordinates": [18.6310434, 49.2253008]}, "properties": {"highway": "milestone", "ref": "D1", "distance": "189.0", "ssc:usek": 1226915, "ssc:stanicenie_m": 9870, "side": "P", "road_class": "diaľnica", "spravca": "NDS - SSUD PB"}}, {"type": "Feature", "geometry": {"type": "Point", "coordinates": [18.6210088, 49.0479589]}, "properties": {"highway": "milestone", "ref": "64", "distance": "178.0", "ssc:usek": 136, "ssc:stanicenie_m": 334, "side": "P", "road_class": "cesta I. triedy", "spravca": "SSC - IVSC ZA"}}, {"type": "Feature", "geometry": {"type": "Point", "coordinates": [18.627959, 49.0650488]}, "properties": {"highway": "milestone", "ref": "64", "distance": "180.0", "ssc:usek": 398618, "ssc:stanicenie_m": 1937, "side": "P", "road_class": "cesta I. triedy", "spravca": "SSC - IVSC ZA"}}, {"type": "Feature", "geometry": {"type": "Point", "coordinates": [18.6133097, 49.0850309]}, "properties": {"highway": "milestone", "ref": "517", "distance": "23.0", "ssc:usek": 129, "ssc:stanicenie_m": 1680, "side": "P", "road_class": "cesta II. triedy", "spravca": "SC ŽSK - HPOV"}}, {"type": "Feature", "geometry": {"type": "Point", "coordinates": [18.7477807, 49.2542409]}, "properties": {"highway": "milestone", "ref": "11", "distance": "440.0", "ssc:usek": 2681, "ssc:stanicenie_m": 952, "side": "P", "road_class": "cesta I. triedy", "spravca": "NDS - SSUR CA"}}, {"type": "Feature", "geometry": {"type": "Point", "coordinates": [18.5967166, 49.0018945]}, "properties": {"highway": "milestone", "ref": "64", "distance": "172.0", "ssc:usek": 138, "ssc:stanicenie_m": 1557, "side": "P", "road_class": "cesta I. triedy", "spravca": "SSC - IVSC ZA"}}, {"type": "Feature", "geometry": {"type": "Point", "coordinates": [18.7507389, 49.2582693]}, "properties": {"highway": "milestone", "ref": "11", "distance": "439.5", "ssc:usek": 2681, "ssc:stanicenie_m": 455, "side": "P", "road_class": "cesta I. triedy", "spravca": "NDS - SSUR CA"}}, {"type": "Feature", "geometry": {"type": "Point", "coordinates": [18.6049731, 49.2243631]}, "properties": {"highway": "milestone", "ref": "D1", "distance": "187.0", "ssc:usek": 1226911, "ssc:stanicenie_m": 42, "side": "P", "road_class": "diaľnica", "spravca": "NDS - SSUD PB"}}, {"type": "Feature", "geometry": {"type": "Point", "coordinates": [18.5900771, 48.9870825]}, "properties": {"highway": "milestone", "ref": "64", "distance": "170.0", "ssc:usek": 402327, "ssc:stanicenie_m": 1157, "side": "P", "road_class": "cesta I. triedy", "spravca": "SSC - IVSC ZA"}}, {"type": "Feature", "geometry": {"type": "Point", "coordinates": [18.7341647, 49.2314906]}, "properties": {"highway": "milestone", "ref": "60", "distance": "6.0", "ssc:usek": 462903, "ssc:stanicenie_m": 96, "side": "P", "road_class": "cesta I. triedy", "spravca": "SSC - IVSC ZA"}}, {"type": "Feature", "geometry": {"type": "Point", "coordinates": [18.6656619, 49.2548715]}, "properties": {"highway": "milestone", "ref": "61", "distance": "192.0", "ssc:usek": 2677, "ssc:stanicenie_m": 109, "side": "P", "road_class": "cesta I. triedy", "spravca": "SSC - IVSC ZA"}}, {"type": "Feature", "geometry": {"type": "Point", "coordinates": [18.7430031, 49.1670428]}, "properties": {"highway": "milestone", "ref": "D1", "distance": "200.5", "ssc:usek": 1654277, "ssc:stanicenie_m": 825, "side": "P", "road_class": "diaľnica", "spravca": "NDS - SSUD MT"}}, {"type": "Feature", "geometry": {"type": "Point", "coordinates": [18.5982806, 49.2232419]}, "properties": {"highway": "milestone", "ref": "D1", "distance": "186.5", "ssc:usek": 26600, "ssc:stanicenie_m": 433, "side": "S", "road_class": "diaľnica", "spravca": "NDS - SSUD PB"}}, {"type": "Feature", "geometry": {"type": "Point", "coordinates": [18.598372, 49.2233783]}, "properties": {"highway": "milestone", "ref": "D1", "distance": "186.5", "ssc:usek": 539409, "ssc:stanicenie_m": 445, "side": "P", "road_class": "diaľnica", "spravca": "NDS - SSUD PB"}}, {"type": "Feature", "geometry": {"type": "Point", "coordinates": [18.7523427, 49.2671228]}, "properties": {"highway": "milestone", "ref": "11", "distance": "438.5", "ssc:usek": 8633, "ssc:stanicenie_m": 456, "side": "P", "road_class": "cesta I. triedy", "spravca": "NDS - SSUR CA"}}, {"type": "Feature", "geometry": {"type": "Point", "coordinates": [18.8323029, 49.1384845]}, "properties": {"highway": "milestone", "ref": "D1", "distance": "208.0", "ssc:usek": 1655474, "ssc:stanicenie_m": 3403, "side": "L", "road_class": "diaľnica", "spravca": "NDS - SSUD PB"}}, {"type": "Feature", "geometry": {"type": "Point", "coordinates": [18.806075, 49.1432966]}, "properties": {"highway": "milestone", "ref": "D1", "distance": "206.0", "ssc:usek": 1655474, "ssc:stanicenie_m": 1406, "side": "L", "road_class": "diaľnica", "spravca": "NDS - SSUD PB"}}, {"type": "Feature", "geometry": {"type": "Point", "coordinates": [18.6072643, 49.0859178]}, "properties": {"highway": "milestone", "ref": "517", "distance": "22.5", "ssc:usek": 129, "ssc:stanicenie_m": 1207, "side": "P", "road_class": "cesta II. triedy", "spravca": "SC ŽSK - HPOV"}}, {"type": "Feature", "geometry": {"type": "Point", "coordinates": [18.6335018, 49.2292837]}, "properties": {"highway": "milestone", "ref": "61", "distance": "188.0", "ssc:usek": 409830, "ssc:stanicenie_m": 160, "side": "P", "road_class": "cesta I. triedy", "spravca": "SSC - IVSC ZA"}}, {"type": "Feature", "geometry": {"type": "Point", "coordinates": [18.6177943, 49.2271714]}, "properties": {"highway": "milestone", "ref": "D1", "distance": "188.0", "ssc:usek": 1226924, "ssc:stanicenie_m": 458, "side": "P", "road_class": "diaľnica", "spravca": "NDS - SSUD PB"}}, {"type": "Feature", "geometry": {"type": "Point", "coordinates": [18.7415363, 49.1904669]}, "properties": {"highway": "milestone", "ref": "64b", "distance": "1.0", "ssc:usek": 1655085, "ssc:stanicenie_m": 1593, "side": "P", "road_class": "cesta I. triedy", "spravca": "NDS - SSUD PB"}}, {"type": "Feature", "geometry": {"type": "Point", "coordinates": [18.7418531, 49.1859598]}, "properties": {"highway": "milestone", "ref": "64b", "distance": "1.5", "ssc:usek": 1655085, "ssc:stanicenie_m": 1090, "side": "P", "road_class": "cesta I. triedy", "spravca": "NDS - SSUD PB"}}, {"type": "Feature", "geometry": {"type": "Point", "coordinates": [18.7396722, 49.1816576]}, "properties": {"highway": "milestone", "ref": "64b", "distance": "2.0", "ssc:usek": 1655085, "ssc:stanicenie_m": 576, "side": "P", "road_class": "cesta I. triedy", "spravca": "NDS - SSUD PB"}}, {"type": "Feature", "geometry": {"type": "Point", "coordinates": [18.6705424, 49.2017246]}, "properties": {"highway": "milestone", "ref": "D1", "distance": "193.5", "ssc:usek": 1226928, "ssc:stanicenie_m": 5134, "side": "P", "road_class": "diaľnica", "spravca": "NDS - SSUD PB"}}, {"type": "Feature", "geometry": {"type": "Point", "coordinates": [18.6664521, 49.2052862]}, "properties": {"highway": "milestone", "ref": "D1", "distance": "193.0", "ssc:usek": 1226928, "ssc:stanicenie_m": 4632, "side": "P", "road_class": "diaľnica", "spravca": "NDS - SSUD PB"}}, {"type": "Feature", "geometry": {"type": "Point", "coordinates": [18.9808852, 49.2468328]}, "properties": {"highway": "milestone", "ref": "583", "distance": "20.5", "ssc:usek": 1533825, "ssc:stanicenie_m": 300, "side": "P", "road_class": "cesta II. triedy", "spravca": "SC ŽSK - HPOV"}}, {"type": "Feature", "geometry": {"type": "Point", "coordinates": [18.6821923, 49.1984888]}, "properties": {"highway": "milestone", "ref": "D1", "distance": "194.5", "ssc:usek": 1226928, "ssc:stanicenie_m": 6062, "side": "P", "road_class": "diaľnica", "spravca": "NDS - SSUD PB"}}, {"type": "Feature", "geometry": {"type": "Point", "coordinates": [18.734637, 49.1791121]}, "properties": {"highway": "milestone", "ref": "64b", "distance": "2.5", "ssc:usek": 1655085, "ssc:stanicenie_m": 109, "side": "P", "road_class": "cesta I. triedy", "spravca": "NDS - SSUD PB"}}, {"type": "Feature", "geometry": {"type": "Point", "coordinates": [18.6984243, 49.1893225]}, "properties": {"highway": "milestone", "ref": "D1", "distance": "196.0", "ssc:usek": 1226928, "ssc:stanicenie_m": 7647, "side": "P", "road_class": "diaľnica", "spravca": "NDS - SSUD PB"}}, {"type": "Feature", "geometry": {"type": "Point", "coordinates": [18.6924276, 49.1915354]}, "properties": {"highway": "milestone", "ref": "D1", "distance": "195.5", "ssc:usek": 1226928, "ssc:stanicenie_m": 7143, "side": "P", "road_class": "diaľnica", "spravca": "NDS - SSUD PB"}}, {"type": "Feature", "geometry": {"type": "Point", "coordinates": [18.6431749, 49.2210118]}, "properties": {"highway": "milestone", "ref": "D1", "distance": "190.0", "ssc:usek": 1226928, "ssc:stanicenie_m": 1628, "side": "P", "road_class": "diaľnica", "spravca": "NDS - SSUD PB"}}, {"type": "Feature", "geometry": {"type": "Point", "coordinates": [18.6620725, 49.2181435]}, "properties": {"highway": "milestone", "ref": "D1", "distance": "191.5", "ssc:usek": 1226928, "ssc:stanicenie_m": 3121, "side": "P", "road_class": "diaľnica", "spravca": "NDS - SSUD PB"}}, {"type": "Feature", "geometry": {"type": "Point", "coordinates": [18.6566528, 49.2207516]}, "properties": {"highway": "milestone", "ref": "D1", "distance": "191.0", "ssc:usek": 1226928, "ssc:stanicenie_m": 2627, "side": "P", "road_class": "diaľnica", "spravca": "NDS - SSUD PB"}}, {"type": "Feature", "geometry": {"type": "Point", "coordinates": [18.6310014, 49.2251836]}, "properties": {"highway": "milestone", "ref": "D1", "distance": "189.0", "ssc:usek": 1226928, "ssc:stanicenie_m": 608, "side": "P", "road_class": "diaľnica", "spravca": "NDS - SSUD PB"}}, {"type": "Feature", "geometry": {"type": "Point", "coordinates": [18.6366613, 49.2225538]}, "properties": {"highway": "milestone", "ref": "D1", "distance": "189.5", "ssc:usek": 1226928, "ssc:stanicenie_m": 1114, "side": "P", "road_class": "diaľnica", "spravca": "NDS - SSUD PB"}}, {"type": "Feature", "geometry": {"type": "Point", "coordinates": [18.8993001, 49.2224129]}, "properties": {"highway": "milestone", "ref": "583", "distance": "13.5", "ssc:usek": 1342451, "ssc:stanicenie_m": 481, "side": "P", "road_class": "cesta II. triedy", "spravca": "SC ŽSK - HPOV"}}, {"type": "Feature", "geometry": {"type": "Point", "coordinates": [18.7045675, 49.1886627]}, "properties": {"highway": "milestone", "ref": "D1", "distance": "196.5", "ssc:usek": 1226915, "ssc:stanicenie_m": 2362, "side": "P", "road_class": "diaľnica", "spravca": "NDS - SSUD PB"}}, {"type": "Feature", "geometry": {"type": "Point", "coordinates": [18.7272544, 49.1784474]}, "properties": {"highway": "milestone", "ref": "64", "distance": "198.0", "ssc:usek": 1534957, "ssc:stanicenie_m": 63, "side": "P", "road_class": "cesta I. triedy", "spravca": "SSC - IVSC ZA"}}, {"type": "Feature", "geometry": {"type": "Point", "coordinates": [18.6246244, 49.2268045]}, "properties": {"highway": "milestone", "ref": "D1", "distance": "188.5", "ssc:usek": 1226928, "ssc:stanicenie_m": 108, "side": "P", "road_class": "diaľnica", "spravca": "NDS - SSUD PB"}}, {"type": "Feature", "geometry": {"type": "Point", "coordinates": [18.994234, 49.2478383]}, "properties": {"highway": "milestone", "ref": "583", "distance": "21.5", "ssc:usek": 1533826, "ssc:stanicenie_m": 135, "side": "P", "road_class": "cesta II. triedy", "spravca": "SC ŽSK - HPOV"}}, {"type": "Feature", "geometry": {"type": "Point", "coordinates": [18.7052241, 49.1885211]}, "properties": {"highway": "milestone", "ref": "D1", "distance": "196.5", "ssc:usek": 1226928, "ssc:stanicenie_m": 8153, "side": "P", "road_class": "diaľnica", "spravca": "NDS - SSUD PB"}}, {"type": "Feature", "geometry": {"type": "Point", "coordinates": [18.7782448, 49.1568435]}, "properties": {"highway": "milestone", "ref": "D1", "distance": "203.5", "ssc:usek": 1655476, "ssc:stanicenie_m": 1137, "side": "P", "road_class": "diaľnica", "spravca": "NDS - SSUD MT"}}, {"type": "Feature", "geometry": {"type": "Point", "coordinates": [18.7487831, 49.2284922]}, "properties": {"highway": "milestone", "ref": "60", "distance": "5.0", "ssc:usek": 1654275, "ssc:stanicenie_m": 94, "side": "P", "road_class": "cesta I. triedy", "spravca": "SSC - IVSC ZA"}}, {"type": "Feature", "geometry": {"type": "Point", "coordinates": [18.7516864, 49.1601628]}, "properties": {"highway": "milestone", "ref": "D1", "distance": "201.5", "ssc:usek": 1654277, "ssc:stanicenie_m": 1837, "side": "P", "road_class": "diaľnica", "spravca": "NDS - SSUD MT"}}, {"type": "Feature", "geometry": {"type": "Point", "coordinates": [18.7717944, 49.1578472]}, "properties": {"highway": "milestone", "ref": "D1", "distance": "203.0", "ssc:usek": 1654277, "ssc:stanicenie_m": 3345, "side": "P", "road_class": "diaľnica", "spravca": "NDS - SSUD MT"}}, {"type": "Feature", "geometry": {"type": "Point", "coordinates": [18.7465179, 49.1632699]}, "properties": {"highway": "milestone", "ref": "D1", "distance": "201.0", "ssc:usek": 1655476, "ssc:stanicenie_m": 3637, "side": "P", "road_class": "diaľnica", "spravca": "NDS - SSUD MT"}}, {"type": "Feature", "geometry": {"type": "Point", "coordinates": [18.6759542, 49.2548342]}, "properties": {"highway": "milestone", "ref": "D3", "distance": "5.0", "ssc:usek": 25350, "ssc:stanicenie_m": 4667, "side": "P", "road_class": "diaľnica", "spravca": "NDS - SSUD PB"}}, {"type": "Feature", "geometry": {"type": "Point", "coordinates": [18.6629167, 49.253443]}, "properties": {"highway": "milestone", "ref": "D3", "distance": "4.0", "ssc:usek": 25350, "ssc:stanicenie_m": 3667, "side": "P", "road_class": "diaľnica", "spravca": "NDS - SSUD PB"}}, {"type": "Feature", "geometry": {"type": "Point", "coordinates": [18.6393732, 49.2378146]}, "properties": {"highway": "milestone", "ref": "D3", "distance": "1.5", "ssc:usek": 25350, "ssc:stanicenie_m": 1167, "side": "P", "road_class": "diaľnica", "spravca": "NDS - SSUD PB"}}, {"type": "Feature", "geometry": {"type": "Point", "coordinates": [18.6275052, 49.233617]}, "properties": {"highway": "milestone", "ref": "D3", "distance": "0.5", "ssc:usek": 25350, "ssc:stanicenie_m": 167, "side": "P", "road_class": "diaľnica", "spravca": "NDS - SSUD PB"}}, {"type": "Feature", "geometry": {"type": "Point", "coordinates": [18.6481331, 49.2448326]}, "properties": {"highway": "milestone", "ref": "D3", "distance": "2.5", "ssc:usek": 874713, "ssc:stanicenie_m": 4160, "side": "P", "road_class": "diaľnica", "spravca": "NDS - SSUD PB"}}, {"type": "Feature", "geometry": {"type": "Point", "coordinates": [18.6927962, 49.24149]}, "properties": {"highway": "milestone", "ref": "D3", "distance": "7.0", "ssc:usek": 1526089, "ssc:stanicenie_m": 4085, "side": "P", "road_class": "diaľnica", "spravca": "NDS - SSUD PB"}}, {"type": "Feature", "geometry": {"type": "Point", "coordinates": [18.8321881, 49.1388972]}, "properties": {"highway": "milestone", "ref": "D1", "distance": "208.0", "ssc:usek": 1654674, "ssc:stanicenie_m": 1036, "side": "L", "road_class": "diaľnica", "spravca": "NDS - SSUD PB"}}, {"type": "Feature", "geometry": {"type": "Point", "coordinates": [18.9750379, 49.2468379]}, "properties": {"highway": "milestone", "ref": "583", "distance": "20.0", "ssc:usek": 2777, "ssc:stanicenie_m": 894, "side": "P", "road_class": "cesta II. triedy", "spravca": "SC ŽSK - HPOV"}}, {"type": "Feature", "geometry": {"type": "Point", "coordinates": [18.7514941, 49.2635572]}, "properties": {"highway": "milestone", "ref": "11", "distance": "439.0", "ssc:usek": 1587822, "ssc:stanicenie_m": 36, "side": "P", "road_class": "cesta I. triedy", "spravca": "NDS - SSUR CA"}}, {"type": "Feature", "geometry": {"type": "Point", "coordinates": [18.7049271, 49.2433442]}, "properties": {"highway": "milestone", "ref": "D3", "distance": "8.0", "ssc:usek": 1526089, "ssc:stanicenie_m": 3113, "side": "P", "road_class": "diaľnica", "spravca": "NDS - SSUD PB"}}, {"type": "Feature", "geometry": {"type": "Point", "coordinates": [18.7355521, 49.2435275]}, "properties": {"highway": "milestone", "ref": "D3", "distance": "10.5", "ssc:usek": 1526089, "ssc:stanicenie_m": 653, "side": "P", "road_class": "diaľnica", "spravca": "NDS - SSUD PB"}}, {"type": "Feature", "geometry": {"type": "Point", "coordinates": [18.7426404, 49.2456007]}, "properties": {"highway": "milestone", "ref": "D3", "distance": "11.0", "ssc:usek": 873132, "ssc:stanicenie_m": 4240, "side": "P", "road_class": "diaľnica", "spravca": "NDS - SSUD PB"}}, {"type": "Feature", "geometry": {"type": "Point", "coordinates": [18.6995411, 49.2410084]}, "properties": {"highway": "milestone", "ref": "D3", "distance": "7.5", "ssc:usek": 873132, "ssc:stanicenie_m": 740, "side": "P", "road_class": "diaľnica", "spravca": "NDS - SSUD PB"}}, {"type": "Feature", "geometry": {"type": "Point", "coordinates": [18.7589602, 49.2190348]}, "properties": {"highway": "milestone", "ref": "18", "distance": "0.0", "ssc:usek": 2735, "ssc:stanicenie_m": 1, "side": "P", "road_class": "cesta I. triedy", "spravca": "SSC - IVSC ZA"}}, {"type": "Feature", "geometry": {"type": "Point", "coordinates": [18.7674006, 49.2272761]}, "properties": {"highway": "milestone", "ref": "583", "distance": "2.5", "ssc:usek": 1534918, "ssc:stanicenie_m": 413, "side": "P", "road_class": "cesta II. triedy", "spravca": "SC ŽSK - HPOV"}}, {"type": "Feature", "geometry": {"type": "Point", "coordinates": [19.0002127, 49.2493938]}, "properties": {"highway": "milestone", "ref": "583", "distance": "22.0", "ssc:usek": 1533826, "ssc:stanicenie_m": 627, "side": "P", "road_class": "cesta II. triedy", "spravca": "SC ŽSK - HPOV"}}, {"type": "Feature", "geometry": {"type": "Point", "coordinates": [18.6654209, 49.214312]}, "properties": {"highway": "milestone", "ref": "D1", "distance": "192.0", "ssc:usek": 1226928, "ssc:stanicenie_m": 3616, "side": "P", "road_class": "diaľnica", "spravca": "NDS - SSUD PB"}}, {"type": "Feature", "geometry": {"type": "Point", "coordinates": [18.6657821, 49.2098538]}, "properties": {"highway": "milestone", "ref": "D1", "distance": "192.5", "ssc:usek": 1226928, "ssc:stanicenie_m": 4116, "side": "P", "road_class": "diaľnica", "spravca": "NDS - SSUD PB"}}, {"type": "Feature", "geometry": {"type": "Point", "coordinates": [18.6866168, 49.2472851]}, "properties": {"highway": "milestone", "ref": "61", "distance": "194.0", "ssc:usek": 26912, "ssc:stanicenie_m": 1644, "side": "P", "road_class": "cesta I. triedy", "spravca": "SSC - IVSC ZA"}}, {"type": "Feature", "geometry": {"type": "Point", "coordinates": [18.7822968, 49.2103492]}, "properties": {"highway": "milestone", "ref": "18", "distance": "2.0", "ssc:usek": 2692, "ssc:stanicenie_m": 17, "side": "P", "road_class": "cesta I. triedy", "spravca": "SSC - IVSC ZA"}}, {"type": "Feature", "geometry": {"type": "Point", "coordinates": [18.7516301, 49.1603327]}, "properties": {"highway": "milestone", "ref": "D1", "distance": "201.5", "ssc:usek": 1655476, "ssc:stanicenie_m": 3139, "side": "P", "road_class": "diaľnica", "spravca": "NDS - SSUD MT"}}, {"type": "Feature", "geometry": {"type": "Point", "coordinates": [18.6556473, 49.2491708]}, "properties": {"highway": "milestone", "ref": "61", "distance": "191.0", "ssc:usek": 1749, "ssc:stanicenie_m": 1476, "side": "P", "road_class": "cesta I. triedy", "spravca": "SSC - IVSC ZA"}}, {"type": "Feature", "geometry": {"type": "Point", "coordinates": [18.987534, 49.2475702]}, "properties": {"highway": "milestone", "ref": "583", "distance": "21.0", "ssc:usek": 1533825, "ssc:stanicenie_m": 792, "side": "P", "road_class": "cesta II. triedy", "spravca": "SC ŽSK - HPOV"}}, {"type": "Feature", "geometry": {"type": "Point", "coordinates": [18.6878137, 49.1949003]}, "properties": {"highway": "milestone", "ref": "D1", "distance": "195.0", "ssc:usek": 1226928, "ssc:stanicenie_m": 6638, "side": "P", "road_class": "diaľnica", "spravca": "NDS - SSUD PB"}}, {"type": "Feature", "geometry": {"type": "Point", "coordinates": [18.7120904, 49.1887471]}, "properties": {"highway": "milestone", "ref": "D1", "distance": "197.0", "ssc:usek": 1226928, "ssc:stanicenie_m": 8655, "side": "P", "road_class": "diaľnica", "spravca": "NDS - SSUD PB"}}, {"type": "Feature", "geometry": {"type": "Point", "coordinates": [18.8001763, 49.1455468]}, "properties": {"highway": "milestone", "ref": "D1", "distance": "205.5", "ssc:usek": 1655474, "ssc:stanicenie_m": 908, "side": "L", "road_class": "diaľnica", "spravca": "NDS - SSUD PB"}}, {"type": "Feature", "geometry": {"type": "Point", "coordinates": [18.6854701, 49.2486908]}, "properties": {"highway": "milestone", "ref": "D3", "distance": "6.0", "ssc:usek": 25350, "ssc:stanicenie_m": 5667, "side": "P", "road_class": "diaľnica", "spravca": "NDS - SSUD PB"}}, {"type": "Feature", "geometry": {"type": "Point", "coordinates": [18.7295221, 49.1767756]}, "properties": {"highway": "milestone", "ref": "D1", "distance": "199.0", "ssc:usek": 1655078, "ssc:stanicenie_m": 82, "side": "P", "road_class": "diaľnica", "spravca": "NDS - SSUD PB"}}, {"type": "Feature", "geometry": {"type": "Point", "coordinates": [18.7402117, 49.1711891]}, "properties": {"highway": "milestone", "ref": "D1", "distance": "200.0", "ssc:usek": 1655476, "ssc:stanicenie_m": 4636, "side": "P", "road_class": "diaľnica", "spravca": "NDS - SSUD MT"}}, {"type": "Feature", "geometry": {"type": "Point", "coordinates": [18.7309559, 49.1749672]}, "properties": {"highway": "milestone", "ref": "64b", "distance": "3.0", "ssc:usek": 1226916, "ssc:stanicenie_m": 82, "side": "L", "road_class": "cesta I. triedy", "spravca": "NDS - SSUD PB"}}, {"type": "Feature", "geometry": {"type": "Point", "coordinates": [18.7350617, 49.1740333]}, "properties": {"highway": "milestone", "ref": "D1", "distance": "199.5", "ssc:usek": 1655078, "ssc:stanicenie_m": 588, "side": "P", "road_class": "diaľnica", "spravca": "NDS - SSUD PB"}}, {"type": "Feature", "geometry": {"type": "Point", "coordinates": [18.6876149, 49.2445206]}, "properties": {"highway": "milestone", "ref": "D3", "distance": "6.5", "ssc:usek": 25350, "ssc:stanicenie_m": 6157, "side": "P", "road_class": "diaľnica", "spravca": "NDS - SSUD PB"}}, {"type": "Feature", "geometry": {"type": "Point", "coordinates": [18.6277716, 49.2338445]}, "properties": {"highway": "milestone", "ref": "D3", "distance": "0.5", "ssc:usek": 874713, "ssc:stanicenie_m": 6160, "side": "P", "road_class": "diaľnica", "spravca": "NDS - SSUD PB"}}, {"type": "Feature", "geometry": {"type": "Point", "coordinates": [18.6342219, 49.2353634]}, "properties": {"highway": "milestone", "ref": "D3", "distance": "1.0", "ssc:usek": 874713, "ssc:stanicenie_m": 5660, "side": "P", "road_class": "diaľnica", "spravca": "NDS - SSUD PB"}}, {"type": "Feature", "geometry": {"type": "Point", "coordinates": [18.6395255, 49.2381402]}, "properties": {"highway": "milestone", "ref": "D3", "distance": "1.5", "ssc:usek": 874713, "ssc:stanicenie_m": 5159, "side": "P", "road_class": "diaľnica", "spravca": "NDS - SSUD PB"}}, {"type": "Feature", "geometry": {"type": "Point", "coordinates": [18.7095858, 49.2461103]}, "properties": {"highway": "milestone", "ref": "D3", "distance": "8.5", "ssc:usek": 1526089, "ssc:stanicenie_m": 2653, "side": "P", "road_class": "diaľnica", "spravca": "NDS - SSUD PB"}}, {"type": "Feature", "geometry": {"type": "Point", "coordinates": [18.7161096, 49.2473499]}, "properties": {"highway": "milestone", "ref": "D3", "distance": "9.0", "ssc:usek": 1526089, "ssc:stanicenie_m": 2153, "side": "P", "road_class": "diaľnica", "spravca": "NDS - SSUD PB"}}, {"type": "Feature", "geometry": {"type": "Point", "coordinates": [18.7227325, 49.2463469]}, "properties": {"highway": "milestone", "ref": "D3", "distance": "9.5", "ssc:usek": 1526089, "ssc:stanicenie_m": 1653, "side": "P", "road_class": "diaľnica", "spravca": "NDS - SSUD PB"}}, {"type": "Feature", "geometry": {"type": "Point", "coordinates": [18.7288367, 49.2442917]}, "properties": {"highway": "milestone", "ref": "D3", "distance": "10.0", "ssc:usek": 1526089, "ssc:stanicenie_m": 1153, "side": "P", "road_class": "diaľnica", "spravca": "NDS - SSUD PB"}}, {"type": "Feature", "geometry": {"type": "Point", "coordinates": [18.8849069, 49.1532638]}, "properties": {"highway": "milestone", "ref": "18", "distance": "16.0", "ssc:usek": 2621, "ssc:stanicenie_m": 6646, "side": "P", "road_class": "cesta I. triedy", "spravca": "SSC - IVSC ZA"}}, {"type": "Feature", "geometry": {"type": "Point", "coordinates": [18.8844359, 49.1605871]}, "properties": {"highway": "milestone", "ref": "18", "distance": "15.0", "ssc:usek": 2621, "ssc:stanicenie_m": 5723, "side": "P", "road_class": "cesta I. triedy", "spravca": "SSC - IVSC ZA"}}, {"type": "Feature", "geometry": {"type": "Point", "coordinates": [18.8519643, 49.1844512]}, "properties": {"highway": "milestone", "ref": "18", "distance": "8.0", "ssc:usek": 398729, "ssc:stanicenie_m": 352, "side": "P", "road_class": "cesta I. triedy", "spravca": "SSC - IVSC ZA"}}, {"type": "Feature", "geometry": {"type": "Point", "coordinates": [18.6768524, 49.1999857]}, "properties": {"highway": "milestone", "ref": "D1", "distance": "194.0", "ssc:usek": 1226928, "ssc:stanicenie_m": 5637, "side": "P", "road_class": "diaľnica", "spravca": "NDS - SSUD PB"}}, {"type": "Feature", "geometry": {"type": "Point", "coordinates": [18.7219161, 49.1840064]}, "properties": {"highway": "milestone", "ref": "D1", "distance": "198.0", "ssc:usek": 1226915, "ssc:stanicenie_m": 847, "side": "P", "road_class": "diaľnica", "spravca": "NDS - SSUD PB"}}, {"type": "Feature", "geometry": {"type": "Point", "coordinates": [18.7247529, 49.1798997]}, "properties": {"highway": "milestone", "ref": "D1", "distance": "198.5", "ssc:usek": 1226915, "ssc:stanicenie_m": 345, "side": "P", "road_class": "diaľnica", "spravca": "NDS - SSUD PB"}}, {"type": "Feature", "geometry": {"type": "Point", "coordinates": [18.6578995, 49.2504034]}, "properties": {"highway": "milestone", "ref": "D3", "distance": "3.5", "ssc:usek": 25350, "ssc:stanicenie_m": 3167, "side": "P", "road_class": "diaľnica", "spravca": "NDS - SSUD PB"}}, {"type": "Feature", "geometry": {"type": "Point", "coordinates": [18.8827906, 49.1662454]}, "properties": {"highway": "milestone", "ref": "18", "distance": "14.0", "ssc:usek": 2621, "ssc:stanicenie_m": 4623, "side": "P", "road_class": "cesta I. triedy", "spravca": "SSC - IVSC ZA"}}, {"type": "Feature", "geometry": {"type": "Point", "coordinates": [18.6478461, 49.2446295]}, "properties": {"highway": "milestone", "ref": "D3", "distance": "2.5", "ssc:usek": 25350, "ssc:stanicenie_m": 2167, "side": "P", "road_class": "diaľnica", "spravca": "NDS - SSUD PB"}}, {"type": "Feature", "geometry": {"type": "Point", "coordinates": [18.6427084, 49.2417355]}, "properties": {"highway": "milestone", "ref": "D3", "distance": "2.0", "ssc:usek": 25350, "ssc:stanicenie_m": 1667, "side": "P", "road_class": "diaľnica", "spravca": "NDS - SSUD PB"}}, {"type": "Feature", "geometry": {"type": "Point", "coordinates": [18.6631691, 49.2536812]}, "properties": {"highway": "milestone", "ref": "D3", "distance": "4.0", "ssc:usek": 874713, "ssc:stanicenie_m": 2660, "side": "P", "road_class": "diaľnica", "spravca": "NDS - SSUD PB"}}, {"type": "Feature", "geometry": {"type": "Point", "coordinates": [18.6694622, 49.2553475]}, "properties": {"highway": "milestone", "ref": "D3", "distance": "4.5", "ssc:usek": 874713, "ssc:stanicenie_m": 2163, "side": "P", "road_class": "diaľnica", "spravca": "NDS - SSUD PB"}}, {"type": "Feature", "geometry": {"type": "Point", "coordinates": [18.6763235, 49.2548709]}, "properties": {"highway": "milestone", "ref": "D3", "distance": "5.0", "ssc:usek": 874713, "ssc:stanicenie_m": 1654, "side": "P", "road_class": "diaľnica", "spravca": "NDS - SSUD PB"}}, {"type": "Feature", "geometry": {"type": "Point", "coordinates": [18.6819696, 49.2522591]}, "properties": {"highway": "milestone", "ref": "D3", "distance": "5.5", "ssc:usek": 874713, "ssc:stanicenie_m": 1148, "side": "P", "road_class": "diaľnica", "spravca": "NDS - SSUD PB"}}, {"type": "Feature", "geometry": {"type": "Point", "coordinates": [18.7300039, 49.2436346]}, "properties": {"highway": "milestone", "ref": "D3", "distance": "10.0", "ssc:usek": 873132, "ssc:stanicenie_m": 3240, "side": "P", "road_class": "diaľnica", "spravca": "NDS - SSUD PB"}}, {"type": "Feature", "geometry": {"type": "Point", "coordinates": [18.7238305, 49.2455898]}, "properties": {"highway": "milestone", "ref": "D3", "distance": "9.5", "ssc:usek": 873132, "ssc:stanicenie_m": 2740, "side": "P", "road_class": "diaľnica", "spravca": "NDS - SSUD PB"}}, {"type": "Feature", "geometry": {"type": "Point", "coordinates": [18.7173243, 49.2469154]}, "properties": {"highway": "milestone", "ref": "D3", "distance": "9.0", "ssc:usek": 873132, "ssc:stanicenie_m": 2240, "side": "P", "road_class": "diaľnica", "spravca": "NDS - SSUD PB"}}, {"type": "Feature", "geometry": {"type": "Point", "coordinates": [18.8891366, 49.1748583]}, "properties": {"highway": "milestone", "ref": "18", "distance": "12.0", "ssc:usek": 2621, "ssc:stanicenie_m": 2620, "side": "P", "road_class": "cesta I. triedy", "spravca": "SSC - IVSC ZA"}}, {"type": "Feature", "geometry": {"type": "Point", "coordinates": [18.8653901, 49.1713394]}, "properties": {"highway": "milestone", "ref": "18", "distance": "10.0", "ssc:usek": 2621, "ssc:stanicenie_m": 674, "side": "P", "road_class": "cesta I. triedy", "spravca": "SSC - IVSC ZA"}}, {"type": "Feature", "geometry": {"type": "Point", "coordinates": [18.8620188, 49.1790032]}, "properties": {"highway": "milestone", "ref": "18", "distance": "9.0", "ssc:usek": 2618, "ssc:stanicenie_m": 881, "side": "P", "road_class": "cesta I. triedy", "spravca": "SSC - IVSC ZA"}}, {"type": "Feature", "geometry": {"type": "Point", "coordinates": [18.8021739, 49.1984955]}, "properties": {"highway": "milestone", "ref": "18", "distance": "4.0", "ssc:usek": 2692, "ssc:stanicenie_m": 2001, "side": "P", "road_class": "cesta I. triedy", "spravca": "SSC - IVSC ZA"}}, {"type": "Feature", "geometry": {"type": "Point", "coordinates": [18.7907783, 49.203664]}, "properties": {"highway": "milestone", "ref": "18", "distance": "3.0", "ssc:usek": 2692, "ssc:stanicenie_m": 988, "side": "P", "road_class": "cesta I. triedy", "spravca": "SSC - IVSC ZA"}}, {"type": "Feature", "geometry": {"type": "Point", "coordinates": [18.7647271, 49.1582463]}, "properties": {"highway": "milestone", "ref": "D1", "distance": "202.5", "ssc:usek": 1655476, "ssc:stanicenie_m": 2142, "side": "P", "road_class": "diaľnica", "spravca": "NDS - SSUD MT"}}, {"type": "Feature", "geometry": {"type": "Point", "coordinates": [18.7715815, 49.1579983]}, "properties": {"highway": "milestone", "ref": "D1", "distance": "203.0", "ssc:usek": 1655476, "ssc:stanicenie_m": 1641, "side": "P", "road_class": "diaľnica", "spravca": "NDS - SSUD MT"}}, {"type": "Feature", "geometry": {"type": "Point", "coordinates": [18.778353, 49.1566797]}, "properties": {"highway": "milestone", "ref": "D1", "distance": "203.5", "ssc:usek": 1654277, "ssc:stanicenie_m": 3842, "side": "P", "road_class": "diaľnica", "spravca": "NDS - SSUD MT"}}, {"type": "Feature", "geometry": {"type": "Point", "coordinates": [18.6211178, 49.2254631]}, "properties": {"highway": "milestone", "ref": "61", "distance": "187.0", "ssc:usek": 7154, "ssc:stanicenie_m": 137, "side": "P", "road_class": "cesta I. triedy", "spravca": "SSC - IVSC ZA"}}, {"type": "Feature", "geometry": {"type": "Point", "coordinates": [18.7896447, 49.1518278]}, "properties": {"highway": "milestone", "ref": "D1", "distance": "204.5", "ssc:usek": 1655476, "ssc:stanicenie_m": 131, "side": "P", "road_class": "diaľnica", "spravca": "NDS - SSUD MT"}}, {"type": "Feature", "geometry": {"type": "Point", "coordinates": [18.653805, 49.2468055]}, "properties": {"highway": "milestone", "ref": "D3", "distance": "3.0", "ssc:usek": 25350, "ssc:stanicenie_m": 2667, "side": "P", "road_class": "diaľnica", "spravca": "NDS - SSUD PB"}}, {"type": "Feature", "geometry": {"type": "Point", "coordinates": [18.7948982, 49.1490386]}, "properties": {"highway": "milestone", "ref": "D1", "distance": "205.0", "ssc:usek": 1654674, "ssc:stanicenie_m": 4032, "side": "L", "road_class": "diaľnica", "spravca": "NDS - SSUD PB"}}, {"type": "Feature", "geometry": {"type": "Point", "coordinates": [18.8123279, 49.1414835]}, "properties": {"highway": "milestone", "ref": "D1", "distance": "206.5", "ssc:usek": 1655474, "ssc:stanicenie_m": 1905, "side": "L", "road_class": "diaľnica", "spravca": "NDS - SSUD PB"}}, {"type": "Feature", "geometry": {"type": "Point", "coordinates": [18.7842495, 49.1546435]}, "properties": {"highway": "milestone", "ref": "D1", "distance": "204.0", "ssc:usek": 1655476, "ssc:stanicenie_m": 634, "side": "P", "road_class": "diaľnica", "spravca": "NDS - SSUD MT"}}, {"type": "Feature", "geometry": {"type": "Point", "coordinates": [18.7272315, 49.1780723]}, "properties": {"highway": "milestone", "ref": "D1", "distance": "199.0", "ssc:usek": 1226915, "ssc:stanicenie_m": 72, "side": "P", "road_class": "diaľnica", "spravca": "NDS - SSUD PB"}}, {"type": "Feature", "geometry": {"type": "Point", "coordinates": [18.6947187, 49.2403721]}, "properties": {"highway": "milestone", "ref": "61", "distance": "195.0", "ssc:usek": 26912, "ssc:stanicenie_m": 2640, "side": "P", "road_class": "cesta I. triedy", "spravca": "SSC - IVSC ZA"}}, {"type": "Feature", "geometry": {"type": "Point", "coordinates": [18.6815884, 49.2523154]}, "properties": {"highway": "milestone", "ref": "D3", "distance": "5.5", "ssc:usek": 25350, "ssc:stanicenie_m": 5167, "side": "P", "road_class": "diaľnica", "spravca": "NDS - SSUD PB"}}, {"type": "Feature", "geometry": {"type": "Point", "coordinates": [18.6691983, 49.2551972]}, "properties": {"highway": "milestone", "ref": "D3", "distance": "4.5", "ssc:usek": 25350, "ssc:stanicenie_m": 4167, "side": "P", "road_class": "diaľnica", "spravca": "NDS - SSUD PB"}}, {"type": "Feature", "geometry": {"type": "Point", "coordinates": [18.6339343, 49.2351651]}, "properties": {"highway": "milestone", "ref": "D3", "distance": "1.0", "ssc:usek": 25350, "ssc:stanicenie_m": 667, "side": "P", "road_class": "diaľnica", "spravca": "NDS - SSUD PB"}}, {"type": "Feature", "geometry": {"type": "Point", "coordinates": [18.6428115, 49.2420392]}, "properties": {"highway": "milestone", "ref": "D3", "distance": "2.0", "ssc:usek": 874713, "ssc:stanicenie_m": 4663, "side": "P", "road_class": "diaľnica", "spravca": "NDS - SSUD PB"}}, {"type": "Feature", "geometry": {"type": "Point", "coordinates": [18.688, 49.2443055]}, "properties": {"highway": "milestone", "ref": "D3", "distance": "6.5", "ssc:usek": 874713, "ssc:stanicenie_m": 144, "side": "P", "road_class": "diaľnica", "spravca": "NDS - SSUD PB"}}, {"type": "Feature", "geometry": {"type": "Point", "coordinates": [18.6993416, 49.2410992]}, "properties": {"highway": "milestone", "ref": "D3", "distance": "7.5", "ssc:usek": 1526089, "ssc:stanicenie_m": 3598, "side": "P", "road_class": "diaľnica", "spravca": "NDS - SSUD PB"}}, {"type": "Feature", "geometry": {"type": "Point", "coordinates": [18.7431731, 49.1671094]}, "properties": {"highway": "milestone", "ref": "D1", "distance": "200.5", "ssc:usek": 1655476, "ssc:stanicenie_m": 4131, "side": "P", "road_class": "diaľnica", "spravca": "NDS - SSUD MT"}}, {"type": "Feature", "geometry": {"type": "Point", "coordinates": [18.8933572, 49.1699069]}, "properties": {"highway": "milestone", "ref": "18", "distance": "13.0", "ssc:usek": 2621, "ssc:stanicenie_m": 3674, "side": "P", "road_class": "cesta I. triedy", "spravca": "SSC - IVSC ZA"}}, {"type": "Feature", "geometry": {"type": "Point", "coordinates": [18.8256985, 49.1897988]}, "properties": {"highway": "milestone", "ref": "18", "distance": "6.0", "ssc:usek": 842033, "ssc:stanicenie_m": 1137, "side": "P", "road_class": "cesta I. triedy", "spravca": "SSC - IVSC ZA"}}, {"type": "Feature", "geometry": {"type": "Point", "coordinates": [18.8141399, 49.1942507]}, "properties": {"highway": "milestone", "ref": "18", "distance": "5.0", "ssc:usek": 842033, "ssc:stanicenie_m": 157, "side": "P", "road_class": "cesta I. triedy", "spravca": "SSC - IVSC ZA"}}, {"type": "Feature", "geometry": {"type": "Point", "coordinates": [18.7702853, 49.2145889]}, "properties": {"highway": "milestone", "ref": "18", "distance": "1.0", "ssc:usek": 2697, "ssc:stanicenie_m": 342, "side": "P", "road_class": "cesta I. triedy", "spravca": "SSC - IVSC ZA"}}, {"type": "Feature", "geometry": {"type": "Point", "coordinates": [18.8784028, 49.170192]}, "properties": {"highway": "milestone", "ref": "18", "distance": "11.0", "ssc:usek": 2621, "ssc:stanicenie_m": 1674, "side": "P", "road_class": "cesta I. triedy", "spravca": "SSC - IVSC ZA"}}, {"type": "Feature", "geometry": {"type": "Point", "coordinates": [18.8458206, 49.1369964]}, "properties": {"highway": "milestone", "ref": "D1", "distance": "209.0", "ssc:usek": 1655474, "ssc:stanicenie_m": 4403, "side": "L", "road_class": "diaľnica", "spravca": "NDS - SSUD PB"}}, {"type": "Feature", "geometry": {"type": "Point", "coordinates": [18.705258, 49.2433741]}, "properties": {"highway": "milestone", "ref": "D3", "distance": "8.0", "ssc:usek": 873132, "ssc:stanicenie_m": 1240, "side": "P", "road_class": "diaľnica", "spravca": "NDS - SSUD PB"}}, {"type": "Feature", "geometry": {"type": "Point", "coordinates": [18.6580235, 49.2506951]}, "properties": {"highway": "milestone", "ref": "D3", "distance": "3.5", "ssc:usek": 874713, "ssc:stanicenie_m": 3163, "side": "P", "road_class": "diaľnica", "spravca": "NDS - SSUD PB"}}, {"type": "Feature", "geometry": {"type": "Point", "coordinates": [18.7422579, 49.2455247]}, "properties": {"highway": "milestone", "ref": "D3", "distance": "11.0", "ssc:usek": 1526089, "ssc:stanicenie_m": 103, "side": "P", "road_class": "diaľnica", "spravca": "NDS - SSUD PB"}}, {"type": "Feature", "geometry": {"type": "Point", "coordinates": [18.9560567, 49.2433211]}, "properties": {"highway": "milestone", "ref": "583", "distance": "18.5", "ssc:usek": 398745, "ssc:stanicenie_m": 372, "side": "P", "road_class": "cesta II. triedy", "spravca": "SC ŽSK - HPOV"}}, {"type": "Feature", "geometry": {"type": "Point", "coordinates": [18.6857375, 49.248549]}, "properties": {"highway": "milestone", "ref": "D3", "distance": "6.0", "ssc:usek": 874713, "ssc:stanicenie_m": 645, "side": "P", "road_class": "diaľnica", "spravca": "NDS - SSUD PB"}}, {"type": "Feature", "geometry": {"type": "Point", "coordinates": [18.9624817, 49.2447645]}, "properties": {"highway": "milestone", "ref": "583", "distance": "19.0", "ssc:usek": 398745, "ssc:stanicenie_m": 873, "side": "P", "road_class": "cesta II. triedy", "spravca": "SC ŽSK - HPOV"}}, {"type": "Feature", "geometry": {"type": "Point", "coordinates": [18.621816, 49.0385183]}, "properties": {"highway": "milestone", "ref": "64", "distance": "177.0", "ssc:usek": 402348, "ssc:stanicenie_m": 3301, "side": "P", "road_class": "cesta I. triedy", "spravca": "SSC - IVSC ZA"}}, {"type": "Feature", "geometry": {"type": "Point", "coordinates": [18.6928671, 49.2413393]}, "properties": {"highway": "milestone", "ref": "D3", "distance": "7.0", "ssc:usek": 873132, "ssc:stanicenie_m": 244, "side": "P", "road_class": "diaľnica", "spravca": "NDS - SSUD PB"}}, {"type": "Feature", "geometry": {"type": "Point", "coordinates": [18.8255446, 49.1392303]}, "properties": {"highway": "milestone", "ref": "D1", "distance": "207.5", "ssc:usek": 1655474, "ssc:stanicenie_m": 2903, "side": "L", "road_class": "diaľnica", "spravca": "NDS - SSUD PB"}}, {"type": "Feature", "geometry": {"type": "Point", "coordinates": [18.7947623, 49.1483358]}, "properties": {"highway": "milestone", "ref": "D1", "distance": "205.0", "ssc:usek": 1655474, "ssc:stanicenie_m": 405, "side": "L", "road_class": "diaľnica", "spravca": "NDS - SSUD PB"}}, {"type": "Feature", "geometry": {"type": "Point", "coordinates": [18.6224254, 49.2308398]}, "properties": {"highway": "milestone", "ref": "D3", "distance": "0.0", "ssc:usek": 25344, "ssc:stanicenie_m": 183, "side": "P", "road_class": "diaľnica", "spravca": "NDS - SSUD PB"}}, {"type": "Feature", "geometry": {"type": "Point", "coordinates": [18.6223613, 49.2306308]}, "properties": {"highway": "milestone", "ref": "D3", "distance": "0.0", "ssc:usek": 25349, "ssc:stanicenie_m": 464, "side": "P", "road_class": "diaľnica", "spravca": "NDS - SSUD PB"}}, {"type": "Feature", "geometry": {"type": "Point", "coordinates": [18.6540019, 49.2470912]}, "properties": {"highway": "milestone", "ref": "D3", "distance": "3.0", "ssc:usek": 874713, "ssc:stanicenie_m": 3660, "side": "P", "road_class": "diaľnica", "spravca": "NDS - SSUD PB"}}, {"type": "Feature", "geometry": {"type": "Point", "coordinates": [18.5951734, 49.0911635]}, "properties": {"highway": "milestone", "ref": "517", "distance": "21.0", "ssc:usek": 1534939, "ssc:stanicenie_m": 334, "side": "P", "road_class": "cesta II. triedy", "spravca": "SC ŽSK - HPOV"}}, {"type": "Feature", "geometry": {"type": "Point", "coordinates": [18.7894921, 49.1515466]}, "properties": {"highway": "milestone", "ref": "D1", "distance": "204.5", "ssc:usek": 1654277, "ssc:stanicenie_m": 4841, "side": "P", "road_class": "diaľnica", "spravca": "NDS - SSUD MT"}}, {"type": "Feature", "geometry": {"type": "Point", "coordinates": [18.6461826, 49.2428012]}, "properties": {"highway": "milestone", "ref": "61", "distance": "190.0", "ssc:usek": 1749, "ssc:stanicenie_m": 473, "side": "P", "road_class": "cesta I. triedy", "spravca": "SSC - IVSC ZA"}}, {"type": "Feature", "geometry": {"type": "Point", "coordinates": [18.678624, 49.2542971]}, "properties": {"highway": "milestone", "ref": "61", "distance": "193.0", "ssc:usek": 26912, "ssc:stanicenie_m": 642, "side": "P", "road_class": "cesta I. triedy", "spravca": "SSC - IVSC ZA"}}, {"type": "Feature", "geometry": {"type": "Point", "coordinates": [18.7579401, 49.1586517]}, "properties": {"highway": "milestone", "ref": "D1", "distance": "202.0", "ssc:usek": 1655476, "ssc:stanicenie_m": 2640, "side": "P", "road_class": "diaľnica", "spravca": "NDS - SSUD MT"}}, {"type": "Feature", "geometry": {"type": "Point", "coordinates": [18.8386279, 49.1871772]}, "properties": {"highway": "milestone", "ref": "18", "distance": "7.0", "ssc:usek": 2616, "ssc:stanicenie_m": 149, "side": "P", "road_class": "cesta I. triedy", "spravca": "SSC - IVSC ZA"}}, {"type": "Feature", "geometry": {"type": "Point", "coordinates": [18.7106378, 49.2461157]}, "properties": {"highway": "milestone", "ref": "D3", "distance": "8.5", "ssc:usek": 873132, "ssc:stanicenie_m": 1740, "side": "P", "road_class": "diaľnica", "spravca": "NDS - SSUD PB"}}, {"type": "Feature", "geometry": {"type": "Point", "coordinates": [18.7367794, 49.2434052]}, "properties": {"highway": "milestone", "ref": "D3", "distance": "10.5", "ssc:usek": 873132, "ssc:stanicenie_m": 3740, "side": "P", "road_class": "diaľnica", "spravca": "NDS - SSUD PB"}}, {"type": "Feature", "geometry": {"type": "Point", "coordinates": [18.7350672, 49.1741755]}, "properties": {"highway": "milestone", "ref": "D1", "distance": "199.5", "ssc:usek": 1655476, "ssc:stanicenie_m": 5139, "side": "P", "road_class": "diaľnica", "spravca": "NDS - SSUD MT"}}, {"type": "Feature", "geometry": {"type": "Point", "coordinates": [18.7580963, 49.1585021]}, "properties": {"highway": "milestone", "ref": "D1", "distance": "202.0", "ssc:usek": 1654277, "ssc:stanicenie_m": 2342, "side": "P", "road_class": "diaľnica", "spravca": "NDS - SSUD MT"}}]}